{
"type": "FeatureCollection",
"name": "NGA013_Ekiti_drainage",
"crs": { "type": "name", "properties": { "name": "urn:ogc:def:crs:OGC:1.3:CRS84" } },
"features": [
{ "type": "Feature", "properties": { "name": null, "waterway": "stream" }, "geometry": { "type": "LineString", "coordinates": [ [ 4.9658317, 7.4451846 ], [ 4.9659166, 7.4451429 ], [ 4.9660426, 7.4450811 ], [ 4.9661216, 7.4450424 ] ] } },
{ "type": "Feature", "properties": { "name": null, "waterway": "stream" }, "geometry": { "type": "LineString", "coordinates": [ [ 4.9658006, 7.4452375 ], [ 4.9658173, 7.4452146 ], [ 4.9658317, 7.4451846 ] ] } },
{ "type": "Feature", "properties": { "name": null, "waterway": "stream" }, "geometry": { "type": "LineString", "coordinates": [ [ 4.9654618, 7.4456235 ], [ 4.9655498, 7.445567 ], [ 4.9655726, 7.4454878 ], [ 4.9656149, 7.4454701 ], [ 4.9656443, 7.4454103 ], [ 4.9656915, 7.4453683 ], [ 4.9657127, 7.4453312 ], [ 4.9657713, 7.4453295 ], [ 4.9658185, 7.4452972 ], [ 4.9658006, 7.4452375 ] ] } },
{ "type": "Feature", "properties": { "name": null, "waterway": "drain" }, "geometry": { "type": "LineString", "coordinates": [ [ 5.1032842, 7.5952123 ], [ 5.1029817, 7.5944704 ], [ 5.1023768, 7.5915362 ], [ 5.102392, 7.5914238 ], [ 5.1023277, 7.5910341 ], [ 5.1022899, 7.5909179 ] ] } },
{ "type": "Feature", "properties": { "name": null, "waterway": "stream" }, "geometry": { "type": "LineString", "coordinates": [ [ 5.1024743, 7.5979658 ], [ 5.1022975, 7.5976743 ], [ 5.1019081, 7.5969885 ], [ 5.1018249, 7.5966475 ], [ 5.1017795, 7.5965688 ], [ 5.1016656, 7.5965054 ], [ 5.101564, 7.5964489 ], [ 5.1014998, 7.596314 ], [ 5.1013221, 7.5962391 ], [ 5.101254, 7.5961604 ], [ 5.1013183, 7.5959168 ], [ 5.1012805, 7.5958868 ], [ 5.1011444, 7.5959281 ], [ 5.1010612, 7.5958981 ], [ 5.1010764, 7.5957032 ], [ 5.1012805, 7.595306 ], [ 5.101462, 7.5951149 ], [ 5.1015111, 7.5949762 ], [ 5.1015111, 7.5947289 ], [ 5.1016132, 7.5945453 ], [ 5.1016245, 7.5943504 ], [ 5.1016888, 7.5942643 ], [ 5.101874, 7.5941856 ], [ 5.1019156, 7.5940919 ], [ 5.1019118, 7.5940394 ], [ 5.1017606, 7.5938258 ], [ 5.1018325, 7.5935747 ], [ 5.1017153, 7.5934361 ], [ 5.1016588, 7.5932242 ], [ 5.1014884, 7.5928328 ], [ 5.1012843, 7.5927166 ], [ 5.1009819, 7.5922032 ], [ 5.1010159, 7.5919484 ], [ 5.1009138, 7.591776 ], [ 5.1009289, 7.5916261 ], [ 5.1010726, 7.591405 ], [ 5.1011558, 7.591124 ], [ 5.1013675, 7.5910865 ], [ 5.1014355, 7.5910003 ], [ 5.1015943, 7.5909404 ], [ 5.1020101, 7.5909779 ], [ 5.1022899, 7.5909179 ] ] } },
{ "type": "Feature", "properties": { "name": null, "waterway": "drain" }, "geometry": { "type": "LineString", "coordinates": [ [ 5.1043956, 7.5993905 ], [ 5.1036773, 7.5990458 ], [ 5.1034957, 7.5988903 ], [ 5.1030216, 7.5985274 ], [ 5.1028986, 7.5983563 ], [ 5.1024743, 7.5979658 ] ] } },
{ "type": "Feature", "properties": { "name": "Odo odi Canal", "waterway": "canal" }, "geometry": { "type": "LineString", "coordinates": [ [ 5.4266166, 7.4618542 ], [ 5.4267488, 7.4617573 ], [ 5.4266856, 7.4617003 ], [ 5.4265648, 7.4617801 ] ] } },
{ "type": "Feature", "properties": { "name": null, "waterway": "stream" }, "geometry": { "type": "LineString", "coordinates": [ [ 5.2514246, 7.4895851 ], [ 5.2515694, 7.4895585 ], [ 5.2518108, 7.4895479 ], [ 5.2519852, 7.4896144 ], [ 5.252067, 7.4896995 ], [ 5.2521595, 7.489766 ], [ 5.2522936, 7.4897872 ], [ 5.2523875, 7.4898085 ], [ 5.2525377, 7.4898963 ], [ 5.2526879, 7.4899814 ], [ 5.2528328, 7.4899814 ], [ 5.2530205, 7.4899042 ], [ 5.2531493, 7.4898457 ], [ 5.2533478, 7.4898378 ], [ 5.2535918, 7.4899069 ], [ 5.2536964, 7.4899654 ], [ 5.2538708, 7.4900213 ], [ 5.2540854, 7.4900904 ], [ 5.2542731, 7.490125 ], [ 5.2544287, 7.4901968 ], [ 5.2545199, 7.4902207 ], [ 5.2546486, 7.4901941 ], [ 5.2547452, 7.490125 ], [ 5.2548605, 7.4901409 ], [ 5.2549517, 7.4901888 ], [ 5.2550644, 7.4901329 ], [ 5.2551636, 7.489984 ], [ 5.2552012, 7.4898245 ], [ 5.2552132, 7.4897699 ], [ 5.2552521, 7.4897314 ], [ 5.2553219, 7.4897314 ], [ 5.2554104, 7.4897793 ], [ 5.2555498, 7.4898936 ], [ 5.2556062, 7.4900372 ], [ 5.2556142, 7.4901595 ], [ 5.2556169, 7.4902393 ], [ 5.2556196, 7.4902978 ], [ 5.2556786, 7.4903749 ], [ 5.2558127, 7.4904441 ], [ 5.2559173, 7.4904414 ], [ 5.2559683, 7.4904175 ], [ 5.2560192, 7.4902952 ], [ 5.2559924, 7.4901516 ], [ 5.2560514, 7.4900266 ], [ 5.2561909, 7.4899867 ], [ 5.2562579, 7.4900345 ], [ 5.256376, 7.490125 ], [ 5.2564564, 7.4901383 ], [ 5.2565235, 7.4900638 ], [ 5.2565637, 7.489992 ], [ 5.256616, 7.48998 ], [ 5.2566603, 7.4899947 ], [ 5.2567327, 7.4900505 ], [ 5.2568172, 7.4900984 ], [ 5.2569151, 7.490125 ], [ 5.2570143, 7.4901994 ] ] } },
{ "type": "Feature", "properties": { "name": null, "waterway": "stream" }, "geometry": { "type": "LineString", "coordinates": [ [ 5.1022899, 7.5909179 ], [ 5.1023768, 7.5908242 ], [ 5.1025621, 7.5905132 ], [ 5.1026112, 7.5901534 ], [ 5.1027133, 7.5900148 ], [ 5.1026982, 7.5898986 ], [ 5.1026112, 7.5897262 ], [ 5.1026453, 7.5895239 ], [ 5.1026717, 7.5894302 ], [ 5.1027057, 7.5893927 ], [ 5.1028607, 7.589329 ], [ 5.1028834, 7.5892878 ], [ 5.1028494, 7.5892503 ], [ 5.102649, 7.5892316 ], [ 5.1026112, 7.5892016 ], [ 5.1024411, 7.5888906 ], [ 5.1025205, 7.5886957 ], [ 5.1029099, 7.5882273 ], [ 5.1030498, 7.5879575 ], [ 5.1031216, 7.5876802 ], [ 5.1033106, 7.5871593 ], [ 5.10339, 7.5870206 ], [ 5.1034051, 7.5867583 ], [ 5.1034354, 7.5866534 ], [ 5.1036395, 7.5862299 ], [ 5.1037189, 7.5854205 ], [ 5.1038021, 7.5851657 ], [ 5.1038701, 7.5850645 ], [ 5.1040478, 7.5849708 ], [ 5.1041499, 7.5849858 ], [ 5.1044561, 7.585132 ], [ 5.1046149, 7.5851282 ], [ 5.1046527, 7.5850945 ], [ 5.1046451, 7.5850458 ], [ 5.1044599, 7.5848284 ], [ 5.10432, 7.5845099 ], [ 5.1039987, 7.5841576 ], [ 5.1038739, 7.5839253 ], [ 5.1038777, 7.5837117 ], [ 5.1039873, 7.5834681 ], [ 5.1039722, 7.5833107 ], [ 5.1039231, 7.5832133 ], [ 5.1039117, 7.5831121 ], [ 5.1039457, 7.5830109 ], [ 5.1040327, 7.5828798 ], [ 5.1040138, 7.5826549 ], [ 5.103942, 7.5824713 ], [ 5.1039382, 7.5823626 ], [ 5.1040516, 7.5820778 ], [ 5.104131, 7.5819916 ], [ 5.1042104, 7.5818492 ], [ 5.1042028, 7.5816993 ], [ 5.1041121, 7.5815794 ], [ 5.1041839, 7.5814445 ], [ 5.1042671, 7.5813921 ], [ 5.1045015, 7.5813733 ], [ 5.1045431, 7.5813471 ], [ 5.1046111, 7.5812122 ], [ 5.1046602, 7.5811897 ], [ 5.1047623, 7.5812084 ], [ 5.1048077, 7.5811897 ], [ 5.1048228, 7.5809798 ], [ 5.1048946, 7.5809199 ], [ 5.105095, 7.5808524 ], [ 5.1051631, 7.5807662 ], [ 5.1052235, 7.5806238 ] ] } },
{ "type": "Feature", "properties": { "name": null, "waterway": "drain" }, "geometry": { "type": "LineString", "coordinates": [ [ 5.1094695, 7.6023438 ], [ 5.1090725, 7.6021184 ], [ 5.1090301, 7.6020114 ], [ 5.1090147, 7.6019007 ], [ 5.1090456, 7.6018319 ], [ 5.1092421, 7.6017517 ], [ 5.1093153, 7.601702 ], [ 5.1093269, 7.6016485 ], [ 5.1092768, 7.6015186 ], [ 5.1092383, 7.601469 ], [ 5.1090533, 7.6014652 ], [ 5.10898, 7.6014308 ], [ 5.1089376, 7.6013697 ], [ 5.1089299, 7.601278 ], [ 5.1089916, 7.6011863 ], [ 5.1090032, 7.6010297 ], [ 5.1089107, 7.6008501 ], [ 5.1087488, 7.6006858 ], [ 5.1085098, 7.6005598 ], [ 5.1082979, 7.6004834 ], [ 5.1082362, 7.6004108 ], [ 5.1081129, 7.6001777 ], [ 5.1080512, 7.6001013 ], [ 5.107978, 7.6000937 ], [ 5.1078277, 7.6000135 ], [ 5.1077429, 7.5998989 ], [ 5.1075502, 7.5998186 ], [ 5.1074076, 7.5996735 ], [ 5.1070915, 7.5995894 ], [ 5.1066714, 7.5994137 ], [ 5.1065481, 7.599322 ], [ 5.1060471, 7.5989171 ], [ 5.1050065, 7.5983937 ], [ 5.1048639, 7.5983593 ], [ 5.1038657, 7.5979391 ], [ 5.1036383, 7.5978589 ], [ 5.1025668, 7.5974883 ], [ 5.1020157, 7.596793 ], [ 5.1019039, 7.596453 ], [ 5.1016656, 7.5965054 ] ] } },
{ "type": "Feature", "properties": { "name": null, "waterway": "stream" }, "geometry": { "type": "LineString", "coordinates": [ [ 5.2353904, 7.7041872 ], [ 5.2353448, 7.7039905 ], [ 5.2353045, 7.7037434 ], [ 5.2352831, 7.7035892 ], [ 5.2352402, 7.7034962 ], [ 5.2351946, 7.7034589 ], [ 5.2351114, 7.703435 ], [ 5.2350417, 7.7034377 ], [ 5.2349719, 7.7034483 ], [ 5.2349129, 7.7034111 ], [ 5.2348459, 7.7032596 ], [ 5.2347815, 7.7031586 ], [ 5.2347359, 7.7031161 ], [ 5.234642, 7.7031373 ], [ 5.2345616, 7.7031852 ], [ 5.2344623, 7.7032118 ], [ 5.2343899, 7.7032038 ], [ 5.2343309, 7.7031825 ], [ 5.234288, 7.7031799 ], [ 5.2342236, 7.7031958 ], [ 5.2341646, 7.7032064 ], [ 5.2341056, 7.7032277 ], [ 5.2340412, 7.7032118 ], [ 5.2339822, 7.7031878 ], [ 5.2338481, 7.7030416 ], [ 5.233773, 7.7029566 ], [ 5.233553, 7.7027679 ], [ 5.2334726, 7.7026669 ], [ 5.2333975, 7.7025685 ], [ 5.233309, 7.7024888 ], [ 5.2332178, 7.7024223 ], [ 5.2331454, 7.7023745 ], [ 5.2330488, 7.7023479 ], [ 5.2329308, 7.7023054 ], [ 5.2327913, 7.7022947 ], [ 5.2326786, 7.7022947 ], [ 5.2325714, 7.7023107 ], [ 5.232448, 7.7022921 ], [ 5.2322575, 7.7022044 ], [ 5.2321261, 7.702106 ], [ 5.2320805, 7.702013 ], [ 5.2320591, 7.7019386 ], [ 5.2320564, 7.7018376 ], [ 5.2320564, 7.7017605 ], [ 5.2320778, 7.7016515 ], [ 5.2321905, 7.7014229 ], [ 5.2322495, 7.7013299 ], [ 5.2324051, 7.7013618 ], [ 5.2325016, 7.7014761 ], [ 5.2326196, 7.7015133 ], [ 5.2328128, 7.7014867 ], [ 5.2329066, 7.7015106 ], [ 5.2329522, 7.7014176 ], [ 5.2329683, 7.7012528 ], [ 5.2329925, 7.7011571 ], [ 5.2330354, 7.7010614 ], [ 5.2330515, 7.7009179 ], [ 5.23303, 7.7007956 ], [ 5.2329871, 7.7007398 ], [ 5.232904, 7.7007531 ], [ 5.2328315, 7.7008009 ], [ 5.2327645, 7.7008063 ], [ 5.2327296, 7.7008036 ], [ 5.2326223, 7.7007956 ], [ 5.2325526, 7.7007611 ], [ 5.2324721, 7.7007345 ], [ 5.2324158, 7.7006893 ], [ 5.2323058, 7.7006574 ], [ 5.2322522, 7.7006494 ], [ 5.232228, 7.7006069 ], [ 5.2321784, 7.7004009 ], [ 5.2321516, 7.700276 ], [ 5.2321798, 7.7002414 ], [ 5.2321959, 7.7001936 ], [ 5.2321945, 7.7001324 ], [ 5.2321798, 7.6999916 ], [ 5.2322187, 7.6999544 ], [ 5.2323447, 7.6999437 ], [ 5.232389, 7.6998972 ], [ 5.2324171, 7.6998308 ], [ 5.2324091, 7.6997842 ], [ 5.2323528, 7.699759 ], [ 5.2322522, 7.6997271 ], [ 5.2321851, 7.6997191 ], [ 5.2321047, 7.6997045 ], [ 5.2319598, 7.6996553 ], [ 5.2318901, 7.6996367 ], [ 5.2317587, 7.6996952 ], [ 5.2316809, 7.6996739 ], [ 5.2316004, 7.6995623 ], [ 5.2315521, 7.6994453 ], [ 5.231536, 7.6993683 ], [ 5.2315897, 7.6992938 ], [ 5.2316809, 7.6992593 ], [ 5.2317747, 7.6992593 ], [ 5.2319679, 7.6991503 ], [ 5.2320886, 7.6990068 ], [ 5.2321905, 7.6989536 ], [ 5.2322817, 7.6988473 ], [ 5.2324453, 7.6987356 ], [ 5.2325043, 7.6986692 ], [ 5.2326223, 7.6985655 ], [ 5.2328047, 7.6984964 ], [ 5.2328745, 7.6985071 ], [ 5.2331239, 7.6983635 ], [ 5.2331963, 7.6982599 ], [ 5.233207, 7.6981535 ], [ 5.2331212, 7.6981456 ], [ 5.2330461, 7.6981961 ], [ 5.2329817, 7.6982173 ], [ 5.2329013, 7.6981801 ], [ 5.2328879, 7.6980951 ], [ 5.2329415, 7.69801 ], [ 5.2329925, 7.6979568 ], [ 5.2329549, 7.6978877 ], [ 5.2328932, 7.6978186 ], [ 5.2327886, 7.6977256 ], [ 5.2327055, 7.6976804 ], [ 5.2325875, 7.6975023 ], [ 5.2326116, 7.6973721 ], [ 5.2326599, 7.697303 ], [ 5.2327484, 7.697287 ], [ 5.2328289, 7.6972392 ], [ 5.2329522, 7.6972764 ], [ 5.2330622, 7.6972179 ], [ 5.2331427, 7.6971435 ], [ 5.2331802, 7.6970717 ], [ 5.2332231, 7.6969734 ], [ 5.2332178, 7.696891 ], [ 5.2331534, 7.6968192 ], [ 5.2330917, 7.6968325 ], [ 5.2330273, 7.6968405 ], [ 5.2329683, 7.6968777 ], [ 5.2329013, 7.6968298 ], [ 5.2328396, 7.6966969 ], [ 5.232853, 7.6966517 ], [ 5.2328771, 7.69658 ], [ 5.2328932, 7.6965162 ], [ 5.2328235, 7.6964524 ], [ 5.2327135, 7.6963939 ], [ 5.2326706, 7.6963567 ], [ 5.2326357, 7.6962716 ], [ 5.2326894, 7.6961786 ], [ 5.2327886, 7.6961255 ], [ 5.2328289, 7.6961068 ], [ 5.2328449, 7.6960324 ], [ 5.232802, 7.6959394 ], [ 5.2327806, 7.6958304 ], [ 5.2327162, 7.6957666 ], [ 5.2326465, 7.6956922 ], [ 5.2325848, 7.6956178 ], [ 5.2325687, 7.6955487 ], [ 5.2326465, 7.6954795 ], [ 5.2327055, 7.6954078 ], [ 5.2327269, 7.6953307 ], [ 5.2327162, 7.6952935 ], [ 5.2326304, 7.6952616 ], [ 5.2325553, 7.6952802 ], [ 5.2324855, 7.6952935 ], [ 5.2323943, 7.6953147 ], [ 5.2323434, 7.6952988 ], [ 5.2322012, 7.6952031 ], [ 5.2322039, 7.6950994 ], [ 5.2322924, 7.6950489 ], [ 5.2323568, 7.6950755 ], [ 5.2324104, 7.6950436 ], [ 5.2324936, 7.6949905 ], [ 5.2325848, 7.6948974 ], [ 5.2326277, 7.6948204 ], [ 5.2326921, 7.694714 ], [ 5.2326974, 7.6946449 ], [ 5.2326706, 7.694629 ], [ 5.2326089, 7.6946104 ], [ 5.2325231, 7.6946795 ], [ 5.2324373, 7.6946874 ], [ 5.2323595, 7.6946369 ], [ 5.2322817, 7.6945838 ], [ 5.232228, 7.6945413 ], [ 5.2321637, 7.6944961 ], [ 5.2322012, 7.6943818 ], [ 5.2322951, 7.6942861 ], [ 5.2323702, 7.6942382 ], [ 5.2323997, 7.6941824 ], [ 5.2324104, 7.6940974 ], [ 5.2323621, 7.6940282 ], [ 5.2322495, 7.6939698 ], [ 5.2321744, 7.6939671 ], [ 5.2320966, 7.6940176 ], [ 5.2320001, 7.6940814 ], [ 5.2318794, 7.6940841 ], [ 5.2317908, 7.6940655 ], [ 5.2316621, 7.6940229 ], [ 5.2315602, 7.6939698 ], [ 5.2314556, 7.6938714 ], [ 5.2314153, 7.6937917 ], [ 5.2314448, 7.69368 ], [ 5.231477, 7.6935764 ], [ 5.2315414, 7.693494 ], [ 5.2315682, 7.6934435 ], [ 5.2315816, 7.6933531 ], [ 5.2315629, 7.693183 ], [ 5.2315012, 7.6930767 ], [ 5.231469, 7.6929703 ], [ 5.2314475, 7.6928986 ], [ 5.2313858, 7.6928693 ], [ 5.2313295, 7.6928693 ], [ 5.2312303, 7.6928986 ], [ 5.2311578, 7.692981 ], [ 5.2310827, 7.6930315 ], [ 5.2309862, 7.6929438 ], [ 5.2309486, 7.6928428 ], [ 5.2310184, 7.692763 ], [ 5.2310961, 7.6926248 ], [ 5.2312383, 7.6925743 ], [ 5.2314314, 7.6925025 ], [ 5.2316728, 7.6924467 ], [ 5.2317131, 7.6924254 ], [ 5.231764, 7.692359 ], [ 5.2317747, 7.6922792 ], [ 5.2317023, 7.6922128 ], [ 5.2316353, 7.6921198 ], [ 5.2316138, 7.6920347 ], [ 5.2316567, 7.6919948 ], [ 5.2317452, 7.6919815 ], [ 5.2318096, 7.6919948 ], [ 5.2320483, 7.69204 ], [ 5.2320752, 7.6920214 ], [ 5.2321154, 7.6918619 ], [ 5.2320752, 7.6917503 ], [ 5.2320296, 7.6916546 ], [ 5.232051, 7.691519 ], [ 5.2320617, 7.6913675 ], [ 5.2321315, 7.6912479 ], [ 5.2322173, 7.691224 ], [ 5.2323729, 7.6911761 ], [ 5.2324158, 7.691123 ], [ 5.2324533, 7.6910353 ], [ 5.2324533, 7.6909608 ], [ 5.2324533, 7.6908811 ], [ 5.2324909, 7.690804 ], [ 5.2325124, 7.6907721 ], [ 5.232617, 7.6908067 ], [ 5.2327001, 7.6909103 ], [ 5.2327323, 7.6909794 ], [ 5.2328074, 7.6909662 ], [ 5.232853, 7.6908784 ], [ 5.2328503, 7.690812 ], [ 5.2328879, 7.690703 ], [ 5.232853, 7.6906286 ], [ 5.2328852, 7.690493 ], [ 5.2328932, 7.6904452 ], [ 5.2328932, 7.6903707 ], [ 5.2328235, 7.6903176 ], [ 5.232735, 7.6902697 ], [ 5.2326491, 7.6901953 ], [ 5.2326652, 7.6901076 ], [ 5.2328369, 7.6899933 ], [ 5.2329737, 7.6899773 ], [ 5.2331319, 7.6899906 ], [ 5.2332124, 7.6900039 ], [ 5.2333197, 7.6899508 ], [ 5.2333975, 7.6899189 ], [ 5.2334163, 7.6899933 ], [ 5.233435, 7.6900916 ], [ 5.2336174, 7.690174 ], [ 5.2336791, 7.6901847 ], [ 5.2337059, 7.6900996 ], [ 5.2337435, 7.6900146 ], [ 5.233781, 7.6899986 ], [ 5.2338856, 7.689972 ], [ 5.2339876, 7.6900092 ], [ 5.2340224, 7.6900146 ], [ 5.2340385, 7.6899295 ], [ 5.2340224, 7.6898391 ], [ 5.2340493, 7.689762 ], [ 5.234068, 7.689685 ], [ 5.234127, 7.6897089 ], [ 5.2341565, 7.6897514 ], [ 5.2341941, 7.6897913 ], [ 5.2342719, 7.6897993 ], [ 5.2343577, 7.6897594 ], [ 5.2343845, 7.6896903 ], [ 5.2344274, 7.689669 ], [ 5.2345294, 7.6896531 ], [ 5.2346313, 7.6896531 ], [ 5.2347118, 7.6896477 ], [ 5.2347869, 7.6896079 ], [ 5.2348271, 7.6895334 ], [ 5.2348244, 7.689451 ], [ 5.2347144, 7.689374 ], [ 5.234583, 7.6893288 ], [ 5.2345428, 7.689265 ], [ 5.2345884, 7.6890975 ], [ 5.2346662, 7.6889806 ], [ 5.2348003, 7.6890098 ], [ 5.234862, 7.6889673 ], [ 5.2349398, 7.6888237 ], [ 5.23498, 7.6887546 ], [ 5.2349612, 7.6887148 ], [ 5.2350685, 7.6885313 ], [ 5.2351275, 7.6885021 ], [ 5.2351436, 7.6884224 ], [ 5.2350631, 7.6883612 ], [ 5.2349827, 7.6882655 ], [ 5.2349773, 7.6881433 ], [ 5.23498, 7.6880236 ], [ 5.2350497, 7.6879412 ] ] } },
{ "type": "Feature", "properties": { "name": null, "waterway": "stream" }, "geometry": { "type": "LineString", "coordinates": [ [ 5.2193534, 7.7164298 ], [ 5.2182805, 7.716467 ], [ 5.2177656, 7.7165733 ], [ 5.21761, 7.7165361 ], [ 5.2174866, 7.7165468 ], [ 5.2173257, 7.7166052 ], [ 5.2171969, 7.7166478 ], [ 5.2169985, 7.716685 ], [ 5.2164298, 7.7168232 ], [ 5.2156788, 7.7173069 ], [ 5.2154535, 7.7175195 ], [ 5.215078, 7.7176152 ], [ 5.2147347, 7.7176578 ], [ 5.2143806, 7.7176259 ], [ 5.2140748, 7.7175993 ], [ 5.2130556, 7.7176259 ], [ 5.2126104, 7.7176843 ], [ 5.2124762, 7.7177641 ], [ 5.2123851, 7.7179448 ], [ 5.2123046, 7.7181149 ], [ 5.212208, 7.7181893 ], [ 5.2119505, 7.7182212 ], [ 5.2117681, 7.7182212 ], [ 5.2116716, 7.7182744 ], [ 5.2115536, 7.7183382 ], [ 5.2114409, 7.7184332 ], [ 5.211221, 7.7184737 ], [ 5.2111512, 7.7186013 ], [ 5.2110922, 7.7187316 ], [ 5.2109206, 7.7189548 ], [ 5.2108133, 7.7190213 ], [ 5.2106121, 7.7190877 ], [ 5.2105075, 7.7191914 ], [ 5.2103654, 7.7192472 ], [ 5.2102634, 7.7192472 ], [ 5.2101856, 7.7191834 ], [ 5.2100059, 7.7190797 ], [ 5.2099335, 7.719101 ], [ 5.2098396, 7.7191993 ], [ 5.2097779, 7.7192525 ], [ 5.2096438, 7.7192791 ], [ 5.2095419, 7.7192738 ], [ 5.2093166, 7.719109 ], [ 5.2092174, 7.718992 ], [ 5.209212, 7.7187847 ], [ 5.2091879, 7.7187289 ], [ 5.2090618, 7.718705 ], [ 5.2088821, 7.7187103 ], [ 5.2088204, 7.7186598 ], [ 5.2087963, 7.718596 ], [ 5.2087855, 7.7184977 ], [ 5.2087346, 7.7184126 ], [ 5.20863, 7.7183993 ], [ 5.2085254, 7.7184286 ], [ 5.2083376, 7.7184551 ], [ 5.2081794, 7.718495 ], [ 5.2080103, 7.718479 ], [ 5.2079353, 7.7185375 ], [ 5.207828, 7.7185854 ], [ 5.2076992, 7.7185694 ], [ 5.2072459, 7.718705 ], [ 5.2069697, 7.7187608 ], [ 5.2068812, 7.7187847 ], [ 5.2067658, 7.7187953 ], [ 5.2066532, 7.7187874 ], [ 5.2065808, 7.7188246 ], [ 5.2064842, 7.7188937 ], [ 5.2063715, 7.7189096 ], [ 5.206275, 7.7188671 ], [ 5.2062133, 7.7188113 ], [ 5.2061301, 7.7186917 ], [ 5.2060899, 7.7186465 ], [ 5.2059612, 7.7185428 ], [ 5.2059075, 7.7185216 ], [ 5.20576, 7.7183674 ], [ 5.2056152, 7.7183913 ], [ 5.2054623, 7.7184126 ], [ 5.2053899, 7.7184844 ], [ 5.2053174, 7.7185163 ], [ 5.2052611, 7.7184844 ], [ 5.2051967, 7.7183594 ], [ 5.2051216, 7.7182771 ], [ 5.2050519, 7.7182398 ], [ 5.2049929, 7.7182744 ], [ 5.2048883, 7.7182638 ], [ 5.2048373, 7.7182186 ], [ 5.2048615, 7.7181442 ], [ 5.2048266, 7.718075 ], [ 5.2047354, 7.7180724 ], [ 5.2045691, 7.7179501 ], [ 5.2044994, 7.7179182 ], [ 5.2043545, 7.7178598 ], [ 5.2042633, 7.7177322 ], [ 5.2042097, 7.7176471 ], [ 5.2041882, 7.7175674 ], [ 5.2040702, 7.7175036 ], [ 5.2039897, 7.7174239 ], [ 5.2039897, 7.7173282 ], [ 5.2039629, 7.7172325 ], [ 5.2038878, 7.7171953 ], [ 5.2037483, 7.7171634 ], [ 5.2036303, 7.7171793 ], [ 5.203523, 7.7171315 ], [ 5.203405, 7.717073 ], [ 5.2032494, 7.7169826 ], [ 5.2030992, 7.7168179 ], [ 5.2029437, 7.7166956 ], [ 5.2027291, 7.716584 ], [ 5.2024448, 7.7164457 ], [ 5.2022892, 7.7163394 ], [ 5.2019942, 7.7161693 ], [ 5.2018171, 7.716063 ], [ 5.2017206, 7.7159939 ], [ 5.2016562, 7.7158823 ], [ 5.2016133, 7.7158451 ], [ 5.2015006, 7.7158557 ], [ 5.2012593, 7.7158078 ], [ 5.2010554, 7.7157653 ], [ 5.2009374, 7.715776 ], [ 5.2008408, 7.7157334 ], [ 5.2007443, 7.7156909 ], [ 5.2006906, 7.7156218 ], [ 5.2005619, 7.715558 ], [ 5.20046, 7.715558 ], [ 5.2003473, 7.7156324 ], [ 5.2000683, 7.7156962 ], [ 5.1998806, 7.7157441 ], [ 5.1997411, 7.7158397 ], [ 5.1995802, 7.7159195 ], [ 5.1993066, 7.7159301 ], [ 5.1991457, 7.7157813 ], [ 5.1988292, 7.7156696 ], [ 5.1984054, 7.7154995 ], [ 5.198105, 7.7155102 ], [ 5.1977831, 7.7154092 ], [ 5.1976651, 7.7153401 ], [ 5.1975471, 7.7151434 ], [ 5.1974291, 7.7149414 ], [ 5.1973325, 7.7147819 ], [ 5.1972735, 7.7146277 ], [ 5.1972145, 7.7145055 ], [ 5.1969784, 7.7143035 ], [ 5.1968068, 7.7141652 ], [ 5.1967049, 7.7139898 ], [ 5.1965707, 7.7138303 ], [ 5.1963347, 7.7136656 ], [ 5.1960236, 7.713421 ], [ 5.1957339, 7.7132243 ], [ 5.1957446, 7.7129107 ], [ 5.1957875, 7.7127831 ], [ 5.1957768, 7.712714 ], [ 5.195691, 7.7126768 ], [ 5.1955783, 7.7127193 ], [ 5.1955193, 7.7126981 ], [ 5.1954389, 7.7125652 ], [ 5.1954442, 7.712512 ], [ 5.1953852, 7.7124482 ], [ 5.1953128, 7.7123951 ], [ 5.195168, 7.7122595 ], [ 5.1949185, 7.7121 ], [ 5.194779, 7.7120256 ], [ 5.1946369, 7.7119033 ], [ 5.1944894, 7.7117279 ], [ 5.1944357, 7.7116827 ], [ 5.1943794, 7.7116774 ], [ 5.1941219, 7.7116615 ], [ 5.1940602, 7.7116136 ] ] } }
]
}
