{
"type": "FeatureCollection",
"name": "NGA001_Abia_drainage",
"crs": { "type": "name", "properties": { "name": "urn:ogc:def:crs:OGC:1.3:CRS84" } },
"features": [
{ "type": "Feature", "properties": { "name": "Imo River", "waterway": "river" }, "geometry": { "type": "MultiLineString", "coordinates": [ [ [ 7.418232129195041, 4.866120834719227 ], [ 7.4194863, 4.8663497 ], [ 7.4236572, 4.8667027 ], [ 7.4253148, 4.8666064 ], [ 7.4275598, 4.8662683 ], [ 7.429381, 4.8656764 ], [ 7.4307167, 4.8649762 ], [ 7.4319398, 4.8641156 ], [ 7.4336005, 4.8627392 ], [ 7.4342036, 4.8620203 ], [ 7.4348313, 4.861101 ], [ 7.4364496, 4.8582018 ], [ 7.4374331, 4.8563719 ], [ 7.4391925, 4.8534414 ], [ 7.4396968, 4.8528855 ], [ 7.4417674, 4.851175 ], [ 7.4434197, 4.8495661 ], [ 7.4472477, 4.8458603 ], [ 7.447874215027595, 4.845365393677433 ] ], [ [ 7.471732520381584, 4.841994955186236 ], [ 7.4732858, 4.8410101 ], [ 7.4743177, 4.8401215 ], [ 7.4756227, 4.8384983 ], [ 7.4766144, 4.8371656 ], [ 7.4800855, 4.8330652 ], [ 7.4813032, 4.831777 ], [ 7.4829984, 4.8304941 ], [ 7.4847415, 4.8293858 ], [ 7.4865496, 4.8282918 ], [ 7.4875742, 4.8275274 ], [ 7.4882072, 4.826886 ], [ 7.4888778, 4.8259719 ], [ 7.4897146, 4.82424 ], [ 7.490145220037424, 4.823101603496069 ] ] ] } },
{ "type": "Feature", "properties": { "name": "Aba River", "waterway": "river" }, "geometry": { "type": "MultiLineString", "coordinates": [ [ [ 7.473675, 4.9435658 ], [ 7.4738359, 4.9403324 ], [ 7.4753379, 4.9375105 ], [ 7.4779558, 4.9303702 ], [ 7.4778799, 4.9222637 ], [ 7.4767742, 4.9181193 ], [ 7.4779326, 4.9154963 ], [ 7.4769322, 4.9135552 ], [ 7.4769322, 4.9115617 ], [ 7.4757211, 4.9088862 ], [ 7.476195, 4.9060533 ], [ 7.478835762851934, 4.902740017054835 ] ], [ [ 7.479079395593518, 4.902260703483928 ], [ 7.4800914, 4.8967151 ], [ 7.4812498, 4.8943543 ], [ 7.481393186551585, 4.891497640588105 ] ], [ [ 7.481029188244577, 4.889152697004288 ], [ 7.4809339, 4.8886358 ], [ 7.4792489, 4.887744 ], [ 7.4788804, 4.8873243 ], [ 7.4791963, 4.8861701 ], [ 7.4796066, 4.8860869 ], [ 7.4798962, 4.8864017 ], [ 7.4800805, 4.886664 ], [ 7.4803964, 4.8866115 ], [ 7.48068489375815, 4.886132563843272 ] ], [ [ 7.480693711371122, 4.884792280105226 ], [ 7.4805544, 4.8847229 ], [ 7.480706222756145, 4.883512930287734 ] ], [ [ 7.483039656353245, 4.878341194267467 ], [ 7.4831871, 4.8770632 ], [ 7.4838453, 4.8755942 ], [ 7.4846088, 4.8749384 ], [ 7.4848457, 4.8752532 ], [ 7.484855422420844, 4.875629943807712 ] ], [ [ 7.486696029112404, 4.872576261132637 ], [ 7.4865043, 4.8723939 ], [ 7.4866096, 4.8715545 ], [ 7.4871362, 4.8712659 ], [ 7.4877944, 4.8697445 ], [ 7.4873205, 4.8690624 ], [ 7.4873995, 4.8682755 ], [ 7.4880576, 4.8670688 ], [ 7.488084, 4.8661769 ], [ 7.4885842, 4.8651538 ], [ 7.4892687, 4.8650751 ], [ 7.4898742, 4.8644455 ], [ 7.490743, 4.8640521 ], [ 7.4917961, 4.8629765 ], [ 7.4927439, 4.8628716 ], [ 7.492909004293931, 4.862999092936877 ] ], [ [ 7.496057984006807, 4.860696954659034 ], [ 7.4961999, 4.8604287 ], [ 7.4964165, 4.859761 ], [ 7.4967907, 4.8592456 ], [ 7.4970415, 4.8587066 ], [ 7.4971943, 4.8585109 ], [ 7.4975476, 4.8585332 ], [ 7.4982121, 4.85899 ], [ 7.498714001325895, 4.859123897355427 ] ], [ [ 7.499227154136857, 4.854369416351139 ], [ 7.4988255, 4.8544247 ], [ 7.4985326, 4.8543018 ], [ 7.4982562, 4.8539003 ], [ 7.4980805, 4.8532562 ], [ 7.4979494, 4.8529837 ], [ 7.4977509, 4.8527909 ], [ 7.4977213, 4.8526159 ], [ 7.4977945, 4.8524506 ], [ 7.4982641, 4.8521688 ], [ 7.4986148, 4.8517491 ], [ 7.4986457, 4.8515775 ], [ 7.498636171135027, 4.851365196888403 ] ], [ [ 7.498548004050092, 4.851229317533822 ], [ 7.4981016, 4.8508642 ], [ 7.4978042, 4.8505453 ], [ 7.4975912, 4.8504551 ], [ 7.49711, 4.8503566 ], [ 7.4969113, 4.8502836 ], [ 7.4967286, 4.8499039 ], [ 7.496456, 4.8490732 ], [ 7.4963181, 4.8474887 ], [ 7.4959773, 4.8466425 ], [ 7.4958962, 4.8455193 ], [ 7.4960103, 4.8445897 ], [ 7.4962093, 4.8438356 ], [ 7.496672, 4.8428829 ], [ 7.4971473, 4.8420323 ], [ 7.4974761, 4.8416135 ], [ 7.4979826, 4.8410763 ], [ 7.4981089, 4.8408156 ], [ 7.4981323, 4.8405128 ], [ 7.498165, 4.8396219 ], [ 7.4983121, 4.8391857 ], [ 7.4982536, 4.8385691 ], [ 7.4983642, 4.8381205 ], [ 7.4994597, 4.8360745 ], [ 7.4997898, 4.8347876 ], [ 7.500069, 4.8342986 ], [ 7.500335879379595, 4.833770088738617 ] ], [ [ 7.492989578873322, 4.825840524810601 ], [ 7.4925859, 4.8257256 ], [ 7.4918488, 4.824991 ], [ 7.491640435675885, 4.824458143774906 ] ] ] } },
{ "type": "Feature", "properties": { "name": "Aba River", "waterway": "river" }, "geometry": { "type": "LineString", "coordinates": [ [ 7.4735918, 4.9438277 ], [ 7.473675, 4.9435658 ] ] } },
{ "type": "Feature", "properties": { "name": null, "waterway": "river" }, "geometry": { "type": "LineString", "coordinates": [ [ 7.4186514, 5.0116405 ], [ 7.4186353, 5.0115016 ], [ 7.4186862, 5.0113813 ], [ 7.4188418, 5.0112584 ], [ 7.4189464, 5.011205 ], [ 7.4190456, 5.0110714 ], [ 7.4191315, 5.0109645 ], [ 7.4192173, 5.0109619 ], [ 7.4192602, 5.0109939 ], [ 7.4192602, 5.0110928 ], [ 7.4194193, 5.0111751 ], [ 7.4199343, 5.0109614 ], [ 7.4203205, 5.0106407 ], [ 7.4211681, 5.0104484 ] ] } },
{ "type": "Feature", "properties": { "name": "Aba River", "waterway": "river" }, "geometry": { "type": "LineString", "coordinates": [ [ 7.4172138, 5.0159938 ], [ 7.4170697, 5.0159846 ], [ 7.4169302, 5.0155999 ], [ 7.4168516, 5.0150392 ], [ 7.4168462, 5.0149644 ], [ 7.4168838, 5.0148869 ], [ 7.4169455, 5.0148175 ], [ 7.4170206, 5.0147961 ], [ 7.4171225, 5.0147908 ], [ 7.4171708, 5.0147453 ], [ 7.417101, 5.0146759 ], [ 7.4170098, 5.0146064 ], [ 7.4169803, 5.0145503 ], [ 7.4170098, 5.0144568 ], [ 7.4170474, 5.0143819 ], [ 7.4171681, 5.0143499 ], [ 7.4173156, 5.0142484 ], [ 7.4174095, 5.0141415 ], [ 7.4174953, 5.0140773 ], [ 7.4175248, 5.0139544 ], [ 7.4175865, 5.0138182 ], [ 7.4176428, 5.0136926 ], [ 7.4177367, 5.0136124 ], [ 7.4177823, 5.0135536 ], [ 7.4178333, 5.0134468 ], [ 7.4178226, 5.0133399 ], [ 7.4177957, 5.0132036 ], [ 7.4178091, 5.0130834 ], [ 7.4179379, 5.0129498 ], [ 7.4180666, 5.012891 ], [ 7.4181498, 5.0128189 ], [ 7.4181981, 5.012704 ], [ 7.4182383, 5.0125036 ], [ 7.4182195, 5.0123245 ], [ 7.4182061, 5.0122123 ], [ 7.4182678, 5.012028 ], [ 7.4183188, 5.0119157 ], [ 7.4183509, 5.0118489 ], [ 7.4184073, 5.0117474 ], [ 7.4184877, 5.0117207 ], [ 7.4186058, 5.011726 ], [ 7.4186514, 5.0116405 ] ] } },
{ "type": "Feature", "properties": { "name": "Aba River", "waterway": "river" }, "geometry": { "type": "LineString", "coordinates": [ [ 7.3806667, 5.1150846 ], [ 7.3805299, 5.1148334 ], [ 7.3805487, 5.1144861 ], [ 7.3812246, 5.1129046 ], [ 7.3812246, 5.112413 ], [ 7.3809779, 5.111836 ], [ 7.3811817, 5.1106819 ], [ 7.3815465, 5.1104254 ], [ 7.3815143, 5.1097415 ], [ 7.3824905, 5.1094317 ], [ 7.3827052, 5.1080744 ], [ 7.3837674, 5.1065036 ], [ 7.3842823, 5.106215 ], [ 7.3846793, 5.1053388 ], [ 7.3844969, 5.1048365 ], [ 7.3853981, 5.1044839 ], [ 7.3862028, 5.1030198 ], [ 7.386986, 5.1027313 ], [ 7.3870611, 5.1016092 ], [ 7.3878121, 5.1020046 ], [ 7.3881449, 5.101294 ], [ 7.3881932, 5.1011764 ], [ 7.3882361, 5.1010963 ], [ 7.3883273, 5.1009894 ], [ 7.3883916, 5.1008932 ], [ 7.3884721, 5.1008184 ], [ 7.3885472, 5.1007009 ], [ 7.3886223, 5.1005299 ], [ 7.3887189, 5.1004177 ], [ 7.3888315, 5.1001666 ], [ 7.38903, 5.0998941 ], [ 7.3891158, 5.0996964 ], [ 7.3891963, 5.0995681 ], [ 7.3893197, 5.0994559 ], [ 7.3893894, 5.0993865 ], [ 7.3894699, 5.0992956 ], [ 7.3895933, 5.0992048 ], [ 7.3897542, 5.0991086 ], [ 7.3899849, 5.0989911 ], [ 7.390119, 5.0988682 ], [ 7.3902102, 5.0987399 ], [ 7.3902209, 5.0986544 ], [ 7.3902155, 5.0985315 ], [ 7.3901936, 5.0984127 ], [ 7.3901941, 5.0983232 ], [ 7.3902102, 5.0982644 ], [ 7.390296, 5.0982163 ], [ 7.3903926, 5.0981789 ], [ 7.3905964, 5.0981629 ], [ 7.390752, 5.0981629 ], [ 7.3909236, 5.0982484 ], [ 7.3910578, 5.0982484 ], [ 7.3911543, 5.0982377 ], [ 7.3912611, 5.0981562 ], [ 7.3913206, 5.0980346 ], [ 7.3914386, 5.0977675 ], [ 7.3915829, 5.0975952 ], [ 7.3917224, 5.0973654 ], [ 7.3918141, 5.0971263 ], [ 7.3918088, 5.0969981 ], [ 7.3919214, 5.0965653 ], [ 7.3920502, 5.0962019 ], [ 7.3922642, 5.0959762 ], [ 7.3925593, 5.0958372 ], [ 7.3927846, 5.0956609 ], [ 7.3929562, 5.0955487 ], [ 7.3930906, 5.0954966 ], [ 7.3931815, 5.095506 ], [ 7.3932569, 5.0955821 ], [ 7.39338, 5.0956823 ], [ 7.3934498, 5.0956876 ], [ 7.3935463, 5.0956823 ], [ 7.3936485, 5.0955447 ], [ 7.3937236, 5.0953951 ], [ 7.3937665, 5.0952722 ], [ 7.3937397, 5.0951653 ], [ 7.3936861, 5.0950905 ], [ 7.3934931, 5.0948501 ], [ 7.3936325, 5.09446 ], [ 7.3944586, 5.093354 ], [ 7.3954081, 5.091719 ], [ 7.3972746, 5.0873325 ], [ 7.3984659, 5.085665 ], [ 7.3986751, 5.0847834 ], [ 7.3998391, 5.0839446 ], [ 7.4006438, 5.0829079 ], [ 7.4013304, 5.0819247 ], [ 7.4019098, 5.0816255 ], [ 7.401824, 5.0811713 ], [ 7.4020171, 5.0807278 ], [ 7.4017596, 5.0804072 ], [ 7.402811, 5.0785478 ], [ 7.4041629, 5.0775859 ], [ 7.4043345, 5.0758119 ], [ 7.4054503, 5.0757478 ], [ 7.4071669, 5.0736318 ], [ 7.4107932, 5.0686304 ], [ 7.4121666, 5.064548 ], [ 7.4123379, 5.0600384 ], [ 7.4125528, 5.0570457 ], [ 7.4135828, 5.0540747 ], [ 7.412188, 5.0516808 ], [ 7.412982, 5.0464227 ], [ 7.4125742, 5.0444348 ], [ 7.4122524, 5.0430027 ], [ 7.4128532, 5.0418912 ], [ 7.412467, 5.0400958 ], [ 7.412467, 5.0362269 ], [ 7.411952, 5.035372 ], [ 7.4127245, 5.0346452 ], [ 7.4123597, 5.0335978 ], [ 7.4120378, 5.0327856 ], [ 7.4121451, 5.0320802 ], [ 7.4115658, 5.03161 ], [ 7.4123597, 5.0306053 ], [ 7.4121022, 5.0297931 ], [ 7.4128314, 5.0288101 ], [ 7.4132609, 5.0261807 ], [ 7.4127674, 5.0248554 ], [ 7.4130294, 5.023902 ], [ 7.4131019, 5.0237684 ], [ 7.413236, 5.0236883 ], [ 7.413362, 5.0235333 ], [ 7.4134801, 5.0233596 ], [ 7.4135122, 5.0231913 ], [ 7.4135015, 5.0230043 ], [ 7.4134881, 5.0228039 ], [ 7.4135257, 5.0225206 ], [ 7.4135659, 5.0222668 ], [ 7.4136517, 5.0218767 ], [ 7.4137992, 5.0215988 ], [ 7.4138985, 5.0213958 ], [ 7.4139092, 5.0211767 ], [ 7.4139387, 5.0210217 ], [ 7.4141077, 5.0208026 ], [ 7.4141721, 5.0207224 ], [ 7.4142445, 5.0205701 ], [ 7.4143089, 5.0204018 ], [ 7.4143115, 5.0200999 ], [ 7.4143384, 5.0199182 ], [ 7.4143598, 5.0197178 ], [ 7.4143947, 5.0194666 ], [ 7.4144456, 5.0193571 ], [ 7.4145288, 5.0192315 ], [ 7.4146254, 5.019154 ], [ 7.4146683, 5.0190258 ], [ 7.4146844, 5.0188868 ], [ 7.4147058, 5.0188013 ], [ 7.4148131, 5.0187425 ], [ 7.4148963, 5.0186597 ], [ 7.4150143, 5.0185635 ], [ 7.4150867, 5.018462 ], [ 7.415143, 5.0183391 ], [ 7.4151833, 5.0182135 ], [ 7.4152879, 5.0180826 ], [ 7.4153576, 5.0180024 ], [ 7.4154273, 5.0178929 ], [ 7.415489, 5.0177994 ], [ 7.415658, 5.0175028 ], [ 7.4157787, 5.0173745 ], [ 7.4158753, 5.0172169 ], [ 7.4159906, 5.0170566 ], [ 7.4160657, 5.0169283 ], [ 7.4161328, 5.0168107 ], [ 7.4162588, 5.0167146 ], [ 7.4164922, 5.016589 ], [ 7.4166129, 5.0165542 ], [ 7.4170529, 5.0164427 ], [ 7.4172245, 5.0162717 ], [ 7.4172621, 5.0161167 ], [ 7.4172138, 5.0159938 ], [ 7.4172943, 5.0158709 ], [ 7.4174981, 5.0157961 ], [ 7.4176859, 5.0154968 ], [ 7.4183571, 5.0153754 ], [ 7.4190545, 5.0148731 ], [ 7.4198162, 5.0133341 ], [ 7.4200094, 5.0122867 ], [ 7.4207604, 5.0117095 ], [ 7.4211681, 5.0104484 ], [ 7.423582, 5.0078406 ], [ 7.4257275, 4.9992905 ], [ 7.4387741, 4.9889014 ], [ 7.4439239, 4.9839848 ], [ 7.4526783, 4.9797098 ], [ 7.4637723, 4.9676956 ], [ 7.4671411, 4.9645959 ], [ 7.4690079, 4.9610046 ], [ 7.4695015, 4.9591661 ], [ 7.4701237, 4.9590379 ], [ 7.4707675, 4.9578621 ], [ 7.4707675, 4.955532 ], [ 7.4717327, 4.9522615 ], [ 7.4735918, 4.9438277 ] ] } },
{ "type": "Feature", "properties": { "name": null, "waterway": "stream" }, "geometry": { "type": "LineString", "coordinates": [ [ 7.65434066248211, 5.443448098655701 ], [ 7.6542873, 5.4435302 ], [ 7.6541017, 5.4436498 ], [ 7.6536832, 5.4437032 ], [ 7.6533753, 5.4437545 ], [ 7.6532037, 5.4437331 ], [ 7.6529998, 5.4435729 ], [ 7.6528571, 5.4434255 ], [ 7.6526136, 5.4433379 ], [ 7.6522703, 5.4434341 ], [ 7.6521705, 5.4436712 ], [ 7.6521383, 5.4440023 ], [ 7.6521201, 5.4442778 ], [ 7.6521061, 5.4445363 ], [ 7.6518518, 5.4446089 ], [ 7.6516662, 5.4445149 ], [ 7.6514334, 5.4445128 ], [ 7.6515192, 5.4447264 ], [ 7.6516694, 5.4450041 ], [ 7.6516802, 5.4452818 ], [ 7.6515407, 5.4455061 ], [ 7.6512478, 5.4455296 ], [ 7.6511191, 5.4453907 ], [ 7.6509152, 5.4451451 ], [ 7.6506073, 5.4449721 ], [ 7.6503498, 5.4449293 ], [ 7.6501996, 5.4450148 ], [ 7.6499603, 5.4449208 ], [ 7.6498026, 5.4450255 ], [ 7.6498348, 5.445207 ], [ 7.6500065, 5.4452604 ], [ 7.6503037, 5.4452946 ], [ 7.650411, 5.4454228 ], [ 7.6504142, 5.4456022 ], [ 7.6501749, 5.4456684 ], [ 7.6498241, 5.4455915 ], [ 7.6494593, 5.44541 ], [ 7.649263, 5.4454228 ], [ 7.649234, 5.4455702 ], [ 7.6492555, 5.4458051 ], [ 7.6494454, 5.4459781 ], [ 7.6497136, 5.446117 ], [ 7.6497994, 5.4462665 ], [ 7.6497704, 5.446446 ], [ 7.6495312, 5.4463733 ], [ 7.6493917, 5.4462772 ], [ 7.6490913, 5.4462558 ], [ 7.6488016, 5.4461811 ], [ 7.6486546, 5.4460615 ], [ 7.6483832, 5.4458713 ], [ 7.6481933, 5.4458799 ], [ 7.6481075, 5.4460508 ], [ 7.648086, 5.4464994 ], [ 7.6481826, 5.4469266 ], [ 7.648115, 5.4471316 ], [ 7.6479648, 5.4472812 ], [ 7.6477931, 5.447388 ], [ 7.6475603, 5.4475247 ], [ 7.6474498, 5.4474734 ], [ 7.6474605, 5.4473239 ], [ 7.6475034, 5.4471637 ], [ 7.6474637, 5.4469372 ], [ 7.6472921, 5.4467877 ], [ 7.6469917, 5.4467664 ], [ 7.646334, 5.4470782 ], [ 7.6461516, 5.4473666 ], [ 7.6458619, 5.4474093 ], [ 7.645672, 5.4475354 ], [ 7.6455508, 5.4476336 ], [ 7.6451646, 5.4480929 ], [ 7.6449854, 5.4482937 ], [ 7.6447064, 5.4484432 ], [ 7.6444994, 5.4485735 ], [ 7.644199, 5.4488085 ], [ 7.6440412, 5.4489558 ], [ 7.6438985, 5.4492143 ], [ 7.6438803, 5.4493083 ], [ 7.6439018, 5.4494578 ], [ 7.6440595, 5.449492 ], [ 7.6444704, 5.4497569 ], [ 7.6446925, 5.4499299 ], [ 7.6446528, 5.4500986 ], [ 7.644435, 5.450293 ], [ 7.6444382, 5.4504831 ], [ 7.6445208, 5.4506348 ], [ 7.6447032, 5.4507523 ], [ 7.644921, 5.4507929 ], [ 7.6450498, 5.450921 ], [ 7.6449929, 5.45103 ], [ 7.6448212, 5.4511581 ], [ 7.6445133, 5.451455 ], [ 7.6443846, 5.4516473 ], [ 7.6444457, 5.4518417 ], [ 7.644524, 5.4518929 ], [ 7.6446281, 5.4518951 ], [ 7.6448105, 5.4517883 ], [ 7.6449285, 5.4516921 ], [ 7.6450894, 5.4516815 ], [ 7.645318, 5.4517327 ], [ 7.6455433, 5.4519997 ], [ 7.6456044, 5.4521514 ], [ 7.6455862, 5.4522881 ], [ 7.6454328, 5.4522796 ], [ 7.6451538, 5.4521941 ], [ 7.6451034, 5.4523415 ], [ 7.645157, 5.4525124 ], [ 7.6453148, 5.4525786 ], [ 7.6455079, 5.4526 ], [ 7.6456795, 5.4527281 ], [ 7.6457654, 5.4529524 ], [ 7.6458619, 5.4532194 ], [ 7.6457686, 5.4533882 ], [ 7.6456044, 5.453401 ], [ 7.645436, 5.4532386 ], [ 7.6454113, 5.4529845 ], [ 7.6451967, 5.4528563 ], [ 7.6449425, 5.453025 ], [ 7.6449103, 5.4532386 ], [ 7.6450036, 5.4535185 ], [ 7.6450498, 5.4537727 ], [ 7.6451646, 5.4540845 ], [ 7.6451892, 5.4543067 ], [ 7.644921, 5.4544669 ], [ 7.6448459, 5.4546912 ], [ 7.6445315, 5.4549923 ], [ 7.6443492, 5.4550778 ], [ 7.6441346, 5.4550564 ], [ 7.6441239, 5.4549176 ], [ 7.6441668, 5.4546613 ], [ 7.6441775, 5.4544797 ], [ 7.6439769, 5.4543921 ], [ 7.6437623, 5.4544776 ], [ 7.6434801, 5.4545545 ], [ 7.6433406, 5.4547467 ], [ 7.6433085, 5.4549069 ], [ 7.6433621, 5.4550564 ], [ 7.6435338, 5.4551632 ], [ 7.6436014, 5.4552786 ], [ 7.6435981, 5.4554836 ], [ 7.6434512, 5.4557165 ], [ 7.6432259, 5.4557592 ], [ 7.6429866, 5.4557079 ], [ 7.6428042, 5.4556011 ], [ 7.642772, 5.4553768 ], [ 7.642625, 5.4552145 ], [ 7.6424534, 5.4552359 ], [ 7.6423107, 5.4553662 ], [ 7.6422678, 5.4555691 ], [ 7.6422173, 5.4558233 ], [ 7.6422356, 5.4559536 ], [ 7.6423107, 5.4561885 ], [ 7.6424287, 5.4562206 ], [ 7.6425896, 5.4562206 ], [ 7.6426487, 5.4562366 ], [ 7.6426919, 5.4563204 ], [ 7.642697, 5.4564075 ], [ 7.6426597, 5.4565127 ], [ 7.6425846, 5.4566302 ], [ 7.6423537, 5.456824 ], [ 7.642182, 5.4569201 ], [ 7.6420965, 5.4569452 ], [ 7.642005, 5.4568988 ], [ 7.6419353, 5.4567813 ], [ 7.6418924, 5.4567226 ], [ 7.6417958, 5.4566798 ], [ 7.6416134, 5.4567493 ], [ 7.6414364, 5.4568561 ], [ 7.6413291, 5.4569682 ], [ 7.6412701, 5.457059 ], [ 7.6413023, 5.4572245 ], [ 7.6413452, 5.4573901 ], [ 7.6414045, 5.4575967 ], [ 7.6413937, 5.4576662 ], [ 7.6412915, 5.4577799 ], [ 7.6411682, 5.4578547 ], [ 7.6410448, 5.4578386 ], [ 7.6409214, 5.4577158 ], [ 7.6407497, 5.4576464 ], [ 7.6405298, 5.4576357 ], [ 7.6403313, 5.4576945 ], [ 7.6401436, 5.457844 ], [ 7.640047, 5.4579348 ], [ 7.6399722, 5.4580773 ], [ 7.6399722, 5.4581895 ], [ 7.6399934, 5.4582445 ], [ 7.6400902, 5.4582482 ], [ 7.6402401, 5.4582552 ], [ 7.6402887, 5.4583123 ], [ 7.6403635, 5.4584901 ], [ 7.6403638, 5.458606 ], [ 7.6402294, 5.4587411 ], [ 7.6401275, 5.458912 ], [ 7.640047, 5.4590936 ], [ 7.6400473, 5.4592682 ], [ 7.6401704, 5.4594407 ], [ 7.6402457, 5.4595726 ], [ 7.640235, 5.4597701 ], [ 7.6401221, 5.4599373 ], [ 7.6399612, 5.4600388 ], [ 7.6398002, 5.4601562 ], [ 7.6397734, 5.4603912 ], [ 7.639763, 5.4606139 ], [ 7.6397251, 5.4607757 ], [ 7.6396286, 5.4608611 ], [ 7.639543, 5.4608969 ], [ 7.6393818, 5.4608985 ], [ 7.639248, 5.4608115 ], [ 7.6391082, 5.4607597 ], [ 7.6388507, 5.460781 ], [ 7.6387491, 5.4609823 ], [ 7.6387005, 5.4612082 ], [ 7.6387491, 5.4613989 ], [ 7.6388454, 5.4616512 ], [ 7.6389366, 5.4619075 ], [ 7.6388829, 5.4620303 ], [ 7.638781, 5.4620624 ], [ 7.6385879, 5.4619876 ], [ 7.6384109, 5.4618701 ], [ 7.6382446, 5.4618488 ], [ 7.6381695, 5.4619235 ], [ 7.6381855, 5.4620944 ], [ 7.638266, 5.4623294 ], [ 7.6382982, 5.4625163 ], [ 7.6382985, 5.4626912 ], [ 7.6382285, 5.4627566 ], [ 7.6380783, 5.4627406 ], [ 7.6379176, 5.4625844 ], [ 7.6376547, 5.4623494 ], [ 7.6374077, 5.4623454 ], [ 7.6371395, 5.4624789 ], [ 7.6370537, 5.4626338 ], [ 7.6370537, 5.4627993 ], [ 7.6370537, 5.4630129 ], [ 7.6370858, 5.4630877 ], [ 7.6372417, 5.4630917 ], [ 7.6373758, 5.4630756 ], [ 7.6374613, 5.4630716 ], [ 7.6374935, 5.463125 ], [ 7.6374828, 5.4632692 ], [ 7.6373702, 5.4634187 ], [ 7.6372682, 5.4635095 ], [ 7.6371934, 5.4635669 ], [ 7.6371663, 5.4637285 ], [ 7.6371666, 5.4638393 ], [ 7.6372256, 5.4639087 ], [ 7.6374077, 5.4639528 ], [ 7.6375043, 5.4639848 ], [ 7.6376598, 5.4640435 ], [ 7.637751, 5.464161 ], [ 7.6377242, 5.4642625 ], [ 7.6376708, 5.4643679 ], [ 7.6376547, 5.4644961 ], [ 7.6376652, 5.4647965 ], [ 7.6376494, 5.4649714 ], [ 7.6376172, 5.4651689 ], [ 7.6375474, 5.4653291 ], [ 7.6374938, 5.465452 ], [ 7.6373326, 5.4655868 ], [ 7.6372092, 5.4656082 ], [ 7.6370858, 5.4656135 ], [ 7.6369088, 5.4655548 ], [ 7.6367372, 5.4654747 ], [ 7.6365279, 5.465464 ], [ 7.6363831, 5.465448 ], [ 7.6362704, 5.4653518 ], [ 7.6362544, 5.4651703 ], [ 7.6361793, 5.4650742 ], [ 7.6360505, 5.4650154 ], [ 7.6359271, 5.464978 ], [ 7.635793, 5.4649086 ], [ 7.635734, 5.4648018 ], [ 7.6357072, 5.4646149 ], [ 7.6357286, 5.4644761 ], [ 7.6356857, 5.4643212 ], [ 7.6356267, 5.4642411 ], [ 7.6355355, 5.4642358 ], [ 7.6354553, 5.4642518 ], [ 7.6353534, 5.464412 ], [ 7.6352944, 5.4645241 ], [ 7.6352247, 5.4645388 ], [ 7.6351227, 5.4645295 ], [ 7.6350423, 5.4644601 ], [ 7.6349457, 5.4643639 ], [ 7.6346399, 5.4641917 ], [ 7.6345112, 5.464412 ], [ 7.634479, 5.4645722 ], [ 7.63442, 5.4646937 ], [ 7.6342859, 5.4647858 ], [ 7.6341464, 5.4648018 ], [ 7.6339479, 5.464679 ], [ 7.633905, 5.4644761 ], [ 7.6339801, 5.4640008 ], [ 7.6339533, 5.4638139 ], [ 7.6338138, 5.4636697 ], [ 7.6335778, 5.4635402 ], [ 7.6333686, 5.4634882 ], [ 7.632875, 5.4635042 ], [ 7.6327302, 5.4635416 ], [ 7.6325854, 5.4636697 ], [ 7.6325478, 5.4637592 ], [ 7.6326605, 5.4638887 ], [ 7.6327838, 5.4640155 ], [ 7.632918, 5.4641597 ], [ 7.6330521, 5.4643039 ], [ 7.6331057, 5.4644387 ], [ 7.6330682, 5.4645348 ], [ 7.6328589, 5.4645455 ], [ 7.6326497, 5.4644494 ], [ 7.6324137, 5.4643639 ], [ 7.6323493, 5.4644334 ], [ 7.6323386, 5.4645562 ], [ 7.632403, 5.464711 ], [ 7.632521, 5.4648539 ], [ 7.6325854, 5.4649887 ], [ 7.6325961, 5.4651329 ], [ 7.6326015, 5.4652704 ], [ 7.6326015, 5.4654159 ], [ 7.6325371, 5.4655801 ], [ 7.6324137, 5.4656082 ], [ 7.6322581, 5.4655868 ], [ 7.6318236, 5.4655334 ], [ 7.6316788, 5.4655708 ], [ 7.6315232, 5.4656976 ], [ 7.6310726, 5.4661742 ], [ 7.6308902, 5.4665467 ], [ 7.6309009, 5.4669111 ], [ 7.6309868, 5.46707 ], [ 7.6310404, 5.4672409 ], [ 7.631019, 5.4673597 ], [ 7.6309385, 5.4674398 ], [ 7.63074, 5.4674932 ], [ 7.6305683, 5.4674879 ], [ 7.6304718, 5.467568 ], [ 7.6304718, 5.4676908 ], [ 7.6305791, 5.4677976 ], [ 7.630681, 5.4678777 ], [ 7.6307239, 5.4679084 ], [ 7.6308258, 5.4679845 ], [ 7.6309278, 5.4680913 ], [ 7.630976, 5.4681821 ], [ 7.6310136, 5.4683142 ], [ 7.6310082, 5.4684437 ], [ 7.630799, 5.4684704 ], [ 7.6306166, 5.4684277 ], [ 7.6304611, 5.4685025 ], [ 7.6303967, 5.4686306 ], [ 7.6304342, 5.4687361 ], [ 7.6306273, 5.4687895 ], [ 7.6307722, 5.4687908 ], [ 7.6309546, 5.4688175 ], [ 7.6309599, 5.4689497 ], [ 7.6307132, 5.4693248 ], [ 7.63074, 5.469505 ], [ 7.6307132, 5.4697093 ], [ 7.6307132, 5.4698682 ], [ 7.630681, 5.4700177 ], [ 7.6306703, 5.4702059 ], [ 7.6305952, 5.4703915 ], [ 7.6305791, 5.4705156 ], [ 7.6305898, 5.4706171 ], [ 7.6306327, 5.4706865 ], [ 7.6307239, 5.4707452 ], [ 7.6308419, 5.4707346 ], [ 7.6309868, 5.4706972 ], [ 7.6311584, 5.4707079 ], [ 7.631196, 5.470792 ], [ 7.6312603, 5.4709482 ], [ 7.6312818, 5.4710536 ], [ 7.6312496, 5.4711871 ], [ 7.6311477, 5.47137 ], [ 7.6309009, 5.4715409 ], [ 7.6307185, 5.4716797 ], [ 7.6306917, 5.4718026 ], [ 7.6307346, 5.4718813 ], [ 7.6308687, 5.4718973 ], [ 7.631019, 5.4719187 ], [ 7.6311262, 5.4719841 ], [ 7.6311745, 5.4720629 ], [ 7.6311799, 5.4722177 ], [ 7.6311101, 5.4723833 ], [ 7.6309063, 5.472406 ], [ 7.6304235, 5.4722938 ], [ 7.6302679, 5.4722885 ], [ 7.6301338, 5.4723366 ], [ 7.6300802, 5.4723846 ], [ 7.6300587, 5.4724807 ], [ 7.6300855, 5.4725555 ], [ 7.6301714, 5.4725608 ], [ 7.6302411, 5.4724914 ], [ 7.6303377, 5.4725288 ], [ 7.6304503, 5.4726449 ], [ 7.6306434, 5.4730414 ], [ 7.6307239, 5.4731469 ], [ 7.6308044, 5.4733832 ], [ 7.6307883, 5.4735754 ], [ 7.6306971, 5.473789 ], [ 7.6305147, 5.4738424 ], [ 7.6302465, 5.4738691 ], [ 7.6300909, 5.4739439 ], [ 7.6300587, 5.4740333 ], [ 7.6300587, 5.4741722 ], [ 7.6301124, 5.4743337 ], [ 7.6302304, 5.4744832 ], [ 7.6302948, 5.4745033 ], [ 7.630445, 5.4745046 ], [ 7.6305522, 5.4743818 ], [ 7.6306273, 5.4742589 ], [ 7.630681, 5.4742269 ], [ 7.6307722, 5.4742162 ], [ 7.6308527, 5.474263 ], [ 7.6310297, 5.4744779 ], [ 7.6311262, 5.4747395 ], [ 7.6310887, 5.4748503 ], [ 7.6309653, 5.474873 ], [ 7.6306756, 5.474809 ], [ 7.630343, 5.4747716 ], [ 7.6299836, 5.4747823 ], [ 7.6296832, 5.4748036 ], [ 7.6295652, 5.4748303 ], [ 7.6295062, 5.4747596 ], [ 7.6295437, 5.4746541 ], [ 7.6295437, 5.4745526 ], [ 7.6294686, 5.4744565 ], [ 7.6293721, 5.4744298 ], [ 7.6292004, 5.4744352 ], [ 7.6291146, 5.4745526 ], [ 7.6291146, 5.4747449 ], [ 7.6291146, 5.474877 ], [ 7.6290663, 5.4750386 ], [ 7.6290019, 5.4752148 ], [ 7.6289, 5.475407 ], [ 7.6286908, 5.4755192 ], [ 7.628546, 5.4754925 ], [ 7.6285299, 5.475391 ], [ 7.6285245, 5.4752896 ], [ 7.6284601, 5.4751561 ], [ 7.6283797, 5.4750226 ], [ 7.6283582, 5.4748677 ], [ 7.6284011, 5.4746808 ], [ 7.6284065, 5.474558 ], [ 7.6283743, 5.4744832 ], [ 7.6282026, 5.4744245 ], [ 7.6280739, 5.4744138 ], [ 7.6279183, 5.4744445 ], [ 7.6278003, 5.4745366 ], [ 7.6277735, 5.4746901 ], [ 7.6278647, 5.474845 ], [ 7.627972, 5.4750279 ], [ 7.6281168, 5.4753042 ], [ 7.6281544, 5.4754057 ], [ 7.6281973, 5.4755766 ], [ 7.6282026, 5.4757435 ], [ 7.6280846, 5.4757755 ], [ 7.6278754, 5.475646 ], [ 7.6277359, 5.4755766 ], [ 7.6276018, 5.4755726 ], [ 7.6275106, 5.4756033 ], [ 7.6274462, 5.4756794 ], [ 7.6274302, 5.4757862 ], [ 7.6274677, 5.4758276 ], [ 7.6275321, 5.4758289 ], [ 7.6277091, 5.4757702 ], [ 7.6277896, 5.4758009 ], [ 7.6278325, 5.4758863 ], [ 7.6278379, 5.4760038 ], [ 7.6277359, 5.4760905 ], [ 7.6276447, 5.4761973 ], [ 7.6275643, 5.4763469 ], [ 7.6276662, 5.4765071 ], [ 7.6278057, 5.4767954 ], [ 7.6277681, 5.476961 ], [ 7.6276501, 5.4771051 ], [ 7.6274516, 5.4771532 ], [ 7.6272639, 5.4771959 ], [ 7.6271995, 5.4772493 ], [ 7.6271458, 5.4773721 ], [ 7.6271512, 5.4775163 ], [ 7.6272424, 5.4776818 ], [ 7.627398, 5.477794 ], [ 7.6275965, 5.4778527 ], [ 7.6280792, 5.4780863 ], [ 7.6282885, 5.4782319 ], [ 7.6286693, 5.478376 ], [ 7.6288571, 5.4784828 ], [ 7.6289161, 5.478599 ], [ 7.6288249, 5.4786911 ], [ 7.6286425, 5.4787178 ], [ 7.6284601, 5.4788192 ], [ 7.6284387, 5.4789728 ], [ 7.6284709, 5.4791436 ], [ 7.6284816, 5.4792985 ], [ 7.6283636, 5.4794814 ], [ 7.6282992, 5.4796723 ], [ 7.6283314, 5.479727 ], [ 7.628562, 5.4797591 ], [ 7.6288249, 5.479679 ], [ 7.6290127, 5.4796683 ], [ 7.6291736, 5.4796416 ], [ 7.6292809, 5.4796363 ], [ 7.6293721, 5.4797164 ], [ 7.6293828, 5.4798392 ], [ 7.6292702, 5.4800634 ], [ 7.6291146, 5.4801702 ], [ 7.6289858, 5.4802116 ], [ 7.6288088, 5.4801969 ], [ 7.6286264, 5.4800848 ], [ 7.6284226, 5.4799874 ], [ 7.6282938, 5.4799393 ], [ 7.6281383, 5.4799607 ], [ 7.6281275, 5.4800901 ], [ 7.6282497, 5.4801897 ], [ 7.6282938, 5.4802877 ], [ 7.6284762, 5.4803198 ], [ 7.6285674, 5.4803878 ], [ 7.6285889, 5.4806495 ], [ 7.6287874, 5.480751 ], [ 7.6289966, 5.4808845 ], [ 7.6290878, 5.4810073 ], [ 7.6292433, 5.4811528 ], [ 7.6294633, 5.4812529 ], [ 7.6295384, 5.4814518 ], [ 7.6294901, 5.4815573 ], [ 7.6293882, 5.4816387 ], [ 7.6291414, 5.481628 ], [ 7.6290931, 5.4814411 ], [ 7.6290234, 5.4813076 ], [ 7.6288893, 5.4812329 ], [ 7.6287069, 5.4812542 ], [ 7.6286264, 5.4813557 ], [ 7.628605, 5.4814879 ], [ 7.6286371, 5.4816761 ], [ 7.6287337, 5.4817709 ], [ 7.6289536, 5.4818617 ], [ 7.6290717, 5.4819538 ], [ 7.6291629, 5.4820753 ], [ 7.6291843, 5.4821874 ], [ 7.6290341, 5.4822635 ], [ 7.6287927, 5.4822795 ], [ 7.6286157, 5.4823743 ], [ 7.628546, 5.4824704 ], [ 7.6284869, 5.4826052 ], [ 7.6284923, 5.4828188 ], [ 7.6286264, 5.4830378 ], [ 7.6288195, 5.4831592 ], [ 7.6290127, 5.4833088 ], [ 7.6289644, 5.4834436 ], [ 7.6288249, 5.4834596 ], [ 7.6286211, 5.4833955 ], [ 7.6284762, 5.4833955 ], [ 7.6284226, 5.4834276 ], [ 7.6283528, 5.4835437 ], [ 7.6282831, 5.4837693 ], [ 7.6282293, 5.4839857 ], [ 7.6282105, 5.4841833 ], [ 7.6282025, 5.4843568 ], [ 7.628181, 5.4845971 ], [ 7.6281435, 5.4846372 ], [ 7.6280925, 5.4846452 ], [ 7.6280013, 5.4846132 ], [ 7.6279396, 5.4845571 ], [ 7.627921, 5.48431 ], [ 7.6279235, 5.4842073 ], [ 7.6279101, 5.4840792 ], [ 7.6278726, 5.4839884 ], [ 7.6277465, 5.4839724 ], [ 7.6276553, 5.4840044 ], [ 7.6276233, 5.4841658 ], [ 7.6276205, 5.4843248 ], [ 7.6275374, 5.4845156 ], [ 7.6274087, 5.4847292 ], [ 7.6271806, 5.4849496 ], [ 7.6270251, 5.4850309 ], [ 7.6268238, 5.4850403 ], [ 7.626738, 5.485035 ], [ 7.6266173, 5.4850243 ], [ 7.6265449, 5.485027 ], [ 7.6265075, 5.4850869 ], [ 7.6264859, 5.4851471 ], [ 7.6264617, 5.4852272 ], [ 7.6264349, 5.485294 ], [ 7.626384, 5.4853367 ], [ 7.6263142, 5.4853581 ], [ 7.6262364, 5.485326 ], [ 7.6261935, 5.4852566 ], [ 7.6260809, 5.4851952 ], [ 7.6259521, 5.4851765 ], [ 7.6257778, 5.4852326 ], [ 7.6256893, 5.4853127 ], [ 7.625649, 5.4853901 ], [ 7.6256356, 5.4855129 ], [ 7.6256276, 5.4857025 ], [ 7.6256705, 5.4859374 ], [ 7.6257831, 5.4861056 ], [ 7.6259387, 5.4862952 ], [ 7.6260299, 5.4863993 ], [ 7.6260648, 5.4864768 ], [ 7.6260836, 5.4865622 ], [ 7.6260755, 5.486653 ], [ 7.6260058, 5.4867064 ], [ 7.6258931, 5.4867197 ], [ 7.6257565, 5.4866755 ], [ 7.6255525, 5.4866129 ], [ 7.6253728, 5.4866103 ], [ 7.6251582, 5.4866396 ], [ 7.6250804, 5.486709 ], [ 7.6250455, 5.4868212 ], [ 7.6250455, 5.486904 ], [ 7.6250724, 5.4869814 ], [ 7.6251154, 5.48706 ], [ 7.6252065, 5.4871202 ], [ 7.6254157, 5.4871576 ], [ 7.625523, 5.4871976 ], [ 7.6256115, 5.4872751 ], [ 7.6256383, 5.4873552 ], [ 7.625649, 5.48747 ], [ 7.6256276, 5.4875928 ], [ 7.6254479, 5.4878438 ], [ 7.6254103, 5.4879506 ], [ 7.6254237, 5.4880493 ], [ 7.6254666, 5.4881481 ], [ 7.6255712, 5.4881989 ], [ 7.6256437, 5.4882095 ], [ 7.6257, 5.4882309 ], [ 7.6257483, 5.4882763 ], [ 7.6257724, 5.4883591 ], [ 7.6257671, 5.4884552 ], [ 7.6257429, 5.4885967 ], [ 7.6257402, 5.4887035 ], [ 7.6257912, 5.4889384 ], [ 7.6257939, 5.4890506 ], [ 7.6258046, 5.4891654 ], [ 7.6257966, 5.4892268 ], [ 7.6257456, 5.4892642 ], [ 7.6256598, 5.4892802 ], [ 7.625523, 5.4892882 ], [ 7.6253836, 5.4893241 ], [ 7.6252708, 5.4893469 ], [ 7.6251957, 5.489379 ], [ 7.6250965, 5.489435 ], [ 7.625075, 5.4894911 ], [ 7.625067, 5.4895578 ], [ 7.6250885, 5.4896139 ], [ 7.625134, 5.4896513 ], [ 7.6251904, 5.4896753 ], [ 7.6252601, 5.489686 ], [ 7.6253917, 5.4896739 ], [ 7.6255231, 5.4896952 ], [ 7.6256115, 5.4897528 ], [ 7.6256544, 5.4898222 ], [ 7.6256358, 5.4899435 ], [ 7.6256142, 5.4900144 ], [ 7.6255686, 5.4900758 ], [ 7.625531, 5.4901265 ], [ 7.6254961, 5.4901506 ], [ 7.6254264, 5.4901532 ], [ 7.6253406, 5.4901212 ], [ 7.6252789, 5.4900972 ], [ 7.6251823, 5.4900945 ], [ 7.6250831, 5.4900972 ], [ 7.6249999, 5.4901399 ], [ 7.6248846, 5.4902734 ], [ 7.6248283, 5.4903748 ], [ 7.6247909, 5.4905015 ], [ 7.6247585, 5.4907513 ], [ 7.6247103, 5.4909889 ], [ 7.6246889, 5.4911209 ], [ 7.6246808, 5.491336 ], [ 7.6246754, 5.4915176 ], [ 7.6246808, 5.4916644 ], [ 7.6247237, 5.4917685 ], [ 7.624788, 5.4918673 ], [ 7.6248257, 5.4919486 ], [ 7.6248685, 5.4920222 ], [ 7.6248605, 5.4920836 ], [ 7.6248363, 5.492161 ], [ 7.624729, 5.4922037 ], [ 7.6246352, 5.4921984 ], [ 7.6245413, 5.4921557 ], [ 7.6244769, 5.4920676 ], [ 7.6244447, 5.4919794 ], [ 7.6244125, 5.4918032 ], [ 7.6243669, 5.4917178 ], [ 7.6242571, 5.4916229 ], [ 7.6241524, 5.4915923 ], [ 7.6240236, 5.491595 ], [ 7.623946, 5.4916576 ], [ 7.623868, 5.4917205 ], [ 7.6238359, 5.4917845 ], [ 7.6238253, 5.4918418 ], [ 7.6238144, 5.4919447 ], [ 7.6238198, 5.4920649 ], [ 7.62386, 5.4921717 ], [ 7.6239566, 5.4925001 ], [ 7.6239539, 5.492735 ], [ 7.6239244, 5.4929246 ], [ 7.623919, 5.4931515 ], [ 7.623919, 5.4934025 ], [ 7.6239163, 5.4935173 ] ] } },
{ "type": "Feature", "properties": { "name": null, "waterway": "stream" }, "geometry": { "type": "LineString", "coordinates": [ [ 7.4843663, 5.4959816 ], [ 7.4843341, 5.49572 ], [ 7.4843636, 5.4954677 ], [ 7.4844199, 5.4954263 ], [ 7.4846533, 5.4952741 ], [ 7.4846989, 5.4951726 ], [ 7.484715, 5.4950525 ], [ 7.4847043, 5.4949217 ], [ 7.484715, 5.4947535 ], [ 7.4845862, 5.4944651 ], [ 7.4845916, 5.4940166 ], [ 7.4846761, 5.4937963 ], [ 7.4848732, 5.4935307 ], [ 7.4851656, 5.4933411 ], [ 7.4853158, 5.4931409 ], [ 7.4854284, 5.4925161 ], [ 7.4854526, 5.4924146 ], [ 7.4856403, 5.492177 ], [ 7.4856967, 5.4919554 ], [ 7.4859408, 5.491854 ], [ 7.4860534, 5.4915096 ], [ 7.4860561, 5.4911838 ], [ 7.4861714, 5.4908394 ], [ 7.4863645, 5.4905991 ], [ 7.4863967, 5.4904549 ], [ 7.4865201, 5.4903134 ], [ 7.4865496, 5.4901346 ] ] } },
{ "type": "Feature", "properties": { "name": "Eme River", "waterway": "river" }, "geometry": { "type": "LineString", "coordinates": [ [ 7.4700435, 5.6433345 ], [ 7.469777, 5.6431775 ], [ 7.4695431, 5.6429502 ], [ 7.4693418, 5.6427174 ], [ 7.4692494, 5.642436 ], [ 7.46901, 5.6422086 ], [ 7.4687925, 5.6421058 ], [ 7.4685803, 5.642095 ], [ 7.4682703, 5.6422195 ], [ 7.4680418, 5.642371 ], [ 7.4678134, 5.6424143 ], [ 7.4675904, 5.6424089 ], [ 7.4671172, 5.6422195 ], [ 7.466731, 5.6418676 ], [ 7.4664427, 5.6414237 ], [ 7.4662632, 5.641007 ], [ 7.4660891, 5.6406172 ], [ 7.4659477, 5.6404494 ], [ 7.4658172, 5.6403357 ], [ 7.4655942, 5.6402004 ], [ 7.4655235, 5.6400867 ], [ 7.4654201, 5.6398756 ], [ 7.4653537, 5.6396178 ], [ 7.4653332, 5.6395362 ], [ 7.4652102, 5.639422 ], [ 7.4649192, 5.6393731 ], [ 7.4646527, 5.6393812 ], [ 7.4644108, 5.6394383 ], [ 7.46421, 5.6394465 ], [ 7.4641034, 5.6394098 ], [ 7.4640132, 5.6393404 ], [ 7.463923, 5.6391324 ], [ 7.4638656, 5.6390263 ], [ 7.4637631, 5.6389692 ], [ 7.4635704, 5.6389365 ], [ 7.4634188, 5.6389202 ], [ 7.4632753, 5.6388835 ], [ 7.4631113, 5.6388141 ], [ 7.4628489, 5.6387734 ], [ 7.462357, 5.6387489 ], [ 7.4620209, 5.6388305 ], [ 7.4619266, 5.6388794 ], [ 7.461902, 5.6389692 ], [ 7.461943, 5.6390508 ], [ 7.4619143, 5.639165 ], [ 7.4618651, 5.639218 ], [ 7.4617667, 5.639267 ], [ 7.4613527, 5.6391854 ], [ 7.4611436, 5.6392017 ], [ 7.4610083, 5.6392547 ], [ 7.460914, 5.639369 ], [ 7.4607582, 5.639573 ], [ 7.4606353, 5.6396586 ], [ 7.4605082, 5.639679 ], [ 7.4603196, 5.6396627 ], [ 7.4602007, 5.6396913 ], [ 7.4600654, 5.6397525 ], [ 7.4599752, 5.6397402 ], [ 7.4599343, 5.639679 ], [ 7.4599506, 5.6395566 ], [ 7.4599875, 5.6394546 ], [ 7.4599343, 5.6394016 ], [ 7.4598236, 5.6393608 ], [ 7.4595817, 5.6394016 ], [ 7.4594628, 5.6394791 ], [ 7.4592988, 5.6396056 ], [ 7.4591472, 5.6396505 ], [ 7.4587782, 5.6396749 ], [ 7.4586142, 5.6396423 ], [ 7.4585404, 5.6396056 ], [ 7.4584544, 5.6394587 ], [ 7.4584339, 5.6393241 ], [ 7.4583724, 5.6392507 ], [ 7.4582781, 5.6392425 ], [ 7.458233, 5.6392547 ], [ 7.4581879, 5.639422 ], [ 7.4581141, 5.6394914 ], [ 7.4580362, 5.6395077 ], [ 7.4579173, 5.639475 ], [ 7.4577903, 5.6393894 ], [ 7.4573721, 5.6389773 ], [ 7.457286, 5.6388957 ], [ 7.4570852, 5.6389161 ], [ 7.4569499, 5.6390059 ], [ 7.4568802, 5.6392425 ], [ 7.4567941, 5.6397688 ], [ 7.4567244, 5.6399483 ], [ 7.4565932, 5.6400421 ], [ 7.4564579, 5.6400584 ], [ 7.4563145, 5.6400054 ], [ 7.4561587, 5.6398463 ], [ 7.4560446, 5.639569 ], [ 7.4559977, 5.639358 ], [ 7.4560113, 5.6390187 ], [ 7.4559509, 5.6389009 ], [ 7.4558589, 5.6388486 ], [ 7.4557511, 5.6388696 ], [ 7.4556538, 5.6389376 ], [ 7.4555355, 5.6389585 ], [ 7.4554304, 5.638914 ], [ 7.4553463, 5.6387963 ], [ 7.4552411, 5.6386969 ], [ 7.4550729, 5.6386864 ], [ 7.4549047, 5.6387597 ], [ 7.4548258, 5.6388512 ], [ 7.4547101, 5.6388931 ], [ 7.4546102, 5.6388696 ], [ 7.4545182, 5.6387597 ], [ 7.4544183, 5.6385504 ], [ 7.4543158, 5.6384118 ], [ 7.4541003, 5.6382783 ], [ 7.4537612, 5.6381816 ], [ 7.4535772, 5.6381659 ], [ 7.4534247, 5.6381763 ], [ 7.453309, 5.638124 ], [ 7.453267, 5.6380429 ], [ 7.4532775, 5.63792 ], [ 7.4533458, 5.637831 ], [ 7.4533984, 5.6377342 ], [ 7.45338, 5.637661 ], [ 7.453288, 5.637606 ], [ 7.4531566, 5.6376217 ], [ 7.4529831, 5.6377342 ], [ 7.4527991, 5.6377656 ], [ 7.4526545, 5.6377107 ], [ 7.452594, 5.637593 ], [ 7.4525888, 5.6374831 ], [ 7.4527044, 5.6371456 ], [ 7.4527281, 5.6370227 ], [ 7.4526887, 5.6368945 ], [ 7.452573, 5.6368003 ], [ 7.4524153, 5.6367768 ], [ 7.4521892, 5.6368526 ], [ 7.4520236, 5.6369285 ], [ 7.4519789, 5.6370253 ], [ 7.4519789, 5.6371509 ], [ 7.4520525, 5.6373 ], [ 7.4520998, 5.6374962 ], [ 7.4521734, 5.637763 ], [ 7.4522286, 5.6379278 ], [ 7.4522838, 5.6381057 ], [ 7.4522444, 5.6382365 ], [ 7.4521524, 5.6383804 ], [ 7.4519158, 5.6384588 ], [ 7.4517476, 5.6384588 ], [ 7.4515872, 5.6383647 ], [ 7.4514348, 5.6382522 ], [ 7.4512087, 5.6381135 ], [ 7.4511141, 5.6379357 ], [ 7.4510037, 5.6378441 ], [ 7.4508354, 5.6378258 ], [ 7.4506067, 5.6379043 ], [ 7.4502492, 5.6381789 ], [ 7.450021, 5.6383859 ], [ 7.4498723, 5.6384655 ], [ 7.4497161, 5.6384858 ], [ 7.4495823, 5.6384377 ], [ 7.4494522, 5.6383637 ], [ 7.4493797, 5.638373 ], [ 7.4493202, 5.6384747 ], [ 7.4493277, 5.6385894 ], [ 7.4493704, 5.6386985 ], [ 7.4493258, 5.6387818 ], [ 7.4492403, 5.6388021 ], [ 7.4491641, 5.6387485 ], [ 7.4491213, 5.6386412 ], [ 7.4491585, 5.6384433 ], [ 7.4491232, 5.6383434 ], [ 7.4490414, 5.6382546 ], [ 7.4488741, 5.6381713 ], [ 7.448731, 5.6380863 ], [ 7.4486362, 5.6379586 ], [ 7.4486027, 5.6378791 ], [ 7.4485767, 5.6377274 ], [ 7.4485321, 5.6375702 ], [ 7.4484373, 5.6375091 ], [ 7.4483351, 5.6375258 ], [ 7.4482142, 5.6376053 ], [ 7.4480414, 5.6378624 ], [ 7.4479503, 5.6379235 ], [ 7.4478499, 5.6379235 ], [ 7.4477979, 5.6378717 ], [ 7.4478016, 5.6376331 ], [ 7.4477681, 5.6374074 ], [ 7.4477793, 5.637215 ], [ 7.4478536, 5.636969 ], [ 7.4478722, 5.6368561 ], [ 7.4478202, 5.6367729 ], [ 7.4477105, 5.6367063 ], [ 7.4475674, 5.6367119 ], [ 7.4474243, 5.6367692 ], [ 7.4472607, 5.6367396 ], [ 7.4470748, 5.6366453 ], [ 7.4469168, 5.6366416 ], [ 7.4468053, 5.6366934 ], [ 7.4467477, 5.636797 ], [ 7.4467161, 5.6369727 ], [ 7.446651, 5.6370467 ], [ 7.4464837, 5.6370448 ], [ 7.4463666, 5.6369856 ], [ 7.4462886, 5.6368635 ], [ 7.4461677, 5.6368358 ], [ 7.4460376, 5.6368802 ], [ 7.4459112, 5.6368709 ], [ 7.4458387, 5.6367988 ], [ 7.4458313, 5.6367082 ], [ 7.4459094, 5.6362994 ], [ 7.4459149, 5.6361551 ], [ 7.4458592, 5.6359978 ], [ 7.4457718, 5.6358832 ], [ 7.4455562, 5.6357 ], [ 7.445348, 5.6355761 ], [ 7.4452792, 5.6354781 ], [ 7.4452625, 5.6353319 ], [ 7.4452365, 5.6351654 ], [ 7.4451733, 5.6350656 ], [ 7.4450227, 5.6349398 ], [ 7.4447458, 5.6348269 ], [ 7.4445376, 5.6348269 ], [ 7.4443945, 5.6349176 ], [ 7.4443368, 5.635036 ], [ 7.4442551, 5.6351118 ], [ 7.444138, 5.6351025 ], [ 7.4440357, 5.6350027 ], [ 7.44398, 5.6348658 ], [ 7.4438945, 5.6347955 ], [ 7.4437383, 5.6348195 ], [ 7.4436435, 5.6348824 ], [ 7.4435729, 5.6350101 ], [ 7.4435747, 5.6351451 ], [ 7.4435729, 5.6352912 ], [ 7.4434818, 5.6353782 ], [ 7.4433982, 5.6353745 ], [ 7.4433145, 5.635282 ], [ 7.4431621, 5.6350119 ], [ 7.443071, 5.6349176 ], [ 7.4429298, 5.6349194 ], [ 7.4429125, 5.6348729 ], [ 7.4428499, 5.6348792 ], [ 7.4427966, 5.634886 ], [ 7.4427596, 5.6349133 ], [ 7.4427139, 5.6349367 ], [ 7.4426372, 5.6349604 ], [ 7.4425685, 5.6350276 ], [ 7.442491, 5.6350652 ], [ 7.442362, 5.6350861 ], [ 7.4423104, 5.635084 ], [ 7.4423045, 5.6350418 ], [ 7.4422866, 5.6347363 ], [ 7.4422532, 5.6345606 ], [ 7.4421783, 5.6344414 ], [ 7.442208, 5.6343359 ], [ 7.4421671, 5.6342923 ], [ 7.4421583, 5.6342452 ], [ 7.4421177, 5.6341889 ], [ 7.4420014, 5.6340912 ], [ 7.4417953, 5.6342264 ], [ 7.4416361, 5.6342989 ], [ 7.4415435, 5.6343649 ], [ 7.4414101, 5.6343544 ], [ 7.4413829, 5.6342633 ], [ 7.4414458, 5.6341373 ], [ 7.4414539, 5.6339927 ], [ 7.4412866, 5.6339945 ], [ 7.4411119, 5.6340759 ], [ 7.4410357, 5.63405 ], [ 7.440978, 5.6339575 ], [ 7.4410003, 5.6338465 ], [ 7.4410238, 5.6336198 ], [ 7.4413118, 5.6334559 ], [ 7.4413862, 5.6333227 ], [ 7.4413862, 5.6332117 ], [ 7.4412821, 5.633097 ], [ 7.441204, 5.6329639 ], [ 7.4412226, 5.6328381 ], [ 7.4411975, 5.6327306 ], [ 7.4411707, 5.632612 ], [ 7.4411483, 5.6325051 ], [ 7.4409698, 5.6322572 ], [ 7.4407468, 5.631891 ], [ 7.4402195, 5.6312381 ], [ 7.4399067, 5.6309111 ], [ 7.4395571, 5.6306259 ], [ 7.4392994, 5.630516 ], [ 7.4391312, 5.6304114 ], [ 7.4390523, 5.6302728 ], [ 7.4390734, 5.6300818 ], [ 7.4391245, 5.6298353 ], [ 7.4391589, 5.6297205 ], [ 7.4391791, 5.62951 ], [ 7.4389621, 5.6294289 ], [ 7.4387805, 5.6295421 ], [ 7.4385818, 5.62976 ], [ 7.4383163, 5.6297993 ], [ 7.4380692, 5.6297574 ], [ 7.4379351, 5.6296528 ], [ 7.4379115, 5.6295115 ], [ 7.4378848, 5.629229 ], [ 7.4379436, 5.6290588 ], [ 7.4379614, 5.6289804 ], [ 7.4377248, 5.6289517 ], [ 7.4374909, 5.6288993 ], [ 7.4373647, 5.6287868 ], [ 7.4373253, 5.628554 ], [ 7.4373752, 5.6282401 ], [ 7.4374856, 5.6278503 ], [ 7.4374541, 5.627505 ], [ 7.4374777, 5.6272565 ], [ 7.4374409, 5.6271126 ], [ 7.4373489, 5.6270079 ], [ 7.437228, 5.6270106 ], [ 7.4371281, 5.6271152 ], [ 7.4369993, 5.6270812 ], [ 7.4369494, 5.6269321 ], [ 7.4370177, 5.626728 ], [ 7.4371991, 5.6265894 ], [ 7.4373121, 5.6264481 ], [ 7.4373174, 5.6262964 ], [ 7.4372201, 5.6261865 ], [ 7.4371991, 5.6260845 ], [ 7.4371886, 5.6259851 ], [ 7.4372859, 5.6258778 ], [ 7.4374488, 5.6258307 ], [ 7.4375145, 5.625713 ], [ 7.4374961, 5.6255403 ], [ 7.4373437, 5.6253311 ], [ 7.4372969, 5.625259 ], [ 7.437157, 5.6251532 ], [ 7.4370361, 5.624923 ], [ 7.4369783, 5.6245567 ], [ 7.436931, 5.6242925 ], [ 7.4368889, 5.6241198 ], [ 7.4368048, 5.6239681 ], [ 7.4367023, 5.6239419 ], [ 7.4365892, 5.6240178 ], [ 7.4364315, 5.6241983 ], [ 7.4362712, 5.6242768 ], [ 7.4361108, 5.6242794 ], [ 7.4358848, 5.6242062 ], [ 7.4357428, 5.6240683 ], [ 7.4355476, 5.6237409 ], [ 7.4354974, 5.6234967 ], [ 7.4355123, 5.6233099 ], [ 7.4355625, 5.6231841 ], [ 7.4357205, 5.6228418 ], [ 7.4357633, 5.6226236 ], [ 7.4357856, 5.622409 ], [ 7.4357261, 5.6221167 ], [ 7.4357149, 5.6219706 ], [ 7.4356517, 5.621867 ], [ 7.4354714, 5.621695 ], [ 7.4353246, 5.6215303 ], [ 7.4352635, 5.621441 ], [ 7.4351966, 5.6212228 ], [ 7.435191, 5.621047 ], [ 7.4352393, 5.6208953 ], [ 7.4352561, 5.6207289 ], [ 7.4352226, 5.6205013 ], [ 7.4350683, 5.6201258 ], [ 7.4350181, 5.6199334 ], [ 7.4350126, 5.6197965 ], [ 7.4350572, 5.619693 ], [ 7.4351538, 5.6195505 ], [ 7.435191, 5.6194303 ], [ 7.4351408, 5.6192786 ], [ 7.4350014, 5.6191916 ], [ 7.4349456, 5.619114 ], [ 7.4349587, 5.6190233 ], [ 7.4350107, 5.6189308 ], [ 7.434994, 5.6188291 ], [ 7.4348936, 5.6187606 ], [ 7.4347096, 5.6187347 ], [ 7.4346129, 5.6186681 ], [ 7.4345832, 5.6185664 ], [ 7.4345572, 5.6183944 ], [ 7.4346166, 5.6182371 ], [ 7.4347523, 5.6181243 ], [ 7.4349085, 5.6180891 ], [ 7.4350572, 5.6180281 ], [ 7.4351241, 5.6179338 ], [ 7.4351204, 5.6178912 ], [ 7.4350906, 5.6177303 ], [ 7.4349958, 5.6175471 ], [ 7.434862, 5.6173954 ], [ 7.434717, 5.6173141 ], [ 7.4345888, 5.617303 ], [ 7.4342189, 5.6173899 ], [ 7.4339531, 5.617475 ], [ 7.4336817, 5.6176082 ], [ 7.433427, 5.6176748 ], [ 7.4332058, 5.6176711 ], [ 7.4330869, 5.6176415 ], [ 7.4330311, 5.6175712 ], [ 7.4330311, 5.6174657 ], [ 7.4330776, 5.617327 ], [ 7.4331092, 5.6172364 ], [ 7.4330906, 5.617142 ], [ 7.4330162, 5.6171106 ], [ 7.4329716, 5.6171772 ], [ 7.4329084, 5.6172678 ], [ 7.4327988, 5.6173104 ], [ 7.4325069, 5.617266 ], [ 7.4322393, 5.6171513 ], [ 7.4321054, 5.6170292 ], [ 7.4320218, 5.6169237 ], [ 7.4320013, 5.6168016 ], [ 7.4320329, 5.6166944 ], [ 7.4321315, 5.6165926 ], [ 7.4321891, 5.6164946 ], [ 7.4321686, 5.6163632 ], [ 7.4320683, 5.6162448 ], [ 7.4319196, 5.6162134 ], [ 7.4317913, 5.6162208 ], [ 7.4316798, 5.6163003 ], [ 7.4316184, 5.6164317 ], [ 7.4315887, 5.6166 ], [ 7.4315831, 5.6167628 ], [ 7.4314177, 5.6170218 ], [ 7.4312578, 5.6172012 ], [ 7.4311221, 5.6172382 ], [ 7.4309958, 5.6172142 ], [ 7.4307764, 5.6170625 ], [ 7.4305905, 5.6168701 ], [ 7.4305701, 5.6167406 ], [ 7.430598, 5.6165519 ], [ 7.4305943, 5.6164243 ], [ 7.4305273, 5.6163077 ], [ 7.4304567, 5.6162356 ], [ 7.4303136, 5.6161949 ], [ 7.4301296, 5.6161191 ], [ 7.4299679, 5.6159988 ], [ 7.4298991, 5.61591 ], [ 7.429880419143409, 5.615884381703207 ] ] } },
{ "type": "Feature", "properties": { "name": "River Uyin", "waterway": "river" }, "geometry": { "type": "MultiLineString", "coordinates": [ [ [ 7.384474635250725, 5.698184678041262 ], [ 7.3845286, 5.6982628 ], [ 7.3846573, 5.698236 ], [ 7.384864, 5.6980333 ], [ 7.3850347, 5.697786 ], [ 7.3850856, 5.6975804 ], [ 7.385043605202966, 5.697411757736123 ] ], [ [ 7.411659447782661, 5.670305806878965 ], [ 7.411662, 5.6703072 ], [ 7.4119645, 5.6702804 ], [ 7.4121325, 5.6704008 ], [ 7.4123879, 5.6705747 ], [ 7.4125358, 5.670548 ], [ 7.4126702, 5.6703473 ], [ 7.4126299, 5.670033 ], [ 7.4125694, 5.6695046 ], [ 7.4126366, 5.6688491 ], [ 7.412677, 5.6684745 ], [ 7.412670557493144, 5.668434244590914 ] ], [ [ 7.414665078151122, 5.664742223390531 ], [ 7.4146665, 5.6647423 ], [ 7.4149421, 5.6649229 ], [ 7.4151706, 5.6652372 ], [ 7.4154261, 5.6653242 ], [ 7.4156277, 5.6652573 ], [ 7.4158025, 5.6649028 ], [ 7.4158495, 5.6644814 ], [ 7.415742, 5.664254 ], [ 7.4154798, 5.6642072 ], [ 7.4151975, 5.6641068 ], [ 7.4151034, 5.6639664 ], [ 7.415109925584169, 5.66391884722823 ] ], [ [ 7.415184407758932, 5.66378098682338 ], [ 7.415379, 5.6636587 ], [ 7.4158831, 5.6634647 ], [ 7.416394, 5.6630634 ], [ 7.416972, 5.6629229 ], [ 7.4172745, 5.6628895 ], [ 7.4175501, 5.6630567 ], [ 7.4178391, 5.6633845 ], [ 7.4180138, 5.6636319 ], [ 7.4182894, 5.6636921 ], [ 7.4186188, 5.6636186 ], [ 7.4187599, 5.6633778 ], [ 7.4187666, 5.6629764 ], [ 7.4186188, 5.6625952 ], [ 7.4185045, 5.6624681 ], [ 7.4181617, 5.6621738 ], [ 7.4177959, 5.6619858 ], [ 7.4175331, 5.6612341 ], [ 7.4174145, 5.660979 ], [ 7.4171481, 5.6604057 ], [ 7.4167242, 5.6597874 ], [ 7.416552933619275, 5.659616985690821 ] ], [ [ 7.417909933953906, 5.651587413798643 ], [ 7.4181561, 5.6519073 ], [ 7.4182971, 5.6523661 ], [ 7.4183133, 5.6528141 ], [ 7.4184272, 5.6530354 ], [ 7.4185954, 5.6531055 ], [ 7.4188123, 5.652976 ], [ 7.4189967, 5.6527817 ], [ 7.4190564, 5.652528 ], [ 7.4190021, 5.6521934 ], [ 7.418814, 5.6516454 ], [ 7.4187036, 5.6513106 ], [ 7.4184565, 5.6511117 ], [ 7.4183934, 5.6509129 ], [ 7.4184302, 5.6506618 ], [ 7.418793, 5.6501438 ], [ 7.4189349, 5.650013 ], [ 7.4192767, 5.6498926 ], [ 7.419487, 5.6496624 ], [ 7.4196383, 5.6492433 ], [ 7.4196128, 5.648868 ], [ 7.4194395, 5.6486093 ], [ 7.4194038, 5.6483303 ], [ 7.4195032, 5.6479621 ], [ 7.4195724, 5.6477064 ], [ 7.4194785, 5.6474507 ], [ 7.419187, 5.647259 ], [ 7.4187522, 5.6471016 ], [ 7.4184211, 5.6469836 ], [ 7.4183075, 5.6468066 ], [ 7.418347, 5.6465903 ], [ 7.4186138, 5.6463247 ], [ 7.4189597, 5.6460002 ], [ 7.4190042, 5.6457003 ], [ 7.4189904, 5.6453165 ], [ 7.419115, 5.6449447 ], [ 7.4190814, 5.6446301 ], [ 7.41897760853325, 5.644547007322892 ] ], [ [ 7.430713421487599, 5.613636393542623 ], [ 7.4307482, 5.6136811 ], [ 7.4308473, 5.6137797 ], [ 7.4309464, 5.6138079 ], [ 7.4311092, 5.6137445 ], [ 7.4312861, 5.6136389 ], [ 7.4314206, 5.6134698 ], [ 7.4314843, 5.6133712 ], [ 7.4314772, 5.6131246 ], [ 7.4314702, 5.6128147 ], [ 7.431541, 5.6126315 ], [ 7.4316471, 5.6124624 ], [ 7.4317745, 5.6123427 ], [ 7.4319727, 5.6121736 ], [ 7.432086, 5.6120398 ], [ 7.4320718, 5.611913 ], [ 7.4319586, 5.611758 ], [ 7.4317745, 5.6115819 ], [ 7.4315905, 5.6113494 ], [ 7.431571099623961, 5.611321813866371 ] ], [ [ 7.431021705314093, 5.607451642502158 ], [ 7.4310313, 5.6074397 ], [ 7.4312366, 5.6072495 ], [ 7.4314419, 5.6071086 ], [ 7.4316259, 5.6069466 ], [ 7.4317958, 5.6067564 ], [ 7.4319161, 5.6065169 ], [ 7.432001, 5.6062562 ], [ 7.4320364, 5.6059674 ], [ 7.4320152, 5.6057842 ], [ 7.4319373, 5.6056081 ], [ 7.4318595, 5.6055025 ], [ 7.4316613, 5.6053827 ], [ 7.4314985, 5.6053052 ], [ 7.4313003, 5.6052348 ], [ 7.4310879, 5.6051925 ], [ 7.4308827, 5.6051784 ], [ 7.4306278, 5.6052066 ], [ 7.4303518, 5.6052066 ], [ 7.4301253, 5.6051432 ], [ 7.4299695, 5.6050375 ], [ 7.4298351, 5.6048685 ], [ 7.429743, 5.6046642 ], [ 7.4296723, 5.6045374 ], [ 7.4295661, 5.6044458 ], [ 7.429382, 5.604319 ], [ 7.429203206764569, 5.604233299003844 ] ], [ [ 7.428947300686374, 5.603466170973323 ], [ 7.4290635, 5.6033891 ], [ 7.4292476, 5.6032693 ], [ 7.429467, 5.6032271 ], [ 7.4296156, 5.60322 ], [ 7.4297572, 5.6032764 ], [ 7.4299342, 5.6032975 ], [ 7.4301182, 5.6032271 ], [ 7.4303093, 5.6030721 ], [ 7.4303872, 5.6029523 ], [ 7.4304155, 5.6028044 ], [ 7.4303164, 5.6025719 ], [ 7.4301677, 5.6023535 ], [ 7.4297926, 5.6020506 ], [ 7.4296015, 5.601945 ], [ 7.429467, 5.6018745 ], [ 7.4293254, 5.6018604 ], [ 7.4291697, 5.6018675 ], [ 7.429014, 5.6018956 ], [ 7.4288724, 5.601952 ], [ 7.4287521, 5.6020506 ], [ 7.428642377043276, 5.6021685056857 ] ], [ [ 7.425746982027359, 5.58547679249576 ], [ 7.4257575, 5.5854467 ], [ 7.4257267, 5.5852566 ], [ 7.4255541, 5.5851156 ], [ 7.4252091, 5.5850358 ], [ 7.425026504372563, 5.585026480278655 ] ] ] } },
{ "type": "Feature", "properties": { "name": "Imo River", "waterway": "river" }, "geometry": { "type": "LineString", "coordinates": [ [ 7.350781104476769, 4.872060122875454 ], [ 7.3510637, 4.8722015 ], [ 7.3521964, 4.8725646 ], [ 7.3536137, 4.8727443 ], [ 7.35475, 4.8726085 ], [ 7.355335, 4.8724379 ], [ 7.3559182, 4.8718716 ], [ 7.3561367, 4.8712538 ], [ 7.3561501, 4.8702655 ], [ 7.356009484506398, 4.869443009128016 ] ] } },
{ "type": "Feature", "properties": { "name": "Imo River", "waterway": "river" }, "geometry": { "type": "MultiLineString", "coordinates": [ [ [ 7.28395635317952, 4.874111010549138 ], [ 7.2840778, 4.8742532 ], [ 7.284305, 4.8749045 ], [ 7.2840775, 4.8766799 ], [ 7.2841546, 4.8772871 ], [ 7.2843808, 4.8777376 ], [ 7.2846795, 4.8778341 ], [ 7.2850253, 4.8777376 ], [ 7.2854622, 4.8772871 ], [ 7.2857836, 4.8767555 ], [ 7.2856064, 4.8745125 ], [ 7.285638195353885, 4.87427370938161 ] ], [ [ 7.293921310603739, 4.875075005246897 ], [ 7.294238, 4.8755089 ], [ 7.2947088, 4.8755748 ], [ 7.2951479, 4.8755089 ], [ 7.295329360809978, 4.875181187640403 ] ] ] } },
{ "type": "Feature", "properties": { "name": "Imo River", "waterway": "river" }, "geometry": { "type": "MultiLineString", "coordinates": [ [ [ 7.322866792814129, 4.877914855869387 ], [ 7.3229212, 4.8780084 ], [ 7.3230761, 4.8784641 ], [ 7.3230506, 4.8788727 ], [ 7.3228479, 4.8793023 ], [ 7.3226291, 4.8795595 ], [ 7.3222853, 4.8798895 ], [ 7.3222508, 4.8800979 ], [ 7.3222238, 4.8803888 ], [ 7.3223836, 4.8806093 ], [ 7.322687, 4.8808022 ], [ 7.3231001, 4.8808131 ], [ 7.3235603, 4.8806662 ], [ 7.324306, 4.8801794 ], [ 7.3246824, 4.8799608 ], [ 7.3251724, 4.8798457 ], [ 7.3255874, 4.8798381 ], [ 7.3262043, 4.879993 ], [ 7.3267871, 4.8799949 ], [ 7.3271458, 4.8798661 ], [ 7.3275454, 4.8793149 ], [ 7.327697, 4.8778039 ], [ 7.3279817, 4.8770469 ], [ 7.3281388, 4.8765391 ], [ 7.3281572, 4.8761575 ], [ 7.3279358, 4.8755705 ], [ 7.327563591390252, 4.875288570713448 ] ], [ [ 7.338345841042605, 4.873082547797386 ], [ 7.338409, 4.8731723 ], [ 7.3387649, 4.873259 ], [ 7.338998869369914, 4.873046030700412 ] ] ] } },
{ "type": "Feature", "properties": { "name": "Imo River", "waterway": "river" }, "geometry": { "type": "MultiLineString", "coordinates": [ [ [ 7.16822307082322, 4.944444517279625 ], [ 7.1683178, 4.9443652 ], [ 7.1684491, 4.9441536 ], [ 7.1685263, 4.9439074 ], [ 7.16848, 4.9436228 ], [ 7.1684028, 4.9433766 ], [ 7.168229, 4.9431727 ], [ 7.1679973, 4.9430611 ], [ 7.1676769, 4.9430073 ], [ 7.1669625, 4.9429919 ], [ 7.166764092900892, 4.942917778344976 ] ], [ [ 7.166082844398344, 4.942204889824117 ], [ 7.1659972, 4.9419686 ], [ 7.1659857, 4.9417224 ], [ 7.1660359, 4.9414839 ], [ 7.1661594, 4.9412531 ], [ 7.1663525, 4.9410146 ], [ 7.1666536, 4.9407723 ], [ 7.1674104, 4.9403068 ], [ 7.1676807, 4.9402337 ], [ 7.167924, 4.9402183 ], [ 7.1682522, 4.9403029 ], [ 7.1688352, 4.9406068 ], [ 7.1690901, 4.9406799 ], [ 7.1693372, 4.9406376 ], [ 7.169565, 4.940503 ], [ 7.1696808, 4.9403376 ], [ 7.169731, 4.9401606 ], [ 7.1697156, 4.9399837 ], [ 7.1697001, 4.939849 ], [ 7.1695418, 4.9397028 ], [ 7.1685379, 4.9390566 ], [ 7.1683719, 4.9388565 ], [ 7.1682599, 4.9385719 ], [ 7.1682329, 4.9382987 ], [ 7.1682908, 4.937941 ], [ 7.1683564, 4.9373832 ], [ 7.1683294, 4.9369716 ], [ 7.1683526, 4.9366407 ], [ 7.1684144, 4.9363253 ], [ 7.1685263, 4.9360368 ], [ 7.1689819, 4.935429 ], [ 7.1691171, 4.9351828 ], [ 7.1691248, 4.9349673 ], [ 7.1690399, 4.9347635 ], [ 7.1688931, 4.9345903 ], [ 7.1686229, 4.9344134 ], [ 7.1682329, 4.9342364 ], [ 7.1679201, 4.9340672 ], [ 7.1677464, 4.9339171 ], [ 7.1675726, 4.9336825 ], [ 7.1673216, 4.9331939 ], [ 7.1671015, 4.9326669 ], [ 7.1669201, 4.9322361 ], [ 7.1667231, 4.9319783 ], [ 7.1664799, 4.9317475 ], [ 7.1662019, 4.9316398 ], [ 7.1659162, 4.9315821 ], [ 7.1656034, 4.9316167 ], [ 7.1652829, 4.9316706 ], [ 7.164947, 4.9318629 ], [ 7.1640898, 4.932613 ], [ 7.1638311, 4.9327515 ], [ 7.1635493, 4.9328131 ], [ 7.1633137, 4.9328054 ], [ 7.1631245, 4.9327246 ], [ 7.1629932, 4.9325861 ], [ 7.1628311, 4.9323822 ], [ 7.1625878, 4.9318937 ], [ 7.1622364, 4.9314282 ], [ 7.1618156, 4.9309435 ], [ 7.1614797, 4.9306088 ], [ 7.1613715, 4.9303241 ], [ 7.1613715, 4.9301164 ], [ 7.161441, 4.9299202 ], [ 7.1616458, 4.9296744 ], [ 7.1620119, 4.9294356 ], [ 7.1622115, 4.9292469 ], [ 7.1622684, 4.9291051 ], [ 7.1622765, 4.9289755 ], [ 7.1621974, 4.9288362 ], [ 7.1616403, 4.9285322 ], [ 7.1608177, 4.9282512 ], [ 7.1603097, 4.928152 ], [ 7.1596751, 4.9281583 ], [ 7.1589351, 4.9282391 ], [ 7.1585065, 4.9283314 ], [ 7.1581166, 4.9285007 ], [ 7.1577729, 4.9286623 ], [ 7.157464, 4.9287469 ], [ 7.1572053, 4.92872 ], [ 7.15702, 4.9286546 ], [ 7.1568964, 4.9285353 ], [ 7.1568346, 4.9283738 ], [ 7.1568037, 4.9281083 ], [ 7.1568037, 4.927689 ], [ 7.1567227, 4.9272274 ], [ 7.1565528, 4.9265157 ], [ 7.1565721, 4.9262118 ], [ 7.1566841, 4.9258348 ], [ 7.1566763, 4.9254809 ], [ 7.1565682, 4.9251308 ], [ 7.1563713, 4.9248115 ], [ 7.1560894, 4.9246076 ], [ 7.1558114, 4.9244999 ], [ 7.1553635, 4.9243422 ], [ 7.1551241, 4.9242537 ], [ 7.1549388, 4.9241229 ], [ 7.1548037, 4.923919 ], [ 7.1546801, 4.9235843 ], [ 7.1545102, 4.9231035 ], [ 7.1543403, 4.922838 ], [ 7.1541164, 4.9226649 ], [ 7.1537959, 4.9224995 ], [ 7.1535488, 4.9223687 ], [ 7.1534291, 4.922211 ], [ 7.1533364, 4.9219301 ], [ 7.1533248, 4.9216339 ], [ 7.1533557, 4.9209992 ], [ 7.1532785, 4.9206837 ], [ 7.1531125, 4.9204798 ], [ 7.1528962, 4.9203914 ], [ 7.1526144, 4.9203721 ], [ 7.1523595, 4.9204068 ], [ 7.1520661, 4.9205414 ], [ 7.1518267, 4.9207376 ], [ 7.1516413, 4.9209607 ], [ 7.151483, 4.9212223 ], [ 7.1514097, 4.9215301 ], [ 7.151382, 4.9219432 ], [ 7.1513656, 4.9223186 ], [ 7.1513164, 4.9226287 ], [ 7.1511472, 4.9228408 ], [ 7.1509069, 4.922917 ], [ 7.1506612, 4.9229007 ], [ 7.1504155, 4.9227973 ], [ 7.1502953, 4.9226178 ], [ 7.1501807, 4.9223349 ], [ 7.1501534, 4.9220302 ], [ 7.1502462, 4.9217419 ], [ 7.1504646, 4.9213882 ], [ 7.150683, 4.9210999 ], [ 7.1508195, 4.920681 ], [ 7.1509397, 4.9201859 ], [ 7.1509451, 4.9198268 ], [ 7.1508305, 4.9194787 ], [ 7.150552, 4.9191305 ], [ 7.1502899, 4.9188584 ], [ 7.1500278, 4.9186082 ], [ 7.1498694, 4.9183035 ], [ 7.1497984, 4.9179608 ], [ 7.1497984, 4.9176779 ], [ 7.1499076, 4.9173514 ], [ 7.1499513, 4.9170305 ], [ 7.1498803, 4.9166333 ], [ 7.1496619, 4.9160076 ], [ 7.1495418, 4.9154201 ], [ 7.1494817, 4.9147509 ], [ 7.149509, 4.9139784 ], [ 7.1494544, 4.913554 ], [ 7.1493233, 4.9132439 ], [ 7.1490667, 4.9129555 ], [ 7.1483951, 4.9124061 ], [ 7.1480838, 4.9119545 ], [ 7.1478599, 4.9115845 ], [ 7.1477343, 4.9112146 ], [ 7.1476797, 4.9108773 ], [ 7.1477179, 4.9104475 ], [ 7.1478256, 4.9099228 ], [ 7.147814, 4.9096035 ], [ 7.147702, 4.9093111 ], [ 7.1475321, 4.9089957 ], [ 7.1471614, 4.9086995 ], [ 7.1468139, 4.9084456 ], [ 7.1464201, 4.9082763 ], [ 7.1459845, 4.9081732 ], [ 7.1454166, 4.9082657 ], [ 7.1450671, 4.9082711 ], [ 7.1449469, 4.9082058 ], [ 7.1448541, 4.9080861 ], [ 7.1448214, 4.9079229 ], [ 7.1448487, 4.9077216 ], [ 7.1449742, 4.9072157 ], [ 7.1449688, 4.9068892 ], [ 7.1448596, 4.9065574 ], [ 7.1446193, 4.9062255 ], [ 7.1442698, 4.9059589 ], [ 7.14356, 4.9056869 ], [ 7.1428283, 4.9054094 ], [ 7.1425825, 4.9052353 ], [ 7.142446, 4.905034 ], [ 7.1421894, 4.9044573 ], [ 7.1420419, 4.9040541 ], [ 7.1419327, 4.9037555 ], [ 7.1417252, 4.9027762 ], [ 7.1416379, 4.9021668 ], [ 7.1416542, 4.9018948 ], [ 7.1417198, 4.901601 ], [ 7.1418836, 4.9013616 ], [ 7.1421621, 4.9010896 ], [ 7.1428446, 4.9006924 ], [ 7.1431395, 4.9003932 ], [ 7.1433033, 4.9000831 ], [ 7.1435163, 4.8994248 ], [ 7.1437511, 4.898995 ], [ 7.1440569, 4.8986522 ], [ 7.1444337, 4.8984291 ], [ 7.1452855, 4.8981626 ], [ 7.1457442, 4.8979177 ], [ 7.1460391, 4.897613 ], [ 7.1462193, 4.8973138 ], [ 7.1463285, 4.8968459 ], [ 7.1463448, 4.8963236 ], [ 7.1463448, 4.8957687 ], [ 7.1462411, 4.8951974 ], [ 7.1460281, 4.8945717 ], [ 7.1457879, 4.8941855 ], [ 7.1454188, 4.8938705 ], [ 7.145016747841106, 4.893691368809207 ] ], [ [ 7.171452348561631, 4.879895278143654 ], [ 7.1714129, 4.8799562 ], [ 7.1711118, 4.8803255 ], [ 7.1709341, 4.8806256 ], [ 7.1708801, 4.8809718 ], [ 7.1709573, 4.8812873 ], [ 7.1712199, 4.8816259 ], [ 7.171606, 4.8818721 ], [ 7.1722778, 4.882049 ], [ 7.172857, 4.8822953 ], [ 7.1733204, 4.8823799 ], [ 7.1736679, 4.8823876 ], [ 7.1740463, 4.8822953 ], [ 7.1743474, 4.8821106 ], [ 7.1745251, 4.8818721 ], [ 7.1745946, 4.8816412 ], [ 7.1745946, 4.8813027 ], [ 7.1744942, 4.8809718 ], [ 7.1742934, 4.8806564 ], [ 7.1736679, 4.8801562 ], [ 7.1733849, 4.8798733 ], [ 7.1732538, 4.8796502 ], [ 7.173204896385862, 4.87952572711844 ] ], [ [ 7.179280653988454, 4.876025734496174 ], [ 7.1794352, 4.8761137 ], [ 7.1797355, 4.8762498 ], [ 7.1799922, 4.8763231 ], [ 7.1808721, 4.8764859 ], [ 7.1818503, 4.8764419 ], [ 7.1833972, 4.8760053 ], [ 7.1839131, 4.8754712 ], [ 7.1840772, 4.8750418 ], [ 7.183963, 4.8745606 ], [ 7.1836053, 4.8738593 ], [ 7.183526269098396, 4.87339809450004 ] ], [ [ 7.184952884727227, 4.872515152408409 ], [ 7.1852446, 4.8730641 ], [ 7.1857556, 4.8734066 ], [ 7.1866434, 4.8735514 ], [ 7.1872516, 4.8733312 ], [ 7.1876383, 4.8728304 ], [ 7.1876388, 4.872054 ], [ 7.1875239, 4.8712357 ], [ 7.1876388, 4.8707215 ], [ 7.1879322, 4.87013 ], [ 7.1886891, 4.8696578 ], [ 7.1891627, 4.8691361 ], [ 7.1893939, 4.8686317 ], [ 7.1893785, 4.8679338 ], [ 7.1892635, 4.8673708 ], [ 7.1893965, 4.866872 ], [ 7.1897089, 4.8666386 ], [ 7.1901446, 4.8665824 ], [ 7.1906861, 4.8668536 ], [ 7.1912562, 4.867174 ], [ 7.1918846, 4.8672469 ], [ 7.1924121, 4.8670185 ], [ 7.1925779, 4.8666843 ], [ 7.1925779, 4.8660669 ], [ 7.1920041, 4.8654036 ], [ 7.1911548, 4.8651292 ], [ 7.190443750556774, 4.864943599792597 ] ], [ [ 7.196286064193837, 4.861993548981965 ], [ 7.1959289, 4.8624694 ], [ 7.1958141, 4.8634369 ], [ 7.1965715, 4.8641001 ], [ 7.1975585, 4.8641001 ], [ 7.1989387, 4.8633823 ], [ 7.2003846, 4.8625999 ], [ 7.2011849, 4.862362 ], [ 7.2024014, 4.8617674 ], [ 7.2034112, 4.8611271 ], [ 7.2039391, 4.8599836 ], [ 7.204081438136589, 4.859121046391892 ] ], [ [ 7.216120139318005, 4.857206940613657 ], [ 7.2160702, 4.8578211 ], [ 7.2162057, 4.858499 ], [ 7.2165801, 4.8587437 ], [ 7.2169768, 4.8587001 ], [ 7.2174633, 4.8583923 ], [ 7.2180025, 4.857824 ], [ 7.218131286614758, 4.85731085677116 ] ], [ [ 7.228634483239854, 4.857853557863486 ], [ 7.228379, 4.8580518 ], [ 7.2282558, 4.8585078 ], [ 7.2283323, 4.8589245 ], [ 7.2285515, 4.8593582 ], [ 7.2289186, 4.8596452 ], [ 7.229477, 4.8598689 ], [ 7.2300033, 4.8598421 ], [ 7.2305724, 4.8595546 ], [ 7.2310937, 4.8591874 ], [ 7.2315731, 4.8590517 ], [ 7.2322206, 4.859148 ], [ 7.2328229, 4.8594902 ], [ 7.233331, 4.8596063 ], [ 7.2340097, 4.8595845 ], [ 7.2347896, 4.859448 ], [ 7.2353533, 4.8592997 ], [ 7.2362384, 4.8589648 ], [ 7.236999, 4.8586127 ], [ 7.2376062, 4.8586579 ], [ 7.2380585, 4.8591216 ], [ 7.238026, 4.859618 ], [ 7.2379684, 4.8598066 ], [ 7.2376362, 4.8601618 ], [ 7.2366966, 4.860386 ], [ 7.236333, 4.8607173 ], [ 7.2361616, 4.860977 ], [ 7.2361341, 4.8613357 ], [ 7.2363664, 4.8618218 ], [ 7.2366982, 4.8621511 ], [ 7.2376562, 4.8627339 ], [ 7.2386306, 4.8634508 ], [ 7.2391595, 4.8640111 ], [ 7.2396756, 4.8648124 ], [ 7.2401422, 4.8653256 ], [ 7.2406611, 4.8654765 ], [ 7.2410451, 4.8652878 ], [ 7.2413525, 4.8649005 ], [ 7.2412426, 4.8640918 ], [ 7.2409367, 4.8635799 ], [ 7.2405847, 4.8629826 ], [ 7.2400042, 4.8624126 ], [ 7.2395888, 4.8618238 ], [ 7.2394651, 4.8616203 ], [ 7.2393999, 4.8613725 ], [ 7.2394577, 4.8611856 ], [ 7.2395978, 4.8610441 ], [ 7.2400791, 4.8610163 ], [ 7.2410236, 4.8613942 ], [ 7.2422837, 4.8620475 ], [ 7.243244, 4.8626198 ], [ 7.2438462, 4.8628684 ], [ 7.2444526, 4.8628849 ], [ 7.2449112, 4.8626647 ], [ 7.2451988, 4.862311 ], [ 7.2452757, 4.8619168 ], [ 7.245289, 4.8612869 ], [ 7.2452168, 4.8602921 ], [ 7.2449415, 4.8598697 ], [ 7.2436224, 4.8584899 ], [ 7.243436756525519, 4.858265937382582 ] ] ] } },
{ "type": "Feature", "properties": { "name": "Otamiri River", "waterway": "river" }, "geometry": { "type": "LineString", "coordinates": [ [ 7.141412880086428, 4.904336254721642 ], [ 7.1420419, 4.9040541 ] ] } },
{ "type": "Feature", "properties": { "name": "Aba River", "waterway": "river" }, "geometry": { "type": "LineString", "coordinates": [ [ 7.3807391, 5.1153571 ], [ 7.3806667, 5.1150846 ] ] } },
{ "type": "Feature", "properties": { "name": "Aba River", "waterway": "river" }, "geometry": { "type": "LineString", "coordinates": [ [ 7.3493868, 5.1663919 ], [ 7.3495316, 5.1650188 ], [ 7.3497784, 5.1646715 ], [ 7.349596, 5.1630313 ], [ 7.3497945, 5.1625665 ], [ 7.349757, 5.1621177 ], [ 7.3493546, 5.1619521 ], [ 7.3494136, 5.1611721 ], [ 7.3497194, 5.1610652 ], [ 7.3497999, 5.159222 ], [ 7.3504919, 5.157149 ], [ 7.3508835, 5.1557546 ], [ 7.3511893, 5.1544563 ], [ 7.3512375, 5.154077 ], [ 7.3510498, 5.1536763 ], [ 7.3510766, 5.1526879 ], [ 7.3508567, 5.1516193 ], [ 7.351259, 5.1510316 ], [ 7.3513287, 5.1507217 ], [ 7.3516184, 5.1503371 ], [ 7.3514199, 5.1498829 ], [ 7.3517257, 5.1495784 ], [ 7.3519832, 5.1492578 ], [ 7.3526108, 5.1485846 ], [ 7.3531794, 5.1479008 ], [ 7.3534638, 5.1471848 ], [ 7.3537427, 5.1466559 ], [ 7.3537856, 5.146175 ], [ 7.3536032, 5.1458972 ], [ 7.3536676, 5.1454698 ], [ 7.354027, 5.1453843 ], [ 7.3539787, 5.1452881 ], [ 7.3539519, 5.1451332 ], [ 7.354086, 5.1449462 ], [ 7.3543328, 5.1446523 ], [ 7.3544025, 5.1443104 ], [ 7.3550516, 5.1438616 ], [ 7.3553091, 5.1436051 ], [ 7.3557651, 5.1434983 ], [ 7.3559582, 5.1434502 ], [ 7.357074, 5.1432472 ], [ 7.3570794, 5.1430014 ], [ 7.3579752, 5.1425099 ], [ 7.3590179, 5.14279 ], [ 7.3594091, 5.1425775 ], [ 7.359775, 5.1425121 ], [ 7.3611188, 5.1426862 ], [ 7.3624921, 5.1421412 ], [ 7.3638976, 5.142045 ], [ 7.3649168, 5.1419061 ], [ 7.3650241, 5.1414146 ], [ 7.3659682, 5.1411154 ], [ 7.3661828, 5.141639 ], [ 7.3666119, 5.1415856 ], [ 7.3674273, 5.1412864 ], [ 7.3676982, 5.1406412 ], [ 7.3690474, 5.1392988 ], [ 7.3700774, 5.1389248 ], [ 7.370367, 5.1386577 ], [ 7.3704421, 5.1381982 ], [ 7.3711502, 5.1381127 ], [ 7.3711502, 5.1377921 ], [ 7.3714077, 5.1375571 ], [ 7.3735106, 5.1354947 ], [ 7.3745835, 5.1338277 ], [ 7.3760533, 5.1306006 ], [ 7.3768473, 5.1305685 ], [ 7.3767829, 5.1299488 ], [ 7.377212, 5.129361 ], [ 7.3773086, 5.1285382 ], [ 7.3776948, 5.1284741 ], [ 7.3776466, 5.1277261 ], [ 7.3780703, 5.1270743 ], [ 7.3780059, 5.1260805 ], [ 7.378875, 5.120449 ], [ 7.3793364, 5.1198879 ], [ 7.3792344, 5.1186377 ], [ 7.3805487, 5.1162921 ], [ 7.3807311, 5.1156723 ], [ 7.3807391, 5.1153571 ] ] } },
{ "type": "Feature", "properties": { "name": "Imo River", "waterway": "river" }, "geometry": { "type": "MultiLineString", "coordinates": [ [ [ 7.277466941219302, 5.268531721377188 ], [ 7.2776333, 5.2682795 ], [ 7.2777132, 5.2679391 ], [ 7.2776777, 5.267612 ], [ 7.2775268, 5.2672496 ], [ 7.2773537, 5.2670021 ], [ 7.277346060019968, 5.266996393063991 ] ], [ [ 7.276625175265337, 5.258998351891274 ], [ 7.2768299, 5.2588914 ], [ 7.2774158, 5.2583786 ], [ 7.2778863, 5.2580383 ], [ 7.2780949, 5.2577775 ], [ 7.2781304, 5.2574681 ], [ 7.278086, 5.2571057 ], [ 7.277944, 5.2568935 ], [ 7.2777132, 5.2567476 ], [ 7.2773048, 5.2566592 ], [ 7.2767367, 5.2565576 ], [ 7.2764703, 5.2563808 ], [ 7.2763283, 5.2561819 ], [ 7.2760753, 5.2553376 ], [ 7.2759599, 5.2551343 ], [ 7.2758179, 5.255068 ], [ 7.2755959, 5.254984 ], [ 7.275498903311744, 5.254993227868053 ] ], [ [ 7.274914148715601, 5.254296551291347 ], [ 7.2765724, 5.2537287 ], [ 7.2768787, 5.2535166 ], [ 7.2769764, 5.2533442 ], [ 7.2769497, 5.2531409 ], [ 7.2767589, 5.2528624 ], [ 7.2763771, 5.2526989 ], [ 7.2760043, 5.2526414 ], [ 7.2752364, 5.2526768 ], [ 7.2747526, 5.2527917 ], [ 7.2744241, 5.2529641 ], [ 7.2741622, 5.2531939 ], [ 7.274084698992505, 5.253308344960952 ] ], [ [ 7.26679453265103, 5.234497992441066 ], [ 7.2670283, 5.2344398 ], [ 7.2672794, 5.234221 ], [ 7.2673485, 5.2340397 ], [ 7.2673359, 5.2338021 ], [ 7.2671915, 5.2335021 ], [ 7.2669844, 5.2333521 ], [ 7.266727617768345, 5.233314343824387 ] ] ] } },
{ "type": "Feature", "properties": { "name": "Imo River", "waterway": "river" }, "geometry": { "type": "MultiLineString", "coordinates": [ [ [ 7.423772924913662, 5.584242969309651 ], [ 7.4239643, 5.5840178 ], [ 7.4242909, 5.5837663 ], [ 7.4245312, 5.5835762 ], [ 7.424599, 5.5833861 ], [ 7.4245682, 5.5830917 ], [ 7.4244881, 5.5824355 ], [ 7.4243833, 5.5821289 ], [ 7.4242724, 5.581767 ], [ 7.4240691, 5.5814358 ], [ 7.4237671, 5.5811721 ], [ 7.4234282, 5.5810433 ], [ 7.4231941, 5.5810127 ], [ 7.4229537, 5.5810556 ], [ 7.4227196, 5.5811599 ], [ 7.4225039, 5.5812825 ], [ 7.42249734854695, 5.581288829422898 ] ], [ [ 7.421387944151484, 5.580338154285639 ], [ 7.4212468, 5.5800069 ], [ 7.4210558, 5.5795898 ], [ 7.4208401, 5.5793016 ], [ 7.4205875, 5.5791667 ], [ 7.4203164, 5.5790808 ], [ 7.420076, 5.5790931 ], [ 7.4199466, 5.5791421 ], [ 7.419817281069801, 5.579319888544686 ] ], [ [ 7.418613230008577, 5.578795522383779 ], [ 7.418591, 5.578676 ], [ 7.4184985, 5.5784307 ], [ 7.418289, 5.5781854 ], [ 7.4180179, 5.5779278 ], [ 7.4178515, 5.5777561 ], [ 7.4176913, 5.5776764 ], [ 7.4173709, 5.5775966 ], [ 7.4169827, 5.5774556 ], [ 7.4168594, 5.5773329 ], [ 7.4168471, 5.5771489 ], [ 7.4168101, 5.5769404 ], [ 7.4168465, 5.5767188 ], [ 7.4168839, 5.5763562 ], [ 7.4168652, 5.5761052 ], [ 7.4167438, 5.5757055 ], [ 7.4166504, 5.5752314 ], [ 7.416557, 5.5748131 ], [ 7.4164823, 5.5745621 ], [ 7.4164356, 5.5743669 ], [ 7.4164169, 5.5741252 ], [ 7.4163982, 5.5738092 ], [ 7.4163795, 5.5734466 ], [ 7.4163608, 5.5731771 ], [ 7.4163328, 5.5730376 ], [ 7.4162301, 5.5729168 ], [ 7.4160713, 5.5727588 ], [ 7.4158285, 5.5725449 ], [ 7.415595, 5.572294 ], [ 7.4154175, 5.5720337 ], [ 7.4153521, 5.5718013 ], [ 7.4153615, 5.5715782 ], [ 7.4153708, 5.5713179 ], [ 7.4154455, 5.5711413 ], [ 7.4155202, 5.5709739 ], [ 7.4156323, 5.5708624 ], [ 7.4160153, 5.5705463 ], [ 7.4164729, 5.5701187 ], [ 7.416585, 5.5699886 ], [ 7.4166504, 5.569812 ], [ 7.4167344, 5.5695424 ], [ 7.4168092, 5.5693658 ], [ 7.4169773, 5.5691334 ], [ 7.4173322, 5.5685477 ], [ 7.4176031, 5.5680179 ], [ 7.4176498, 5.5678319 ], [ 7.4175844, 5.5677018 ], [ 7.4173882, 5.5676367 ], [ 7.4171454, 5.5676274 ], [ 7.4168932, 5.5675902 ], [ 7.416529, 5.5676274 ], [ 7.416187382931892, 5.567601888447002 ] ], [ [ 7.41490985012978, 5.5584432100453 ], [ 7.4148358, 5.5582958 ], [ 7.4148358, 5.5579968 ], [ 7.4148143, 5.5576551 ], [ 7.4146641, 5.5571425 ], [ 7.4144281, 5.5568221 ], [ 7.4140444, 5.5565665 ], [ 7.4132479, 5.5561814 ], [ 7.4127544, 5.5558824 ], [ 7.4121536, 5.5556048 ], [ 7.412136475003039, 5.555595710824074 ] ], [ [ 7.40609824763451, 5.532109663995386 ], [ 7.4062041, 5.5320412 ], [ 7.4063829, 5.5317498 ], [ 7.4064642, 5.5313937 ], [ 7.4063342, 5.5311347 ], [ 7.4059276, 5.5309081 ], [ 7.4055048, 5.530633 ], [ 7.4052446, 5.5302445 ], [ 7.405082, 5.5298237 ], [ 7.4048055, 5.5293866 ], [ 7.404649846326591, 5.529290700928594 ] ], [ [ 7.385179128435863, 5.502574027469604 ], [ 7.3851905, 5.5025443 ], [ 7.3851711, 5.5022356 ], [ 7.3850351, 5.5019258 ], [ 7.384849819906771, 5.501725947315168 ] ], [ [ 7.370683459382597, 5.472378149196707 ], [ 7.3706843, 5.4723748 ], [ 7.3705703, 5.4720437 ], [ 7.370326198541626, 5.47198410397106 ] ], [ [ 7.357775256465198, 5.448999140277824 ], [ 7.3577762, 5.4489482 ], [ 7.3574597, 5.4485506 ], [ 7.357386866980719, 5.448523170060888 ] ], [ [ 7.350199948999987, 5.443053120988884 ], [ 7.3501739, 5.4430173 ], [ 7.3497206, 5.4428323 ], [ 7.349330095562365, 5.442950371122227 ] ], [ [ 7.347133618439413, 5.442112256207817 ], [ 7.347172, 5.4419484 ], [ 7.3475472, 5.4412235 ], [ 7.3477033, 5.4407279 ], [ 7.3474358, 5.4401066 ], [ 7.3467758, 5.4397178 ], [ 7.345819, 5.4393111 ], [ 7.3450825, 5.4387813 ], [ 7.3444805, 5.4387706 ], [ 7.3442493, 5.4390756 ], [ 7.343952693247471, 5.439800044748474 ] ], [ [ 7.340724509363423, 5.436726492718977 ], [ 7.3407283, 5.436721 ], [ 7.3413089, 5.4355223 ], [ 7.3417766, 5.4348641 ], [ 7.3420776, 5.4344841 ], [ 7.3420668, 5.4341203 ], [ 7.3418357, 5.4338955 ], [ 7.3414056, 5.4338634 ], [ 7.3407713, 5.4339597 ], [ 7.3400295, 5.4343825 ], [ 7.3393575, 5.4345484 ], [ 7.3389221, 5.434329 ], [ 7.3387125, 5.4339008 ], [ 7.3388361, 5.4331035 ], [ 7.3392285, 5.4321242 ], [ 7.3394059, 5.4312626 ], [ 7.3393199, 5.4304866 ], [ 7.338992, 5.4296732 ], [ 7.3384867, 5.4293468 ], [ 7.3379115, 5.4293735 ], [ 7.3371804, 5.4295555 ], [ 7.3365085, 5.4296465 ], [ 7.3358688, 5.4296357 ], [ 7.3356591, 5.4293254 ], [ 7.3357398, 5.4287421 ], [ 7.3362666, 5.4283675 ], [ 7.3367826, 5.4281694 ], [ 7.3372879, 5.4281909 ], [ 7.3378578, 5.4283942 ], [ 7.3382717, 5.428421 ], [ 7.3387017, 5.428239 ], [ 7.3387931, 5.4278484 ], [ 7.338605, 5.4273186 ], [ 7.3381427, 5.4270992 ], [ 7.3374277, 5.4270777 ], [ 7.3366321, 5.4272222 ], [ 7.3358527, 5.4274952 ], [ 7.335084, 5.4277253 ], [ 7.3343368, 5.4279126 ], [ 7.333935443621034, 5.42805765893267 ] ], [ [ 7.330143076765276, 5.422076449835165 ], [ 7.3303577, 5.4220695 ], [ 7.3311841, 5.421948 ], [ 7.3316767, 5.4217251 ], [ 7.3319983, 5.4214292 ], [ 7.3320023, 5.4209388 ], [ 7.3316482, 5.4204768 ], [ 7.3310294, 5.4201891 ], [ 7.3302356, 5.4201769 ], [ 7.3295679, 5.4203877 ], [ 7.329389730697224, 5.42049999263586 ] ], [ [ 7.326770966664251, 5.414846651550516 ], [ 7.3267997, 5.4144261 ], [ 7.3265921, 5.4137857 ], [ 7.3262379, 5.4134007 ], [ 7.325884950211628, 5.413333973174337 ] ], [ [ 7.322414284144312, 5.385767457947155 ], [ 7.3227057, 5.3857855 ], [ 7.3232724, 5.385917 ], [ 7.3237454, 5.3859128 ], [ 7.3241545, 5.3855903 ], [ 7.3243037, 5.3852976 ], [ 7.3242909, 5.3848691 ], [ 7.3241375, 5.3845467 ], [ 7.3237923, 5.384343 ], [ 7.3233065, 5.3842964 ], [ 7.3229145, 5.3844745 ], [ 7.322467, 5.3848352 ], [ 7.322278222224602, 5.384893129160299 ] ], [ [ 7.321498578571359, 5.381801482760935 ], [ 7.3220792, 5.3815769 ], [ 7.3225267, 5.3814029 ], [ 7.3226119, 5.3810126 ], [ 7.3221474, 5.3803805 ], [ 7.321342, 5.3792435 ], [ 7.3208051, 5.3787725 ], [ 7.3202511, 5.3786749 ], [ 7.319889671091364, 5.378801407828781 ] ], [ [ 7.317600508586773, 5.372848287776455 ], [ 7.317754, 5.3725613 ], [ 7.3178222, 5.3720395 ], [ 7.3177455, 5.3716407 ], [ 7.3175153, 5.3713098 ], [ 7.3170849, 5.3711443 ], [ 7.31688369259975, 5.371182118260529 ] ], [ [ 7.315666280901384, 5.367865558942736 ], [ 7.3158196, 5.3675878 ], [ 7.3160813, 5.3673129 ], [ 7.3161685, 5.3669873 ], [ 7.3161031, 5.366669 ], [ 7.3159432, 5.3664085 ], [ 7.3156598, 5.3662566 ], [ 7.3153255, 5.3661987 ], [ 7.3149258, 5.3662638 ], [ 7.31485920915637, 5.366294634224234 ] ], [ [ 7.314228584326928, 5.365067031600346 ], [ 7.3145261, 5.3650627 ], [ 7.3148895, 5.3649108 ], [ 7.3153037, 5.3646503 ], [ 7.3156452, 5.3643681 ], [ 7.3158124, 5.3641366 ], [ 7.3159287, 5.3637965 ], [ 7.3159287, 5.363348 ], [ 7.3157688, 5.3630079 ], [ 7.3155726, 5.3627836 ], [ 7.3152601, 5.362581 ], [ 7.3148967, 5.3624363 ], [ 7.3142136, 5.3622771 ], [ 7.3135232, 5.3621324 ], [ 7.3127166, 5.3620239 ], [ 7.312366040706604, 5.362012561323784 ] ], [ [ 7.309877653842161, 5.360470787663542 ], [ 7.3097371, 5.3603308 ], [ 7.3094173, 5.3602223 ], [ 7.309206247320253, 5.360171577256327 ] ], [ [ 7.308477971671926, 5.359808227934279 ], [ 7.3083418, 5.3596796 ], [ 7.3081237, 5.3592817 ], [ 7.3078985, 5.359137 ], [ 7.3076223, 5.3591587 ], [ 7.307486091056239, 5.35921124844528 ] ] ] } },
{ "type": "Feature", "properties": { "name": null, "waterway": "stream" }, "geometry": { "type": "LineString", "coordinates": [ [ 7.3169683, 5.9819289 ], [ 7.3170355, 5.981672 ], [ 7.3170816, 5.9815664 ], [ 7.3171736, 5.9813974 ], [ 7.3172444, 5.9813974 ], [ 7.3172868, 5.9812601 ], [ 7.3172762, 5.9811932 ] ] } },
{ "type": "Feature", "properties": { "name": null, "waterway": "stream" }, "geometry": { "type": "LineString", "coordinates": [ [ 7.3203328, 5.9920541 ], [ 7.3204294, 5.9919474 ], [ 7.3204911, 5.9918354 ], [ 7.3205501, 5.9916993 ], [ 7.3207083, 5.9916246 ], [ 7.3208719, 5.9916566 ], [ 7.3210355, 5.9917633 ], [ 7.321403, 5.9918887 ], [ 7.3215693, 5.9919501 ], [ 7.3217597, 5.9919847 ], [ 7.3220226, 5.9920648 ], [ 7.3221916, 5.9921875 ], [ 7.3223284, 5.9922648 ], [ 7.3225108, 5.9924222 ], [ 7.3226985, 5.9925156 ], [ 7.3230445, 5.992785 ], [ 7.3232028, 5.992913 ], [ 7.3232564, 5.9930758 ], [ 7.3233315, 5.9932652 ], [ 7.3233717, 5.9935026 ], [ 7.3235032, 5.993772 ], [ 7.3237446, 5.9938173 ] ] } }
]
}
