{"type":"FeatureCollection","features":[{"type":"Feature","id":225,"geometry":{"type":"Polygon","coordinates":[[[7.630680084000005,6.4481906890000005],[7.625557899,6.450554848000024],[7.615517615999977,6.456666470000016],[7.603294372999983,6.46234130900001],[7.59630966200001,6.465833664000002],[7.5845232010000245,6.466706752999983],[7.576665401000014,6.466706752999983],[7.570553780000012,6.4645242689999804],[7.563132285999984,6.4645242689999804],[7.5504727360000174,6.465397358000018],[7.532574653999973,6.465833664000002],[7.511183738999989,6.466706752999983],[7.495468615999982,6.465833664000002],[7.490230082999972,6.471072197000012],[7.481062412000028,6.480676173999996],[7.472768307000024,6.485041618000025],[7.4627280240000005,6.484168529999977],[7.460135460000004,6.480928420999987],[7.45748949099999,6.477620602000002],[7.453124046000028,6.466706752999983],[7.447448730000019,6.450554848000024],[7.449194907999981,6.433966160000011],[7.4523978230000125,6.423397064000028],[7.468402862999994,6.422616005000009],[7.483245372999988,6.423925876999988],[7.500270366999985,6.426108360000001],[7.519478321000008,6.428291321000017],[7.532137870999975,6.4274182319999795],[7.543488025999977,6.423925876999988],[7.5530920030000175,6.416941166000015],[7.568807601999993,6.408210278000013],[7.581467152000016,6.39686012300001],[7.584959507000008,6.3977332119999915],[7.590634346000002,6.401225566999983],[7.602421284000002,6.408210278000013],[7.619009972000015,6.419996738000009],[7.621192455000028,6.428727627000001],[7.625557899,6.433529854000028],[7.630680084000005,6.4481906890000005]]]},"properties":{"fid":225,"cty_nm":"Nigeria","iso3cd":"NGA","adm1nm":"Enugu","adm2nm":"Enugu North","adm1cd":"NGA014","adm2cd":"NGA014004"}},{"type":"Feature","id":226,"geometry":{"type":"Polygon","coordinates":[[[7.581467152000016,6.39686012300001],[7.568807601999993,6.408210278000013],[7.5530920030000175,6.416941166000015],[7.543488025999977,6.423925876999988],[7.532137870999975,6.4274182319999795],[7.519478321000008,6.428291321000017],[7.500270366999985,6.426108360000001],[7.483245372999988,6.423925876999988],[7.468402862999994,6.422616005000009],[7.4523978230000125,6.423397064000028],[7.444829464000009,6.414321899000015],[7.44086551700002,6.410357475000012],[7.447448730000019,6.4034085270000105],[7.460108757,6.39162159],[7.465347290000011,6.384200572999987],[7.475387572999978,6.379835129000014],[7.488047123000001,6.378088950999995],[7.5011434560000225,6.375032901999987],[7.509874344000025,6.376779079000016],[7.529518603999975,6.3719773290000035],[7.545670986000005,6.370231151999974],[7.559203625000009,6.376342772999976],[7.5661883349999925,6.3868198389999975],[7.574919223999984,6.393804550000027],[7.581467152000016,6.39686012300001]]]},"properties":{"fid":226,"cty_nm":"Nigeria","iso3cd":"NGA","adm1nm":"Enugu","adm2nm":"Enugu South","adm1cd":"NGA014","adm2cd":"NGA014005"}},{"type":"Feature","id":222,"geometry":{"type":"Polygon","coordinates":[[[7.6683154109999805,6.060618877000024],[7.661354542000026,6.069453715999998],[7.659608364000007,6.078621386999998],[7.654369830999997,6.098701953999978],[7.649567604000026,6.106559752999999],[7.640836716000024,6.132316113000002],[7.630359650000003,6.152396678999992],[7.622065544000009,6.157198906000019],[7.604603767000015,6.158071995],[7.595436572999972,6.155889033999983],[7.584959507000008,6.15283346199999],[7.571426868000003,6.155452728],[7.558766842000011,6.162873745000013],[7.549162865000028,6.168985367000005],[7.546107291999988,6.1759700779999775],[7.544797897000024,6.186883449999982],[7.5373764039999855,6.198233603999995],[7.5318760870000006,6.209060191999981],[7.529736995999997,6.2047820089999846],[7.528427124000018,6.191248894000012],[7.523625374000005,6.174223900000015],[7.5175137520000135,6.161127566999994],[7.510092735000001,6.149777411999992],[7.510965823999982,6.146285057],[7.5157675739999945,6.136681080000017],[7.522315978999984,6.1214022639999826],[7.527990817999978,6.098265647999995],[7.528863907000016,6.084296226999982],[7.53191947900001,6.066398144000004],[7.5323562620000075,6.049373150000008],[7.526244640000016,6.037149906000025],[7.520060062000027,6.02001857800002],[7.533384800000022,6.010976791000019],[7.547191619999978,5.994943142000011],[7.559083939000004,5.985483170000009],[7.573160647999998,5.969135761000018],[7.5890541080000276,5.961416245000009],[7.6353716849999955,5.943252562999987],[7.664433479000024,5.930084228999988],[7.678964614999984,5.928721904999975],[7.691889285999991,5.924640178999994],[7.704847813000015,5.929175853999993],[7.714838027999974,5.945977211000013],[7.711205006,5.970952511000007],[7.697128296000017,5.988661766000007],[7.675786017999997,6.010004519999995],[7.667158126999993,6.030438423000021],[7.663979530000006,6.049056529999973],[7.6683154109999805,6.060618877000024]]]},"properties":{"fid":222,"cty_nm":"Nigeria","iso3cd":"NGA","adm1nm":"Enugu","adm2nm":"Aninri","adm1cd":"NGA014","adm2cd":"NGA014001"}},{"type":"Feature","id":223,"geometry":{"type":"Polygon","coordinates":[[[7.512400626999977,6.2313480380000215],[7.503108025000017,6.237958907999996],[7.496123313999988,6.251492023000026],[7.485209941999983,6.269826411999986],[7.476915358999975,6.280740261000005],[7.466001987000027,6.295582293999985],[7.460326672000008,6.306496143000004],[7.449631690999979,6.326140404],[7.4439563750000275,6.3387999529999774],[7.439590930999998,6.3348712920000025],[7.431296825000004,6.320465565000006],[7.426494597999977,6.309988498999985],[7.422129631000018,6.295582293999985],[7.418637276000027,6.2820496560000265],[7.410779476000016,6.270699501000024],[7.4064140319999865,6.263278484000011],[7.396373272000005,6.254547596000009],[7.391134738999995,6.246689795999998],[7.387642384000003,6.237958907999996],[7.385896205999984,6.227481841999975],[7.381094456000028,6.21700477600001],[7.376292706000015,6.208274363999976],[7.371041298000023,6.20407295199999],[7.3725819590000015,6.191248894000012],[7.374764442000014,6.181208610999988],[7.380002975000025,6.172041416000013],[7.386551380000014,6.158945083999981],[7.390916823999987,6.147594928999979],[7.393972397000027,6.137554168999998],[7.393536090999987,6.129696846000002],[7.391789913000025,6.1214022639999826],[7.386987685999998,6.106996535999997],[7.386114597000017,6.095209598999986],[7.388297557999977,6.084296226999982],[7.389606952999998,6.077748299000007],[7.391789913000025,6.070763587999977],[7.392226219000008,6.057230473000004],[7.3900437359999955,6.046317101],[7.3847932819999755,6.037316798999996],[7.386810303000004,6.036674975999972],[7.395852089000016,6.024777411999992],[7.404417991999992,6.0124044419999905],[7.415839672000004,6.00621795699999],[7.430592059999981,6.00621795699999],[7.451531409999973,6.013832091999973],[7.461525440000003,6.0147838589999765],[7.475801945000001,6.0124044419999905],[7.493885993999982,6.016687392999984],[7.510541916000022,6.021446228000002],[7.520060062000027,6.02001857800002],[7.526244640000016,6.037149906000025],[7.5323562620000075,6.049373150000008],[7.53191947900001,6.066398144000004],[7.528863907000016,6.084296226999982],[7.527990817999978,6.098265647999995],[7.522315978999984,6.1214022639999826],[7.5157675739999945,6.136681080000017],[7.510965823999982,6.146285057],[7.510092735000001,6.149777411999992],[7.5175137520000135,6.161127566999994],[7.523625374000005,6.174223900000015],[7.528427124000018,6.191248894000012],[7.529736995999997,6.2047820089999846],[7.5318760870000006,6.209060191999981],[7.519696711999984,6.224862576000021],[7.512400626999977,6.2313480380000215]]]},"properties":{"fid":223,"cty_nm":"Nigeria","iso3cd":"NGA","adm1nm":"Enugu","adm2nm":"Awgu","adm1cd":"NGA014","adm2cd":"NGA014002"}},{"type":"Feature","id":224,"geometry":{"type":"Polygon","coordinates":[[[7.653496742000016,6.601598263000028],[7.643455981999978,6.609019756000009],[7.627304077000019,6.618186950999984],[7.600238322999985,6.6435065269999996],[7.584959507000008,6.651364326000021],[7.572299956999984,6.653983593000021],[7.55745744699999,6.6500544549999745],[7.548726558999988,6.641323565999983],[7.54828977599999,6.636085032999972],[7.545670986000005,6.63259267799998],[7.5438065530000245,6.63106727600001],[7.540868758999977,6.6286640170000055],[7.528209209000011,6.6277909280000245],[7.5133666990000165,6.627354145000027],[7.4959049220000225,6.6269178389999865],[7.4828085899999905,6.6260447500000055],[7.471895217999986,6.619496346000005],[7.459235668000019,6.616877079000005],[7.460545062999984,6.6120753289999925],[7.460545062999984,6.60465431199998],[7.4627280240000005,6.581517220000023],[7.463164329999984,6.564492226000027],[7.461854935000019,6.538299560999974],[7.4609818459999815,6.502503395000019],[7.460135460000004,6.480928420999987],[7.4627280240000005,6.484168529999977],[7.472768307000024,6.485041618000025],[7.481062412000028,6.480676173999996],[7.490230082999972,6.471072197000012],[7.495468615999982,6.465833664000002],[7.511183738999989,6.466706752999983],[7.532574653999973,6.465833664000002],[7.5504727360000174,6.465397358000018],[7.563132285999984,6.4645242689999804],[7.570553780000012,6.4645242689999804],[7.576665401000014,6.466706752999983],[7.5845232010000245,6.466706752999983],[7.59630966200001,6.465833664000002],[7.603294372999983,6.46234130900001],[7.615517615999977,6.456666470000016],[7.625557899,6.450554848000024],[7.630680084000005,6.4481906890000005],[7.632105826999975,6.457102775999999],[7.644329071000016,6.471072197000012],[7.651750564999986,6.486351490000004],[7.656552314999999,6.503812789999984],[7.65742540399998,6.512980460999984],[7.655242919999978,6.523457527000005],[7.651313781999988,6.533497809999972],[7.650004387000024,6.541791916000022],[7.652186871000026,6.552705764999985],[7.651750564999986,6.565802097000017],[7.650004387000024,6.575406074999989],[7.649131297999986,6.582390308000015],[7.650877476000005,6.591121197000007],[7.653496742000016,6.601598263000028]]]},"properties":{"fid":224,"cty_nm":"Nigeria","iso3cd":"NGA","adm1nm":"Enugu","adm2nm":"Enugu East","adm1cd":"NGA014","adm2cd":"NGA014003"}},{"type":"Feature","id":227,"geometry":{"type":"Polygon","coordinates":[[[7.245460987000001,6.275623322000001],[7.254933833999985,6.281176566999989],[7.268030167000006,6.290780543999972],[7.286801337999975,6.304313182999977],[7.301643848000026,6.314790248999998],[7.3204150199999845,6.324831008999979],[7.336130619000016,6.333561896999981],[7.357521056999985,6.337490559000003],[7.366251944999988,6.342729092000013],[7.378911972000026,6.352333068999997],[7.38720607800002,6.366738795999993],[7.389388560999976,6.383327484000006],[7.386332988999982,6.398169994],[7.380658149999988,6.411702633000004],[7.367125034000026,6.42348909399999],[7.345297813000002,6.438331603999984],[7.331765174999987,6.452301024999997],[7.3164863590000095,6.465833664000002],[7.304699421000009,6.473255156999983],[7.288111210000011,6.484168529999977],[7.27763414399999,6.488970757000004],[7.266283988999987,6.492899417999979],[7.260172366999996,6.497264862000009],[7.248822211999993,6.504249572999981],[7.23921823500001,6.508178234000013],[7.218700886000022,6.510361194999973],[7.212589263999973,6.509488105999992],[7.193381310000007,6.5177822109999966],[7.179848671000002,6.528696060000016],[7.165006161000008,6.530442237999978],[7.159331322000014,6.53699016600001],[7.155838965999976,6.553142071000025],[7.150443553999992,6.560241222000002],[7.149290561999976,6.554015160000006],[7.134011745000009,6.534807682000007],[7.1169867520000025,6.503376484],[7.106945992000021,6.489843844999996],[7.098651886000027,6.483295440999996],[7.082063198000014,6.476747513000021],[7.069839953999974,6.474564552000004],[7.056307316000016,6.473691463000023],[7.049659252000026,6.474356650999994],[7.0454082489999905,6.471216201999994],[7.036256313000024,6.473830700000008],[7.0332059859999845,6.466858387000002],[7.032770157000016,6.456835269999999],[7.032770157000016,6.451605797000013],[7.029719829999976,6.447247982000022],[7.027468204000002,6.4435634609999966],[7.029937743999994,6.442890166999973],[7.038653373999978,6.440275192000001],[7.06480073900002,6.437224865000019],[7.088768958999992,6.4302520749999985],[7.096612929999992,6.422408103999999],[7.115351676999978,6.401490211000009],[7.12798976900001,6.386673449999989],[7.13583374000001,6.37272834800001],[7.141934871999979,6.359654902999978],[7.147382258999983,6.343094826000026],[7.15086841599998,6.334379195999986],[7.154354571999988,6.321305752000001],[7.1591482160000055,6.314768791000006],[7.162199020000003,6.304745674000003],[7.160283089000018,6.303468704000011],[7.166533947000005,6.298638343999983],[7.184432506999997,6.283795833999989],[7.19447279000002,6.280740261000005],[7.225903988000027,6.276811123000016],[7.242055892999986,6.277684211999997],[7.245460987000001,6.275623322000001]]]},"properties":{"fid":227,"cty_nm":"Nigeria","iso3cd":"NGA","adm1nm":"Enugu","adm2nm":"Ezeagu","adm1cd":"NGA014","adm2cd":"NGA014006"}},{"type":"Feature","id":228,"geometry":{"type":"Polygon","coordinates":[[[7.5438065530000245,6.63106727600001],[7.541741848000015,6.640014172000008],[7.536067009000021,6.653983593000021],[7.532137870999975,6.662277699000015],[7.529955386999973,6.672317981999981],[7.529955386999973,6.6814856529999815],[7.530828476000011,6.685851097000011],[7.527336121000019,6.6954550739999945],[7.5199146269999915,6.705931663999991],[7.516422272,6.713353156999972],[7.511620521999987,6.722957134000012],[7.509874344000025,6.732561110999995],[7.508128166000006,6.740855216999989],[7.49896097200002,6.749149322999983],[7.48673772799998,6.751768588999994],[7.47757005699998,6.753514767000013],[7.470149040000024,6.760936259999994],[7.466656684999975,6.768357277000007],[7.464622021000025,6.7720198630000255],[7.455743313000028,6.770540236999977],[7.442646980000006,6.766611098999988],[7.4299869540000145,6.7587533000000235],[7.411215781999999,6.749149322999983],[7.388515471999995,6.7404184339999915],[7.376292706000015,6.7360534669999765],[7.361886501000015,6.727322577999985],[7.348353863,6.7212109569999825],[7.332398891000025,6.7248258590000205],[7.317359447000001,6.723393439999995],[7.2990245820000155,6.713789463000012],[7.2907304760000216,6.708114624000018],[7.281126498999981,6.701129912999988],[7.281562805000021,6.691962719000003],[7.282872677,6.684978007999973],[7.284618855000019,6.676683426000011],[7.285315990000015,6.6693615909999835],[7.299461365000013,6.665770054000006],[7.312994002999972,6.660094737999998],[7.324344157999974,6.653546810000023],[7.339186668000025,6.6426334380000185],[7.349663258000021,6.641323565999983],[7.364942551000013,6.636085032999972],[7.376292706000015,6.630846500000018],[7.3850235940000175,6.623425483999995],[7.393317699000022,6.615131378000001],[7.410342693000018,6.611202240000011],[7.428677558999993,6.611202240000011],[7.448321819,6.6138215070000115],[7.459235668000019,6.616877079000005],[7.471895217999986,6.619496346000005],[7.4828085899999905,6.6260447500000055],[7.4959049220000225,6.6269178389999865],[7.5133666990000165,6.627354145000027],[7.528209209000011,6.6277909280000245],[7.540868758999977,6.6286640170000055],[7.5438065530000245,6.63106727600001]]]},"properties":{"fid":228,"cty_nm":"Nigeria","iso3cd":"NGA","adm1nm":"Enugu","adm2nm":"Igbo-Etiti","adm1cd":"NGA014","adm2cd":"NGA014007"}},{"type":"Feature","id":229,"geometry":{"type":"Polygon","coordinates":[[[7.530513762999988,7.0322780609999995],[7.525667191000025,7.035912990999975],[7.515426635999972,7.050092697000025],[7.502034664000007,7.068998813999997],[7.491006373999994,7.073725223999986],[7.4784021379999785,7.089480400000014],[7.4697365760000025,7.099720955000009],[7.455557345999978,7.103660106999996],[7.445316315000014,7.097357750000015],[7.429561137999997,7.090268134999974],[7.416169642999989,7.090268134999974],[7.397263527000007,7.090268134999974],[7.387810230000014,7.08317851999999],[7.389385699999991,7.065060139000025],[7.384659290000002,7.0516681670000025],[7.370479584000009,7.041427134999992],[7.366837024999995,7.039865970999983],[7.3684349060000045,7.036830425000005],[7.3710541730000045,7.030282496999973],[7.370617390000007,7.021987915000011],[7.373236656000017,7.009765147999985],[7.381967545000009,6.987501144000021],[7.388515471999995,6.966983794999976],[7.395936966000022,6.95519733399999],[7.398992538000016,6.94341039699998],[7.4064140319999865,6.935116290999986],[7.418200492999972,6.930750847000013],[7.437408446999996,6.931187630000011],[7.455743313000028,6.927258492000021],[7.471895217999986,6.921583651999981],[7.484118462000026,6.916345119000027],[7.490959167000028,6.909144401999981],[7.49372243900001,6.913289070000019],[7.505945682999993,6.9207105639999895],[7.515549183000019,6.930314540999973],[7.524280071000021,6.9399180409999985],[7.544797897000024,6.955633639999974],[7.558879375000004,6.971568107999985],[7.557177544000012,6.977619171000015],[7.552451134000023,6.984708785999999],[7.549300194000011,6.99101114299998],[7.5453610420000246,7.001251697999976],[7.542210102000013,7.008341788999985],[7.538271426999984,7.020157814000015],[7.530513762999988,7.0322780609999995]]]},"properties":{"fid":229,"cty_nm":"Nigeria","iso3cd":"NGA","adm1nm":"Enugu","adm2nm":"Igbo-Eze North","adm1cd":"NGA014","adm2cd":"NGA014008"}},{"type":"Feature","id":230,"geometry":{"type":"Polygon","coordinates":[[[7.490959167000028,6.909144401999981],[7.484118462000026,6.916345119000027],[7.471895217999986,6.921583651999981],[7.455743313000028,6.927258492000021],[7.437408446999996,6.931187630000011],[7.418200492999972,6.930750847000013],[7.4064140319999865,6.935116290999986],[7.398992538000016,6.94341039699998],[7.395936966000022,6.95519733399999],[7.388515471999995,6.966983794999976],[7.381967545000009,6.987501144000021],[7.373236656000017,7.009765147999985],[7.370617390000007,7.021987915000011],[7.3710541730000045,7.030282496999973],[7.3684349060000045,7.036830425000005],[7.366837024999995,7.039865970999983],[7.353936671999975,7.034337520999998],[7.327153205999991,7.024096488999987],[7.312185763999992,7.0051903720000155],[7.310143948000018,7.003999710000016],[7.312994002999972,6.999724388000004],[7.315176486999974,6.986191749999989],[7.3121209139999905,6.977460860999997],[7.303826808999986,6.960435867000001],[7.302953720000005,6.94864892999999],[7.305136204000007,6.938172339999994],[7.312994002999972,6.923766135999983],[7.327836514000012,6.911979674999998],[7.359704018000002,6.906741141999987],[7.374109744999998,6.9032487869999954],[7.393754005000005,6.9019389150000166],[7.4081602100000055,6.899756432000004],[7.4273676870000145,6.89146232600001],[7.435225487000025,6.886660098999982],[7.447012423999979,6.874000549000016],[7.453174113999978,6.865784645000019],[7.463601111999992,6.877056121999999],[7.468402862999994,6.883604526999989],[7.476696967999999,6.890152453999974],[7.485864638999999,6.9015026089999765],[7.490959167000028,6.909144401999981]]]},"properties":{"fid":230,"cty_nm":"Nigeria","iso3cd":"NGA","adm1nm":"Enugu","adm2nm":"Igbo-Eze South","adm1cd":"NGA014","adm2cd":"NGA014009"}},{"type":"Feature","id":231,"geometry":{"type":"Polygon","coordinates":[[[7.882596970000009,6.858291625999982],[7.876217842000017,6.8633947370000215],[7.8746423719999825,6.868908882000028],[7.863614082000026,6.879937648999999],[7.854948520999983,6.880725384000016],[7.834466933999977,6.880725384000016],[7.817924022999989,6.878362179000021],[7.800593853000009,6.872848034000015],[7.78562641100001,6.872848034000015],[7.776034354999979,6.875824927999986],[7.762781619999998,6.879937648999999],[7.750177382999993,6.878362179000021],[7.734422207000023,6.8633947370000215],[7.7202424999999835,6.862607002000004],[7.692279815999996,6.851824283999974],[7.691039085,6.849117755999998],[7.686673641000027,6.840386867999996],[7.669211863999976,6.821178912999983],[7.65480613699998,6.815504073999989],[7.639090538000005,6.815504073999989],[7.625121593000017,6.815940379999972],[7.601548195000021,6.815504073999989],[7.589761257000021,6.812011718999997],[7.588322162999987,6.809612750999975],[7.585832595999989,6.805463314000008],[7.582340240000008,6.7949862479999865],[7.573609352000005,6.786255359999984],[7.562259197000003,6.782763004000003],[7.533884048000004,6.7810168269999735],[7.517295360999981,6.779270649000011],[7.497214794000001,6.779270649000011],[7.478006839999978,6.776651859000026],[7.464622021000025,6.7720198630000255],[7.466656684999975,6.768357277000007],[7.470149040000024,6.760936259999994],[7.47757005699998,6.753514767000013],[7.48673772799998,6.751768588999994],[7.49896097200002,6.749149322999983],[7.508128166000006,6.740855216999989],[7.509874344000025,6.732561110999995],[7.511620521999987,6.722957134000012],[7.516422272,6.713353156999972],[7.5199146269999915,6.705931663999991],[7.527336121000019,6.6954550739999945],[7.530828476000011,6.685851097000011],[7.529955386999973,6.6814856529999815],[7.529955386999973,6.672317981999981],[7.532137870999975,6.662277699000015],[7.536067009000021,6.653983593000021],[7.541741848000015,6.640014172000008],[7.5438065530000245,6.63106727600001],[7.545670986000005,6.63259267799998],[7.54828977599999,6.636085032999972],[7.548726558999988,6.641323565999983],[7.55745744699999,6.6500544549999745],[7.572299956999984,6.653983593000021],[7.584959507000008,6.651364326000021],[7.600238322999985,6.6435065269999996],[7.627304077000019,6.618186950999984],[7.643455981999978,6.609019756000009],[7.653496742000016,6.601598263000028],[7.681871891000014,6.603344440000001],[7.689729691000025,6.605527401000018],[7.703923701999997,6.607056140999987],[7.7016692160000275,6.610769272000027],[7.698944568999991,6.630749225999978],[7.70575618700002,6.636198520999983],[7.724146843000028,6.634836197000027],[7.7473053929999764,6.633473873000014],[7.775913238999976,6.633473873000014],[7.802250861999994,6.632111549000001],[7.807140827000012,6.633817195999995],[7.804926394999995,6.640460490999999],[7.810440540000002,6.6499133109999775],[7.815166949999991,6.6593666080000276],[7.821469306999973,6.674333572000023],[7.830134391999991,6.689301014000023],[7.841163157999972,6.714509009999972],[7.845101833000001,6.721599102000027],[7.855342387999997,6.742868423000004],[7.867158889999985,6.751533508000023],[7.878187656000023,6.760199069999999],[7.888428211000019,6.766500950000022],[7.894730090999985,6.774378776999981],[7.903395653000018,6.781468390999976],[7.900244713000006,6.786194801000022],[7.890003680999996,6.785407066000005],[7.887640476000001,6.789345740999977],[7.886458874000027,6.794072627999981],[7.886458874000027,6.805100917999994],[7.888822079000022,6.8216438289999815],[7.890397548999999,6.843700886000022],[7.888034344000005,6.853941916999986],[7.882596970000009,6.858291625999982]]]},"properties":{"fid":231,"cty_nm":"Nigeria","iso3cd":"NGA","adm1nm":"Enugu","adm2nm":"Isi-Uzo","adm1cd":"NGA014","adm2cd":"NGA014010"}},{"type":"Feature","id":232,"geometry":{"type":"Polygon","coordinates":[[[7.725004673000001,6.242600917999994],[7.721649169999978,6.249311447000025],[7.708934784000007,6.277919291999979],[7.708026409000013,6.298353195000004],[7.720968245999984,6.331048011999997],[7.738677501999973,6.353752612999983],[7.751392365000015,6.385539054999981],[7.750030041000002,6.423228741000003],[7.749121666000008,6.447295666000002],[7.746851444000015,6.472724915000015],[7.7307310099999995,6.559910774000002],[7.717108250000024,6.585340023000015],[7.703923701999997,6.607056140999987],[7.689729691000025,6.605527401000018],[7.681871891000014,6.603344440000001],[7.653496742000016,6.601598263000028],[7.650877476000005,6.591121197000007],[7.649131297999986,6.582390308000015],[7.650004387000024,6.575406074999989],[7.651750564999986,6.565802097000017],[7.652186871000026,6.552705764999985],[7.650004387000024,6.541791916000022],[7.651313781999988,6.533497809999972],[7.655242919999978,6.523457527000005],[7.65742540399998,6.512980460999984],[7.656552314999999,6.503812789999984],[7.651750564999986,6.486351490000004],[7.644329071000016,6.471072197000012],[7.632105826999975,6.457102775999999],[7.630680084000005,6.4481906890000005],[7.625557899,6.433529854000028],[7.621192455000028,6.428727627000001],[7.619009972000015,6.419996738000009],[7.602421284000002,6.408210278000013],[7.590634346000002,6.401225566999983],[7.584959507000008,6.3977332119999915],[7.581467152000016,6.39686012300001],[7.587142466999978,6.389002323],[7.595872879000012,6.371104240000022],[7.601984501000004,6.3597540860000095],[7.601984501000004,6.352333068999997],[7.599365234000004,6.3431653979999965],[7.5910711289999995,6.325704098000017],[7.588015079000002,6.3174095150000085],[7.5893249509999805,6.304313182999977],[7.590634346000002,6.295145988000002],[7.585832595999989,6.2794303890000265],[7.583650111999987,6.269826411999986],[7.577538489999995,6.260659218000001],[7.5744824409999865,6.25542068499999],[7.567497730000014,6.245816708000007],[7.560949801999982,6.2423243520000256],[7.5539650919999985,6.2418880459999855],[7.546544074999986,6.244070529999988],[7.533447742000021,6.244070529999988],[7.525153160000002,6.238395690999994],[7.512400626999977,6.2313480380000215],[7.519696711999984,6.224862576000021],[7.5318760870000006,6.209060191999981],[7.5373764039999855,6.198233603999995],[7.544797897000024,6.186883449999982],[7.546107291999988,6.1759700779999775],[7.549162865000028,6.168985367000005],[7.558766842000011,6.162873745000013],[7.571426868000003,6.155452728],[7.584959507000008,6.15283346199999],[7.595436572999972,6.155889033999983],[7.604603767000015,6.158071995],[7.622065544000009,6.157198906000019],[7.630359650000003,6.152396678999992],[7.640836716000024,6.132316113000002],[7.649567604000026,6.106559752999999],[7.654369830999997,6.098701953999978],[7.659608364000007,6.078621386999998],[7.661354542000026,6.069453715999998],[7.6683154109999805,6.060618877000024],[7.669428348999986,6.063587188999975],[7.686230183000021,6.071306704999984],[7.698036193999997,6.074031353000009],[7.713799477000009,6.083923340000013],[7.726190089999989,6.114899634999972],[7.738904952999974,6.172115325999982],[7.737088202999985,6.20299387],[7.733001709000007,6.226606369000024],[7.725004673000001,6.242600917999994]]]},"properties":{"fid":232,"cty_nm":"Nigeria","iso3cd":"NGA","adm1nm":"Enugu","adm2nm":"Nkanu East","adm1cd":"NGA014","adm2cd":"NGA014011"}},{"type":"Feature","id":233,"geometry":{"type":"Polygon","coordinates":[[[7.581467152000016,6.39686012300001],[7.574919223999984,6.393804550000027],[7.5661883349999925,6.3868198389999975],[7.559203625000009,6.376342772999976],[7.545670986000005,6.370231151999974],[7.529518603999975,6.3719773290000035],[7.509874344000025,6.376779079000016],[7.5011434560000225,6.375032901999987],[7.488047123000001,6.378088950999995],[7.475387572999978,6.379835129000014],[7.465347290000011,6.384200572999987],[7.460108757,6.39162159],[7.447448730000019,6.4034085270000105],[7.44086551700002,6.410357475000012],[7.436971663999998,6.406464099999994],[7.435225487000025,6.3977332119999915],[7.432606220000025,6.380271434999997],[7.431733130999987,6.362810135000018],[7.435225487000025,6.35276937499998],[7.440027713999996,6.343602180000005],[7.4439563750000275,6.3387999529999774],[7.449631690999979,6.326140404],[7.460326672000008,6.306496143000004],[7.466001987000027,6.295582293999985],[7.476915358999975,6.280740261000005],[7.485209941999983,6.269826411999986],[7.496123313999988,6.251492023000026],[7.503108025000017,6.237958907999996],[7.512400626999977,6.2313480380000215],[7.525153160000002,6.238395690999994],[7.533447742000021,6.244070529999988],[7.546544074999986,6.244070529999988],[7.5539650919999985,6.2418880459999855],[7.560949801999982,6.2423243520000256],[7.567497730000014,6.245816708000007],[7.5744824409999865,6.25542068499999],[7.577538489999995,6.260659218000001],[7.583650111999987,6.269826411999986],[7.585832595999989,6.2794303890000265],[7.590634346000002,6.295145988000002],[7.5893249509999805,6.304313182999977],[7.588015079000002,6.3174095150000085],[7.5910711289999995,6.325704098000017],[7.599365234000004,6.3431653979999965],[7.601984501000004,6.352333068999997],[7.601984501000004,6.3597540860000095],[7.595872879000012,6.371104240000022],[7.587142466999978,6.389002323],[7.581467152000016,6.39686012300001]]]},"properties":{"fid":233,"cty_nm":"Nigeria","iso3cd":"NGA","adm1nm":"Enugu","adm2nm":"Nkanu West","adm1cd":"NGA014","adm2cd":"NGA014012"}},{"type":"Feature","id":234,"geometry":{"type":"Polygon","coordinates":[[[7.453174113999978,6.865784645000019],[7.447012423999979,6.874000549000016],[7.435225487000025,6.886660098999982],[7.4273676870000145,6.89146232600001],[7.4081602100000055,6.899756432000004],[7.393754005000005,6.9019389150000166],[7.374109744999998,6.9032487869999954],[7.359704018000002,6.906741141999987],[7.327836514000012,6.911979674999998],[7.312994002999972,6.923766135999983],[7.305136204000007,6.938172339999994],[7.302953720000005,6.94864892999999],[7.303826808999986,6.960435867000001],[7.3121209139999905,6.977460860999997],[7.315176486999974,6.986191749999989],[7.312994002999972,6.999724388000004],[7.310143948000018,7.003999710000016],[7.293279648000009,6.994162082999992],[7.257830619999993,6.980770111000027],[7.2412881849999735,6.971317290999991],[7.238136768000004,6.957925320000015],[7.238924503000021,6.941382407999981],[7.242863655000008,6.927990437000005],[7.238136768000004,6.921688556999982],[7.234985827999992,6.910660267000026],[7.219230652000022,6.905933380000022],[7.2098879810000085,6.90281915700001],[7.216954708000003,6.893208503999972],[7.24183750200001,6.883167743999991],[7.257553100999985,6.873563766000018],[7.281562805000021,6.858721732999982],[7.290293694000013,6.849990844999979],[7.298151492999978,6.833838463000006],[7.2998976709999965,6.8255443570000125],[7.299461365000013,6.807646275000025],[7.2972784039999965,6.7949862479999865],[7.295095920999984,6.7783975599999735],[7.298151492999978,6.766174793000005],[7.311684131999982,6.754387855999994],[7.319978714000001,6.745656967000002],[7.3287096020000035,6.7334341999999765],[7.332398891000025,6.7248258590000205],[7.348353863,6.7212109569999825],[7.361886501000015,6.727322577999985],[7.376292706000015,6.7360534669999765],[7.388515471999995,6.7404184339999915],[7.411215781999999,6.749149322999983],[7.4299869540000145,6.7587533000000235],[7.442646980000006,6.766611098999988],[7.455743313000028,6.770540236999977],[7.464622021000025,6.7720198630000255],[7.478006839999978,6.776651859000026],[7.497214794000001,6.779270649000011],[7.517295360999981,6.779270649000011],[7.533884048000004,6.7810168269999735],[7.562259197000003,6.782763004000003],[7.573609352000005,6.786255359999984],[7.582340240000008,6.7949862479999865],[7.585832595999989,6.805463314000008],[7.588322162999987,6.809612750999975],[7.585832595999989,6.8107018470000185],[7.563132285999984,6.819432735000021],[7.553528309000001,6.821178912999983],[7.545670986000005,6.823361396999985],[7.5199146269999915,6.833402157000023],[7.508128166000006,6.8347115519999875],[7.490666389000012,6.835584641000025],[7.474077701999988,6.837330817999998],[7.4609818459999815,6.845625401000007],[7.456179619000011,6.856538773000011],[7.453124046000028,6.862213612000005],[7.453174113999978,6.865784645000019]]]},"properties":{"fid":234,"cty_nm":"Nigeria","iso3cd":"NGA","adm1nm":"Enugu","adm2nm":"Nsukka","adm1cd":"NGA014","adm2cd":"NGA014013"}},{"type":"Feature","id":235,"geometry":{"type":"Polygon","coordinates":[[[7.245460987000001,6.275623322000001],[7.242055892999986,6.277684211999997],[7.225903988000027,6.276811123000016],[7.19447279000002,6.280740261000005],[7.184432506999997,6.283795833999989],[7.166533947000005,6.298638343999983],[7.160283089000018,6.303468704000011],[7.150432587000012,6.296901703000003],[7.142588615000022,6.289057254999989],[7.145203114000026,6.274676322999994],[7.149125099000003,6.262474537000003],[7.146946430000014,6.25245142],[7.146946430000014,6.2446069719999855],[7.14772033700001,6.242456435999998],[7.150997639000025,6.232611656000017],[7.156998158000022,6.230040072999998],[7.172753333999992,6.233979224999985],[7.189296246000026,6.239493369999991],[7.199536799999976,6.234766960000002],[7.203475952000019,6.218224049000014],[7.20426368699998,6.208770752000021],[7.208990097000026,6.202468871999997],[7.218442917000004,6.196166991999974],[7.2239575390000255,6.1914401050000265],[7.224745273999986,6.1788363460000255],[7.221594333999974,6.157567024000002],[7.2239575390000255,6.142599582999992],[7.229471683999975,6.127632140999992],[7.239712714999996,6.114240170000016],[7.248377800000014,6.10872602500001],[7.249721050000005,6.106487750999975],[7.254803181,6.104719638999995],[7.259596825000017,6.087724208999987],[7.263083457999983,6.0707283020000204],[7.268748759999994,6.0607051850000175],[7.273106574999986,6.05721902800002],[7.289230347,6.048939227999995],[7.301868438999975,6.045017241999972],[7.310148239,6.045017241999972],[7.328451157000018,6.042402267],[7.339062690999981,6.042149543999983],[7.361588000999973,6.040482043999987],[7.376340389000006,6.040006161000008],[7.3847932819999755,6.037316798999996],[7.3900437359999955,6.046317101],[7.392226219000008,6.057230473000004],[7.391789913000025,6.070763587999977],[7.389606952999998,6.077748299000007],[7.388297557999977,6.084296226999982],[7.386114597000017,6.095209598999986],[7.386987685999998,6.106996535999997],[7.391789913000025,6.1214022639999826],[7.393536090999987,6.129696846000002],[7.393972397000027,6.137554168999998],[7.390916823999987,6.147594928999979],[7.386551380000014,6.158945083999981],[7.380002975000025,6.172041416000013],[7.374764442000014,6.181208610999988],[7.3725819590000015,6.191248894000012],[7.371041298000023,6.20407295199999],[7.367343425999991,6.207401275999985],[7.349881648999997,6.209147453000014],[7.338968276999992,6.205218315000025],[7.328927517000011,6.197797298000012],[7.322379588999979,6.196051120999982],[7.317577839000023,6.199106692999976],[7.316704749999985,6.206091404000006],[7.313212394999994,6.221807002999981],[7.308410168000023,6.230101108999975],[7.298806189999993,6.236649512999975],[7.28920221300001,6.244943619000026],[7.2782888410000055,6.257603168000003],[7.258644580999999,6.2676439289999735],[7.245460987000001,6.275623322000001]]]},"properties":{"fid":235,"cty_nm":"Nigeria","iso3cd":"NGA","adm1nm":"Enugu","adm2nm":"Oji-River","adm1cd":"NGA014","adm2cd":"NGA014014"}},{"type":"Feature","id":236,"geometry":{"type":"Polygon","coordinates":[[[7.692279815999996,6.851824283999974],[7.674552917000028,6.85551738700002],[7.658010005999984,6.868121147000011],[7.64619398100001,6.885451794000005],[7.635952949999989,6.903570175000027],[7.620197772999973,6.919325351999987],[7.599716187000013,6.924839496999994],[7.577659129999972,6.93271732300002],[7.5713572500000055,6.939806938000004],[7.564267158999996,6.952411175000009],[7.558879375000004,6.971568107999985],[7.544797897000024,6.955633639999974],[7.524280071000021,6.9399180409999985],[7.515549183000019,6.930314540999973],[7.505945682999993,6.9207105639999895],[7.49372243900001,6.913289070000019],[7.490959167000028,6.909144401999981],[7.485864638999999,6.9015026089999765],[7.476696967999999,6.890152453999974],[7.468402862999994,6.883604526999989],[7.463601111999992,6.877056121999999],[7.453174113999978,6.865784645000019],[7.453124046000028,6.862213612000005],[7.456179619000011,6.856538773000011],[7.4609818459999815,6.845625401000007],[7.474077701999988,6.837330817999998],[7.490666389000012,6.835584641000025],[7.508128166000006,6.8347115519999875],[7.5199146269999915,6.833402157000023],[7.545670986000005,6.823361396999985],[7.553528309000001,6.821178912999983],[7.563132285999984,6.819432735000021],[7.585832595999989,6.8107018470000185],[7.588322162999987,6.809612750999975],[7.589761257000021,6.812011718999997],[7.601548195000021,6.815504073999989],[7.625121593000017,6.815940379999972],[7.639090538000005,6.815504073999989],[7.65480613699998,6.815504073999989],[7.669211863999976,6.821178912999983],[7.686673641000027,6.840386867999996],[7.691039085,6.849117755999998],[7.692279815999996,6.851824283999974]]]},"properties":{"fid":236,"cty_nm":"Nigeria","iso3cd":"NGA","adm1nm":"Enugu","adm2nm":"Udenu","adm1cd":"NGA014","adm2cd":"NGA014015"}},{"type":"Feature","id":237,"geometry":{"type":"Polygon","coordinates":[[[7.285315990000015,6.6693615909999835],[7.272831917000019,6.669698714999981],[7.24402046199998,6.67799329799999],[7.221320151999976,6.677120209000009],[7.211279869000009,6.67537403099999],[7.196000576000017,6.662714004999998],[7.1907620430000065,6.650927544000012],[7.185523509999996,6.637394905000008],[7.175483226999972,6.628227234000008],[7.163259982999989,6.615567683999984],[7.155402184000025,6.603344440000001],[7.153656006000006,6.577588558000002],[7.150443553999992,6.560241222000002],[7.155838965999976,6.553142071000025],[7.159331322000014,6.53699016600001],[7.165006161000008,6.530442237999978],[7.179848671000002,6.528696060000016],[7.193381310000007,6.5177822109999966],[7.212589263999973,6.509488105999992],[7.218700886000022,6.510361194999973],[7.23921823500001,6.508178234000013],[7.248822211999993,6.504249572999981],[7.260172366999996,6.497264862000009],[7.266283988999987,6.492899417999979],[7.27763414399999,6.488970757000004],[7.288111210000011,6.484168529999977],[7.304699421000009,6.473255156999983],[7.3164863590000095,6.465833664000002],[7.331765174999987,6.452301024999997],[7.345297813000002,6.438331603999984],[7.367125034000026,6.42348909399999],[7.380658149999988,6.411702633000004],[7.386332988999982,6.398169994],[7.389388560999976,6.383327484000006],[7.38720607800002,6.366738795999993],[7.378911972000026,6.352333068999997],[7.366251944999988,6.342729092000013],[7.357521056999985,6.337490559000003],[7.336130619000016,6.333561896999981],[7.3204150199999845,6.324831008999979],[7.301643848000026,6.314790248999998],[7.286801337999975,6.304313182999977],[7.268030167000006,6.290780543999972],[7.254933833999985,6.281176566999989],[7.245460987000001,6.275623322000001],[7.258644580999999,6.2676439289999735],[7.2782888410000055,6.257603168000003],[7.28920221300001,6.244943619000026],[7.298806189999993,6.236649512999975],[7.308410168000023,6.230101108999975],[7.313212394999994,6.221807002999981],[7.316704749999985,6.206091404000006],[7.317577839000023,6.199106692999976],[7.322379588999979,6.196051120999982],[7.328927517000011,6.197797298000012],[7.338968276999992,6.205218315000025],[7.349881648999997,6.209147453000014],[7.367343425999991,6.207401275999985],[7.371041298000023,6.20407295199999],[7.376292706000015,6.208274363999976],[7.381094456000028,6.21700477600001],[7.385896205999984,6.227481841999975],[7.387642384000003,6.237958907999996],[7.391134738999995,6.246689795999998],[7.396373272000005,6.254547596000009],[7.4064140319999865,6.263278484000011],[7.410779476000016,6.270699501000024],[7.418637276000027,6.2820496560000265],[7.422129631000018,6.295582293999985],[7.426494597999977,6.309988498999985],[7.431296825000004,6.320465565000006],[7.439590930999998,6.3348712920000025],[7.4439563750000275,6.3387999529999774],[7.440027713999996,6.343602180000005],[7.435225487000025,6.35276937499998],[7.431733130999987,6.362810135000018],[7.432606220000025,6.380271434999997],[7.435225487000025,6.3977332119999915],[7.436971663999998,6.406464099999994],[7.44086551700002,6.410357475000012],[7.444829464000009,6.414321899000015],[7.4523978230000125,6.423397064000028],[7.449194907999981,6.433966160000011],[7.447448730000019,6.450554848000024],[7.453124046000028,6.466706752999983],[7.45748949099999,6.477620602000002],[7.460135460000004,6.480928420999987],[7.4609818459999815,6.502503395000019],[7.461854935000019,6.538299560999974],[7.463164329999984,6.564492226000027],[7.4627280240000005,6.581517220000023],[7.460545062999984,6.60465431199998],[7.460545062999984,6.6120753289999925],[7.459235668000019,6.616877079000005],[7.448321819,6.6138215070000115],[7.428677558999993,6.611202240000011],[7.410342693000018,6.611202240000011],[7.393317699000022,6.615131378000001],[7.3850235940000175,6.623425483999995],[7.376292706000015,6.630846500000018],[7.364942551000013,6.636085032999972],[7.349663258000021,6.641323565999983],[7.339186668000025,6.6426334380000185],[7.324344157999974,6.653546810000023],[7.312994002999972,6.660094737999998],[7.299461365000013,6.665770054000006],[7.285315990000015,6.6693615909999835]]]},"properties":{"fid":237,"cty_nm":"Nigeria","iso3cd":"NGA","adm1nm":"Enugu","adm2nm":"Udi","adm1cd":"NGA014","adm2cd":"NGA014016"}},{"type":"Feature","id":238,"geometry":{"type":"Polygon","coordinates":[[[7.332398891000025,6.7248258590000205],[7.3287096020000035,6.7334341999999765],[7.319978714000001,6.745656967000002],[7.311684131999982,6.754387855999994],[7.298151492999978,6.766174793000005],[7.295095920999984,6.7783975599999735],[7.2972784039999965,6.7949862479999865],[7.299461365000013,6.807646275000025],[7.2998976709999965,6.8255443570000125],[7.298151492999978,6.833838463000006],[7.290293694000013,6.849990844999979],[7.281562805000021,6.858721732999982],[7.257553100999985,6.873563766000018],[7.24183750200001,6.883167743999991],[7.216954708000003,6.893208503999972],[7.2098879810000085,6.90281915700001],[7.187720775999992,6.901206969999976],[7.175904274000004,6.896480559999986],[7.170390128999998,6.883876324000028],[7.1562104230000045,6.88308858900001],[7.152271747999976,6.8759989740000265],[7.146757603000026,6.864182471999982],[7.134153366000021,6.854729652000003],[7.119973660000028,6.848427296000011],[7.112884044999987,6.837399005999998],[7.101067542999999,6.828733444000022],[7.093190192999998,6.819280623999987],[7.081373692,6.800374508000004],[7.074284077000016,6.798799038000027],[7.060104369999976,6.794860362999998],[7.055377959999987,6.786194801000022],[7.041985989000011,6.78304386100001],[7.030169963999981,6.785407066000005],[7.020716666999988,6.789345740999977],[7.004961491000017,6.785407066000005],[6.990782260999993,6.785407066000005],[6.986055373999989,6.788558006000017],[6.985267639000028,6.798799038000027],[6.986843109000006,6.806676388000028],[6.987630844000023,6.812978745000009],[6.989994525999975,6.823219299000016],[6.989994525999975,6.833460331000026],[6.986843109000006,6.844488620999982],[6.9781780239999875,6.850002765999989],[6.963210582999977,6.844488620999982],[6.96081733699998,6.840898991000017],[6.952182293000021,6.827945709000005],[6.952182293000021,6.8082518580000055],[6.949030875999995,6.788558006000017],[6.939578056000016,6.773591042000021],[6.932072639000012,6.767693520000023],[6.933411121000006,6.735302448000027],[6.9329752919999805,6.72266483300001],[6.932539463000012,6.710898398999973],[6.931667805000018,6.698696612999981],[6.943870068000024,6.706104755000013],[6.956507682999984,6.710027217999993],[6.968709468999975,6.711334228999988],[6.9826550480000265,6.713077544999976],[6.990934848999984,6.713077544999976],[7.007494450000024,6.708719729999984],[7.016646385000001,6.706104755000013],[7.031898499000022,6.696517466999978],[7.046279430000027,6.687366009000016],[7.050637721999976,6.682572364999999],[7.0606603620000215,6.684315680999987],[7.070247649999999,6.685623168999996],[7.090293884000005,6.677342892000013],[7.101624489000017,6.675600051999993],[7.116877079000005,6.666448592999984],[7.129078864999997,6.659475803000021],[7.1325654980000195,6.65206766099999],[7.131693840000025,6.643351554999981],[7.128643036000028,6.635507583999981],[7.124721050000005,6.625920296000004],[7.117748736999999,6.615461348999986],[7.115569591999986,6.603259562999995],[7.109468460000016,6.593236445999992],[7.092037200999982,6.57580471],[7.088551043999985,6.568832396999994],[7.084193229999983,6.562295436999989],[7.078092098000013,6.557501792999972],[7.063275336999993,6.5548872950000145],[7.055431365999993,6.54530000699998],[7.048458575999973,6.52743244200002],[7.046279430000027,6.512179851999974],[7.046279430000027,6.500849723999977],[7.048458575999973,6.485161303999973],[7.049659252000026,6.474356650999994],[7.056307316000016,6.473691463000023],[7.069839953999974,6.474564552000004],[7.082063198000014,6.476747513000021],[7.098651886000027,6.483295440999996],[7.106945992000021,6.489843844999996],[7.1169867520000025,6.503376484],[7.134011745000009,6.534807682000007],[7.149290561999976,6.554015160000006],[7.150443553999992,6.560241222000002],[7.153656006000006,6.577588558000002],[7.155402184000025,6.603344440000001],[7.163259982999989,6.615567683999984],[7.175483226999972,6.628227234000008],[7.185523509999996,6.637394905000008],[7.1907620430000065,6.650927544000012],[7.196000576000017,6.662714004999998],[7.211279869000009,6.67537403099999],[7.221320151999976,6.677120209000009],[7.24402046199998,6.67799329799999],[7.272831917000019,6.669698714999981],[7.285315990000015,6.6693615909999835],[7.284618855000019,6.676683426000011],[7.282872677,6.684978007999973],[7.281562805000021,6.691962719000003],[7.281126498999981,6.701129912999988],[7.2907304760000216,6.708114624000018],[7.2990245820000155,6.713789463000012],[7.317359447000001,6.723393439999995],[7.332398891000025,6.7248258590000205]]]},"properties":{"fid":238,"cty_nm":"Nigeria","iso3cd":"NGA","adm1nm":"Enugu","adm2nm":"Uzo-Uwani","adm1cd":"NGA014","adm2cd":"NGA014017"}}]}