{"type":"FeatureCollection","features":[{"type":"Feature","id":213,"geometry":{"type":"Polygon","coordinates":[[[5.1647067069999935,7.938229561000014],[5.160037518000024,7.940685271999996],[5.152510643000028,7.945201397000005],[5.138586520999979,7.950469971000018],[5.129554272000007,7.952351570000019],[5.120898724000028,7.948588371000028],[5.111114025000006,7.94331932099999],[5.103587150999999,7.934287547999986],[5.098694801000022,7.929395198999998],[5.094156264999981,7.922412394999981],[5.100576401000012,7.914718150999988],[5.108479499999987,7.906815052000013],[5.119017123999981,7.892890453000007],[5.127672672000017,7.879718781000008],[5.1382102970000005,7.860525607999989],[5.1397156720000226,7.847730160000026],[5.1397156720000226,7.838321685999972],[5.138962746000004,7.825150012999984],[5.138962746000004,7.813483715000018],[5.139338969999983,7.803699016999985],[5.1397156720000226,7.7867641450000065],[5.140468121000026,7.7803664209999965],[5.139338969999983,7.7720870969999964],[5.141597271000023,7.770957946999999],[5.146113395999976,7.773968696999987],[5.155521393000015,7.775474072000009],[5.176596164999978,7.778108120000013],[5.198423862000027,7.778484343999992],[5.221004009000012,7.7803664209999965],[5.236433506000026,7.779989719000014],[5.250358104999975,7.782624245000022],[5.259766578999972,7.783753395000019],[5.263906001999999,7.788269519999972],[5.265653133000001,7.789870262000022],[5.264282702999992,7.794666767000024],[5.262400626999977,7.801817416999995],[5.257508277999989,7.818376064000006],[5.254497528000002,7.834934711000017],[5.254497528000002,7.842837810999981],[5.25525045400002,7.854880809999997],[5.257884978999982,7.866170882999995],[5.256755828999985,7.881224154999984],[5.258261204000007,7.89815902700002],[5.258539199999973,7.904277802000024],[5.249605179000014,7.904556750999973],[5.224767208000003,7.9064388279999775],[5.207079410999995,7.9094491000000176],[5.197670936999998,7.912459850000005],[5.189391612999998,7.917728900999975],[5.179230689999997,7.921492100000023],[5.173209190000023,7.926760673999979],[5.168316840999978,7.932029247000003],[5.1647067069999935,7.938229561000014]]]},"properties":{"fid":213,"cty_nm":"Nigeria","iso3cd":"NGA","adm1nm":"Ekiti","adm2nm":"Ido-Osi","adm1cd":"NGA013","adm2cd":"NGA013008"}},{"type":"Feature","id":214,"geometry":{"type":"Polygon","coordinates":[[[5.094156264999981,7.922412394999981],[5.085899353000002,7.932029247000003],[5.079125404000024,7.939179896999974],[5.068588256999988,7.953104019000023],[5.058426856999972,7.96251249300002],[5.0463843350000275,7.973426341999982],[5.036599636000005,7.979447842000013],[5.033235073000014,7.9822835919999875],[5.03132915499998,7.976946354000006],[5.020274162000021,7.960935592999988],[5.016461848999995,7.955217360999995],[5.008075237000014,7.951024055000005],[5.001213550999978,7.946068287000003],[4.996639252000023,7.939206599999977],[4.9905395509999835,7.9312014579999754],[4.978341102999991,7.923195839000016],[4.967285633000017,7.915952682000011],[4.949749946999987,7.903372764999972],[4.942035197999985,7.8999257090000015],[4.941370010000014,7.897609234000015],[4.94966602300002,7.890256405000002],[4.953526496999984,7.88661050799999],[4.956439971999998,7.883858680999992],[4.965848445999995,7.876331805999996],[4.973751545000027,7.8642892839999945],[4.974127769000006,7.857514858000002],[4.974880695000024,7.845096110999975],[4.979020118999983,7.822892189000015],[4.981953621000002,7.816853046000006],[4.985417842999993,7.809720516000027],[4.996707915999991,7.792032719000019],[5.018158912999979,7.768323420999991],[5.030578135999974,7.755527973000028],[5.039610385999993,7.745743274999995],[5.052029133000019,7.734829902999991],[5.060308455999973,7.730690002000017],[5.079125404000024,7.719023704999984],[5.0934262279999984,7.711120605000019],[5.103587150999999,7.705475330000013],[5.111114025000006,7.69569063199998],[5.113748550000025,7.693432808000011],[5.116758822999998,7.7017121320000115],[5.119769572999985,7.713002205000009],[5.125414847999991,7.727679253000019],[5.1299309730000004,7.741227149999986],[5.132188797000026,7.748001574999989],[5.135951996000017,7.75816249799999],[5.139338969999983,7.7720870969999964],[5.140468121000026,7.7803664209999965],[5.1397156720000226,7.7867641450000065],[5.139338969999983,7.803699016999985],[5.138962746000004,7.813483715000018],[5.138962746000004,7.825150012999984],[5.1397156720000226,7.838321685999972],[5.1397156720000226,7.847730160000026],[5.1382102970000005,7.860525607999989],[5.127672672000017,7.879718781000008],[5.119017123999981,7.892890453000007],[5.108479499999987,7.906815052000013],[5.100576401000012,7.914718150999988],[5.094156264999981,7.922412394999981]]]},"properties":{"fid":214,"cty_nm":"Nigeria","iso3cd":"NGA","adm1nm":"Ekiti","adm2nm":"Ijero","adm1cd":"NGA013","adm2cd":"NGA013009"}},{"type":"Feature","id":210,"geometry":{"type":"Polygon","coordinates":[[[5.113748550000025,7.693432808000011],[5.111114025000006,7.69569063199998],[5.103587150999999,7.705475330000013],[5.0934262279999984,7.711120605000019],[5.079125404000024,7.719023704999984],[5.060308455999973,7.730690002000017],[5.052029133000019,7.734829902999991],[5.039610385999993,7.745743274999995],[5.030578135999974,7.755527973000028],[5.018158912999979,7.768323420999991],[4.996707915999991,7.792032719000019],[4.985417842999993,7.809720516000027],[4.981953621000002,7.816853046000006],[4.979020118999983,7.822892189000015],[4.974880695000024,7.845096110999975],[4.974127769000006,7.857514858000002],[4.973751545000027,7.8642892839999945],[4.965848445999995,7.876331805999996],[4.956439971999998,7.883858680999992],[4.953526496999984,7.88661050799999],[4.94966602300002,7.890256405000002],[4.941370010000014,7.897609234000015],[4.937149047999981,7.889167785999973],[4.932576180000012,7.885650157999976],[4.927299975999972,7.880373954999982],[4.924486160000015,7.874394417000019],[4.924838066000007,7.868062973000008],[4.923782824999989,7.863490581999997],[4.916396141000007,7.857159137999986],[4.914134978999982,7.850375652000025],[4.911100863999991,7.850109577000012],[4.910020827999972,7.841811656999994],[4.908579350000025,7.829799175000005],[4.91579580299998,7.822114467999995],[4.91579580299998,7.810849189999999],[4.91579580299998,7.79579591800001],[4.915257454000027,7.7912197109999966],[4.92219352699999,7.793161869000016],[4.9316020009999875,7.795419692999985],[4.940257549000023,7.797677517000011],[4.948160647999998,7.799559593000026],[4.956816672999992,7.798054218000004],[4.968106746999979,7.795043468000017],[4.975633144000028,7.791279793000001],[4.992568493000022,7.769452571999977],[4.998213291000013,7.757786274000011],[4.998213291000013,7.747624873999996],[4.9959554669999875,7.732947825999986],[4.993320942000025,7.72316312800001],[4.990686417000006,7.7145075799999745],[4.988804817000016,7.705475330000013],[4.98466539399999,7.6885404590000235],[4.983536243000003,7.66520738600002],[4.9812784189999775,7.653541087999997],[4.978643894000015,7.642627715999993],[4.97638606999999,7.634347916000024],[4.9726223949999735,7.626068592000024],[4.969235420000018,7.621929168999998],[4.965848445999995,7.618165492999992],[4.95794534700002,7.61515522000002],[4.950042247999988,7.609509945000013],[4.931225777000009,7.600101471000016],[4.924828052999999,7.594456673000025],[4.9188065530000245,7.585424423000006],[4.9135379790000115,7.572252750000018],[4.910151004999989,7.5677366259999985],[4.906387328999983,7.562844276000021],[4.9124088290000145,7.562844276000021],[4.9252042769999775,7.560210228000017],[4.940257549000023,7.5556941030000075],[4.964719295999998,7.547038078000014],[4.980901717999984,7.543651103999991],[4.997837066999978,7.540640831000019],[5.018535613999973,7.5413932800000225],[5.034718037000005,7.547414779999997],[5.045631409000009,7.561338901999989],[5.054663657999981,7.57300567599998],[5.061437607000016,7.582413673000019],[5.065577507,7.592951298000003],[5.0749859809999975,7.6106390950000105],[5.084017754000001,7.621929168999998],[5.091168403999973,7.630960941000012],[5.098318576999986,7.6369824409999865],[5.09982824299999,7.639666556999998],[5.101705551000009,7.643003941000018],[5.10546875,7.658433436999985],[5.1077270509999835,7.671981812000013],[5.1092324260000055,7.682518958999992],[5.113748550000025,7.693432808000011]]]},"properties":{"fid":210,"cty_nm":"Nigeria","iso3cd":"NGA","adm1nm":"Ekiti","adm2nm":"Ekiti West","adm1cd":"NGA013","adm2cd":"NGA013006"}},{"type":"Feature","id":211,"geometry":{"type":"Polygon","coordinates":[[[5.612900256999978,7.518630981000001],[5.601103782999985,7.525269031999983],[5.589620589999981,7.534664153999984],[5.581617354999992,7.546147345999998],[5.5718746190000275,7.556238173999986],[5.560391426000024,7.555542468999988],[5.552736282000012,7.554846286999975],[5.548212528000022,7.5471911430000205],[5.545776843999988,7.540927887000009],[5.541601180999976,7.532228470000007],[5.539591312000027,7.530568599999981],[5.5369453430000135,7.524835586999984],[5.531858444000022,7.514482020999992],[5.528726577999976,7.511350632000017],[5.52315902700002,7.507523059999983],[5.518983364000007,7.503347397000027],[5.514460086999975,7.499171734000015],[5.505760669999972,7.494996071000003],[5.499497414000018,7.4904723170000125],[5.488710403000027,7.4856009480000125],[5.475487708999992,7.479685307000011],[5.469920157999979,7.47794580499999],[5.46330881099999,7.474117755999998],[5.452173710000011,7.467506409000009],[5.446606158999998,7.462983130999987],[5.442430495999986,7.4546318050000195],[5.441341399999999,7.448458672000015],[5.439299107000011,7.436885356999994],[5.440690994000022,7.426098346999993],[5.443822383999986,7.413223743000003],[5.45078182200001,7.400349140000003],[5.454957485000023,7.38677835499999],[5.458089352000002,7.369031905999975],[5.4570450780000215,7.356504916999995],[5.4504337309999755,7.345717906999994],[5.449389934999999,7.331103325000015],[5.45078182200001,7.315444946000014],[5.452521800999989,7.306049824000013],[5.454043865000017,7.300614356999972],[5.45833540000001,7.301708221000013],[5.465752602000009,7.301749228999995],[5.473170279999977,7.301790236999977],[5.481499671999984,7.3046064380000075],[5.4898185729999796,7.309269427999993],[5.496288300000003,7.3129987720000145],[5.504433631999973,7.316193103999979],[5.508306026000014,7.319529057000011],[5.521214484999973,7.332527636999998],[5.525809288000005,7.339939593999986],[5.53040409099998,7.347352027999989],[5.533149718999994,7.353830813999991],[5.536838054999976,7.357544899000004],[5.542344570000012,7.3677320479999935],[5.546017170000027,7.3742160799999965],[5.552476882999997,7.379792212999973],[5.557071685999972,7.387204170000018],[5.561655997999992,7.396463394000023],[5.567173003999983,7.404804230000025],[5.571773052000026,7.411293030000024],[5.575445651999985,7.417777060999981],[5.580973147999998,7.424271583999996],[5.582811832000004,7.427051543999994],[5.588349342000015,7.431698799000003],[5.592938899999979,7.440034866000019],[5.5993728639999745,7.450227261000009],[5.601191044000018,7.456700802],[5.603910923000001,7.467796325999984],[5.607496738000009,7.480200291000017],[5.610309124000025,7.484452248000025],[5.611185073999991,7.493690490999995],[5.612071037000021,7.501082419999989],[5.612029552000024,7.508469105000017],[5.612900256999978,7.518630981000001]]]},"properties":{"fid":211,"cty_nm":"Nigeria","iso3cd":"NGA","adm1nm":"Ekiti","adm2nm":"Emure","adm1cd":"NGA013","adm2cd":"NGA013007"}},{"type":"Feature","id":212,"geometry":{"type":"Polygon","coordinates":[[[5.554645392999987,7.691915713000014],[5.554128647000027,7.692150593000008],[5.549952507,7.688465595000025],[5.542645454000024,7.682550429999992],[5.516199588999996,7.666195868999978],[5.499149322999983,7.659236431000011],[5.478619099000014,7.655756950000011],[5.458089352000002,7.657148838000012],[5.447302341000011,7.662020206000022],[5.439647197999989,7.668283463000023],[5.432687758999975,7.68324613599998],[5.426772117999974,7.700992584000005],[5.4232926369999745,7.710735797999973],[5.416892528999995,7.716513634000023],[5.413375378000012,7.710735797999973],[5.408155917999977,7.700992584000005],[5.403800010999987,7.694173336000006],[5.400139331999981,7.689292908000027],[5.395999908000022,7.6806373599999915],[5.390731334999998,7.676874161000001],[5.3854622840000275,7.669347286000004],[5.378312111000014,7.6659603119999815],[5.37666511499998,7.663760185000001],[5.371793270000012,7.654365063],[5.366573811000023,7.645317553999973],[5.362398148000011,7.634531020999987],[5.361006260000011,7.624787807000018],[5.364833831999988,7.619220256999995],[5.3735332489999905,7.615044593999983],[5.384320258999992,7.6119127270000035],[5.393367290000015,7.608085155000026],[5.397891044999994,7.603213787000016],[5.3992829320000055,7.5966024400000265],[5.397542953000027,7.5899910929999805],[5.386755943000026,7.576768398000013],[5.37214136099999,7.561109542999986],[5.363790035000022,7.55032300900001],[5.362746238999989,7.542319297999995],[5.361834048999981,7.537303447999989],[5.381884575000015,7.535707951000006],[5.404850483000018,7.53779602100002],[5.43790721900001,7.541971683999975],[5.46678829199999,7.544407368000009],[5.492886065999983,7.548234939999986],[5.521419047999984,7.55032300900001],[5.5447330470000225,7.553454398999975],[5.552736282000012,7.554846286999975],[5.560391426000024,7.555542468999988],[5.5718746190000275,7.556238173999986],[5.581617354999992,7.546147345999998],[5.589620589999981,7.534664153999984],[5.601103782999985,7.525269031999983],[5.612900256999978,7.518630981000001],[5.613771439000004,7.528792857999974],[5.612797736999994,7.537097931000005],[5.61369943599999,7.541719436999983],[5.616414070000019,7.553738117000023],[5.618211745999986,7.563905239000007],[5.620030402999987,7.570378779999999],[5.621859073999985,7.575005530999988],[5.624599456999988,7.582407950999993],[5.629199504999974,7.588896750999993],[5.631032944000026,7.592600345999983],[5.63470602000001,7.599083899999982],[5.63838386499998,7.604644774999997],[5.642061710000007,7.610205172999997],[5.642978668000012,7.612056731999985],[5.638510226999983,7.616088390000016],[5.629115104999983,7.6240916250000055],[5.616936206999981,7.635226726999974],[5.60266971599998,7.654365063],[5.588402748000021,7.671763419999991],[5.570656776000021,7.684986115000015],[5.5639867780000145,7.687815666000006],[5.559173584000007,7.689857483000026],[5.554645392999987,7.691915713000014]]]},"properties":{"fid":212,"cty_nm":"Nigeria","iso3cd":"NGA","adm1nm":"Ekiti","adm2nm":"Aiyekire\r\n","adm1cd":"NGA013","adm2cd":"NGA013002"}},{"type":"Feature","id":206,"geometry":{"type":"Polygon","coordinates":[[[5.378312111000014,7.6659603119999815],[5.373043537000001,7.667841910999982],[5.365892886999973,7.671605109999973],[5.354602813999975,7.672358035999991],[5.330893993000018,7.672358035999991],[5.31320619600001,7.672734261000016],[5.282346725000025,7.674239634999992],[5.266164302999982,7.672734261000016],[5.240197181999974,7.671228885999994],[5.223261832999981,7.6674656870000035],[5.207455634999974,7.661067962999994],[5.1931552890000034,7.652412415000015],[5.187133788999972,7.644509314999993],[5.181112288999998,7.636229991999983],[5.171703815000001,7.632842541000002],[5.162295818000018,7.6320900919999985],[5.152134418000003,7.631337642999995],[5.145360470000014,7.629832267999973],[5.138962746000004,7.624939918999985],[5.134070396000027,7.62343454400002],[5.1224040989999935,7.6241869930000234],[5.106438636999997,7.622524737999981],[5.107686520000016,7.616784573000018],[5.113949776000027,7.608433246999994],[5.121604918999992,7.604257583999981],[5.138307570999984,7.605997562000027],[5.150834083999996,7.607041358999993],[5.161273478999988,7.606693268000015],[5.169624328999987,7.606693268000015],[5.181107521000001,7.600430012000004],[5.187885284000004,7.596259116999988],[5.190154552000024,7.594862460999991],[5.207901000999982,7.57920408199999],[5.218339920000005,7.5708527570000115],[5.242349624999974,7.554498195999997],[5.254180431000009,7.549974917999975],[5.264271736000012,7.5471911430000205],[5.270534992000023,7.545103073000007],[5.286193371000024,7.544755458999987],[5.308115482000005,7.543363570999986],[5.313019275999977,7.543030739000017],[5.328645229000017,7.541971683999975],[5.34673976900001,7.5405797959999745],[5.3598198889999935,7.537245273999986],[5.361834048999981,7.537303447999989],[5.362746238999989,7.542319297999995],[5.363790035000022,7.55032300900001],[5.37214136099999,7.561109542999986],[5.386755943000026,7.576768398000013],[5.397542953000027,7.5899910929999805],[5.3992829320000055,7.5966024400000265],[5.397891044999994,7.603213787000016],[5.393367290000015,7.608085155000026],[5.384320258999992,7.6119127270000035],[5.3735332489999905,7.615044593999983],[5.364833831999988,7.619220256999995],[5.361006260000011,7.624787807000018],[5.362398148000011,7.634531020999987],[5.366573811000023,7.645317553999973],[5.371793270000012,7.654365063],[5.37666511499998,7.663760185000001],[5.378312111000014,7.6659603119999815]]]},"properties":{"fid":206,"cty_nm":"Nigeria","iso3cd":"NGA","adm1nm":"Ekiti","adm2nm":"Ado Ekiti","adm1cd":"NGA013","adm2cd":"NGA013001"}},{"type":"Feature","id":207,"geometry":{"type":"Polygon","coordinates":[[[4.906387328999983,7.562844276000021],[4.910151004999989,7.5677366259999985],[4.9135379790000115,7.572252750000018],[4.9188065530000245,7.585424423000006],[4.924828052999999,7.594456673000025],[4.931225777000009,7.600101471000016],[4.950042247999988,7.609509945000013],[4.95794534700002,7.61515522000002],[4.965848445999995,7.618165492999992],[4.969235420000018,7.621929168999998],[4.9726223949999735,7.626068592000024],[4.97638606999999,7.634347916000024],[4.978643894000015,7.642627715999993],[4.9812784189999775,7.653541087999997],[4.983536243000003,7.66520738600002],[4.98466539399999,7.6885404590000235],[4.988804817000016,7.705475330000013],[4.990686417000006,7.7145075799999745],[4.993320942000025,7.72316312800001],[4.9959554669999875,7.732947825999986],[4.998213291000013,7.747624873999996],[4.998213291000013,7.757786274000011],[4.992568493000022,7.769452571999977],[4.975633144000028,7.791279793000001],[4.968106746999979,7.795043468000017],[4.956816672999992,7.798054218000004],[4.948160647999998,7.799559593000026],[4.940257549000023,7.797677517000011],[4.9316020009999875,7.795419692999985],[4.92219352699999,7.793161869000016],[4.915257454000027,7.7912197109999966],[4.914290428000015,7.783000469000001],[4.909398079000027,7.76644182199999],[4.90420579900001,7.757354736000025],[4.903000355000017,7.7498831749999795],[4.898226738000005,7.739858149999975],[4.895473956999979,7.734076976999972],[4.893228530999977,7.7303352359999735],[4.891615391000016,7.718485831999999],[4.891234397999995,7.7139110570000184],[4.890957832000026,7.709615230999987],[4.887947082999972,7.691927432999989],[4.883807181999998,7.678755760000001],[4.880796909000026,7.667841910999982],[4.873270035000019,7.651283264000028],[4.868377685999974,7.635477066000021],[4.8638615610000215,7.622681618000001],[4.868001461000006,7.6162838939999915],[4.8830547329999945,7.611391544000014],[4.887570858000004,7.6046175960000255],[4.892839432000017,7.592951298000003],[4.902247906000014,7.576392650999992],[4.906387328999983,7.562844276000021]]]},"properties":{"fid":207,"cty_nm":"Nigeria","iso3cd":"NGA","adm1nm":"Ekiti","adm2nm":"Efon-Alayee","adm1cd":"NGA013","adm2cd":"NGA013003"}},{"type":"Feature","id":208,"geometry":{"type":"Polygon","coordinates":[[[5.737289428999986,7.821079253999983],[5.728981495000028,7.828348636999976],[5.71019124999998,7.830088138999997],[5.688617228999988,7.8297405239999875],[5.6684350969999855,7.829044341999975],[5.658838748999983,7.827678203999994],[5.65853318500001,7.827769885999999],[5.656917340999996,7.824540257000024],[5.654221693000011,7.819688090999989],[5.652334740000015,7.816453314],[5.650178222000022,7.809175063999987],[5.64829126799998,7.807288110999991],[5.646134749999987,7.802435945000013],[5.642360843000006,7.796505519999982],[5.632656510999993,7.785183798999981],[5.629152169000008,7.77898380900001],[5.6245695669999805,7.77143599499999],[5.620795660999988,7.763349052000024],[5.61675218900001,7.755262109],[5.612978281999972,7.751218637000022],[5.608665245999987,7.74771429499998],[5.602734820000023,7.743401258000006],[5.598152218999985,7.74070561100001],[5.589256580999972,7.735314314999982],[5.581169638000006,7.730192584000008],[5.579821814000013,7.727766501000019],[5.576047906999975,7.721836075999988],[5.572813129999986,7.716714345000014],[5.567960964000008,7.70943609599999],[5.563108797999973,7.702157847000024],[5.558526196999992,7.6967665519999855],[5.555021854000017,7.692453515000011],[5.554645392999987,7.691915713000014],[5.559173584000007,7.689857483000026],[5.5639867780000145,7.687815666000006],[5.570656776000021,7.684986115000015],[5.588402748000021,7.671763419999991],[5.60266971599998,7.654365063],[5.616936206999981,7.635226726999974],[5.629115104999983,7.6240916250000055],[5.638510226999983,7.616088390000016],[5.642978668000012,7.612056731999985],[5.646656512999982,7.617617607],[5.653100967,7.625963688000013],[5.6550564770000165,7.628722668000023],[5.659388064999973,7.628963469999974],[5.669479369999976,7.626179695000019],[5.6757426259999875,7.623744010999985],[5.680962086000022,7.623744010999985],[5.688617228999988,7.632442950999973],[5.691401004999989,7.638010501999986],[5.691401004999989,7.6428818699999965],[5.692097187000002,7.651581286999999],[5.693140984000024,7.658888339999976],[5.6943244930000105,7.664528370000028],[5.694880962000013,7.671763419999991],[5.6994042399999785,7.682898045000002],[5.707059860000015,7.690553664999982],[5.7164549830000055,7.700992584000005],[5.728285788999983,7.710387706999995],[5.742552279999984,7.719782828999996],[5.7561230659999865,7.7284817699999735],[5.7676057819999755,7.737181186999976],[5.773028373999978,7.747318744999973],[5.791615486000012,7.782068729000002],[5.76795387300001,7.787636280000015],[5.7557749750000085,7.795639515000005],[5.746031760999983,7.805034637000006],[5.741160392999973,7.812342166999997],[5.737289428999986,7.821079253999983]]]},"properties":{"fid":208,"cty_nm":"Nigeria","iso3cd":"NGA","adm1nm":"Ekiti","adm2nm":"Ekiti East","adm1cd":"NGA013","adm2cd":"NGA013004"}},{"type":"Feature","id":209,"geometry":{"type":"Polygon","coordinates":[[[5.106438636999997,7.622524737999981],[5.103587150999999,7.6264452930000175],[5.101893425000014,7.6360130310000045],[5.09982824299999,7.639666556999998],[5.098318576999986,7.6369824409999865],[5.091168403999973,7.630960941000012],[5.084017754000001,7.621929168999998],[5.0749859809999975,7.6106390950000105],[5.065577507,7.592951298000003],[5.061437607000016,7.582413673000019],[5.054663657999981,7.57300567599998],[5.045631409000009,7.561338901999989],[5.034718037000005,7.547414779999997],[5.018535613999973,7.5413932800000225],[4.997837066999978,7.540640831000019],[4.980901717999984,7.543651103999991],[4.964719295999998,7.547038078000014],[4.940257549000023,7.5556941030000075],[4.9252042769999775,7.560210228000017],[4.9124088290000145,7.562844276000021],[4.906387328999983,7.562844276000021],[4.909968375999995,7.555020332000026],[4.917919159000007,7.52978658699999],[4.920206070000006,7.517206192000003],[4.925924301000009,7.505007744000011],[4.938885689000017,7.47870397600002],[4.94784402800002,7.45468807200001],[4.95241880399999,7.4478259090000165],[4.967667102999997,7.438676833999978],[4.975672244999998,7.4337210659999755],[4.9848213199999805,7.426478385999985],[4.987108707000004,7.41923522899998],[4.997020244999987,7.415041923999979],[5.006159305999972,7.413699627000028],[5.0079932209999924,7.417403220999972],[5.010754108000015,7.421112060999974],[5.013514996000026,7.424820899999986],[5.016275882999992,7.428529738999998],[5.018115044000012,7.431309699999986],[5.019958972999973,7.433166503999985],[5.022725105000006,7.435952186999998],[5.0328779220000115,7.444318770999985],[5.038420676999976,7.448042869999995],[5.043031215999974,7.452685356000018],[5.045802116000004,7.454547405000028],[5.048568249000027,7.457332611000027],[5.0531992909999985,7.458281994000004],[5.058757304999972,7.459235668000019],[5.065242290000015,7.4601950649999935],[5.070805549999989,7.460226058999979],[5.078227996999999,7.459343909999973],[5.084746360999986,7.456950665000022],[5.085564137000006,7.459332942999993],[5.098667144999979,7.475177765000012],[5.103847026999972,7.480053424999994],[5.112988471999984,7.488280296000028],[5.118473053000002,7.4910230639999895],[5.12365341200001,7.495593547999988],[5.126091002999999,7.499249935000023],[5.129747867999981,7.502906799000016],[5.136755943000026,7.509610176000024],[5.141022205000013,7.515095234],[5.152601242000003,7.529721259999974],[5.164180278999993,7.544652461999988],[5.167531967000002,7.551355838999996],[5.170274258000006,7.556536198000003],[5.175454617000014,7.565982341999984],[5.1800251010000125,7.574818611000012],[5.182695866000017,7.580605506999973],[5.184935092999979,7.58407545099999],[5.186675072000014,7.592426777000014],[5.187885284000004,7.596259116999988],[5.181107521000001,7.600430012000004],[5.169624328999987,7.606693268000015],[5.161273478999988,7.606693268000015],[5.150834083999996,7.607041358999993],[5.138307570999984,7.605997562000027],[5.121604918999992,7.604257583999981],[5.113949776000027,7.608433246999994],[5.107686520000016,7.616784573000018],[5.106438636999997,7.622524737999981]]]},"properties":{"fid":209,"cty_nm":"Nigeria","iso3cd":"NGA","adm1nm":"Ekiti","adm2nm":"Ekiti South West","adm1cd":"NGA013","adm2cd":"NGA013005"}},{"type":"Feature","id":215,"geometry":{"type":"Polygon","coordinates":[[[5.313019275999977,7.543030739000017],[5.308115482000005,7.543363570999986],[5.286193371000024,7.544755458999987],[5.270534992000023,7.545103073000007],[5.264271736000012,7.5471911430000205],[5.254180431000009,7.549974917999975],[5.242349624999974,7.554498195999997],[5.218339920000005,7.5708527570000115],[5.207901000999982,7.57920408199999],[5.190154552000024,7.594862460999991],[5.187885284000004,7.596259116999988],[5.186675072000014,7.592426777000014],[5.184935092999979,7.58407545099999],[5.182695866000017,7.580605506999973],[5.1800251010000125,7.574818611000012],[5.175454617000014,7.565982341999984],[5.170274258000006,7.556536198000003],[5.167531967000002,7.551355838999996],[5.164180278999993,7.544652461999988],[5.152601242000003,7.529721259999974],[5.141022205000013,7.515095234],[5.136755943000026,7.509610176000024],[5.129747867999981,7.502906799000016],[5.126091002999999,7.499249935000023],[5.12365341200001,7.495593547999988],[5.118473053000002,7.4910230639999895],[5.112988471999984,7.488280296000028],[5.103847026999972,7.480053424999994],[5.098667144999979,7.475177765000012],[5.085564137000006,7.459332942999993],[5.084746360999986,7.456950665000022],[5.089379786999984,7.454788684999983],[5.095885753999994,7.452054976999989],[5.102385997999988,7.450243950000015],[5.107954501999984,7.449351788000001],[5.114449977999982,7.448463917000026],[5.12001800500002,7.447571754000023],[5.126518725999972,7.445760726999993],[5.1320867539999995,7.444868088000021],[5.138582229999997,7.4439811710000185],[5.145077705000006,7.443093299999987],[5.15064096499998,7.443124293999972],[5.1599230769999735,7.441329001999975],[5.167345523999984,7.440446854000015],[5.1738309859999845,7.44140625],[5.181248187999984,7.441447257999982],[5.187743663999981,7.440559864000022],[5.192399979000015,7.436892032999992],[5.200745105999999,7.436938285999986],[5.20816755300001,7.43605613699998],[5.217449665000004,7.434260844999983],[5.220231055999989,7.434276103999991],[5.2248673440000175,7.434301853000022],[5.235998630999973,7.433440207999979],[5.245270252000012,7.433491706999973],[5.251750469000001,7.435374260000003],[5.259157657999992,7.4372620579999875],[5.26842403400002,7.438236712999981],[5.279565810999998,7.4355282779999925],[5.286978245,7.436492919999978],[5.294395446999999,7.436533928000017],[5.299021244000016,7.438406466999993],[5.3062539100000095,7.440543651999974],[5.302519320999977,7.453847885000016],[5.300995827000008,7.457504749000009],[5.303738117000023,7.463598728000022],[5.30800437900001,7.4693884850000245],[5.308309077999979,7.472435474000008],[5.3055667880000215,7.476091861999976],[5.299777031000019,7.4809675220000145],[5.297339438999984,7.484623908999993],[5.29642534300001,7.488585472000011],[5.296730041999979,7.491632461999984],[5.297339438999984,7.495593547999988],[5.29642534300001,7.500164509000001],[5.297339438999984,7.505953788999989],[5.299777031000019,7.512048244000027],[5.302214622000008,7.516009331000021],[5.302824020000003,7.51844692200001],[5.304042815999992,7.521189213000014],[5.30587148699999,7.526064872999996],[5.307767391000027,7.529096603000028],[5.310551167000028,7.533620358000007],[5.311943053999983,7.536752223999997],[5.313019275999977,7.543030739000017]]]},"properties":{"fid":215,"cty_nm":"Nigeria","iso3cd":"NGA","adm1nm":"Ekiti","adm2nm":"Ikere","adm1cd":"NGA013","adm2cd":"NGA013010"}},{"type":"Feature","id":216,"geometry":{"type":"Polygon","coordinates":[[[5.643636227000002,8.073967933999995],[5.639554024000006,8.073665618999996],[5.624591350999992,8.072621346000005],[5.599189758000023,8.073665618999996],[5.576571940999997,8.07122993500002],[5.572744370000009,8.068446159000018],[5.559173584000007,8.058006287000012],[5.555031776000021,8.054554939000013],[5.550822257999982,8.051047325000013],[5.545255183999984,8.044088364000004],[5.537599564000004,8.04060840599999],[5.531684399000028,8.035040854999977],[5.52576875699998,8.03086566899998],[5.516025543000012,8.022166251999977],[5.508718491000025,8.017642975000001],[5.5059347150000235,8.018686295000009],[5.503847122000025,8.02355766300002],[5.504542828000012,8.02947330500001],[5.50558090200002,8.032327651999992],[5.507326603000024,8.037128447999976],[5.507326603000024,8.045479774],[5.510458469000014,8.066705704000015],[5.512546062000013,8.076796532000003],[5.513589858999978,8.083756446999985],[5.51289415399998,8.089672088999976],[5.513937950000013,8.096631049999985],[5.514633656000001,8.10498237600001],[5.513937950000013,8.111246108999978],[5.506978511999989,8.111246108999978],[5.497963905000006,8.110664368000016],[5.475030421999975,8.108154296999999],[5.449063301000024,8.105895996000015],[5.421214581000015,8.105520248000005],[5.3982577319999905,8.103638649000004],[5.387344359999986,8.102132797000024],[5.371161938,8.096487998999976],[5.364011287999972,8.090466499000001],[5.360624313000017,8.08294010200001],[5.358742714000016,8.07390785199999],[5.358742714000016,8.063370705000011],[5.360248088999981,8.053586005999989],[5.361377238999978,8.043424605999974],[5.360624313000017,8.038532256999986],[5.359210013999984,8.036108017000004],[5.3744029999999725,8.027385712000012],[5.388669967999988,8.019034385999987],[5.403632163999987,8.007551192999983],[5.419638634000023,7.997808455999973],[5.4377331730000265,7.989805221999973],[5.444692611999983,7.9866733549999935],[5.450955867999994,7.979714393999984],[5.450955867999994,7.973798751999993],[5.447476386999995,7.9682312009999805],[5.444692611999983,7.963011741999992],[5.440865040000006,7.958140372999992],[5.436341286000015,7.951180935000025],[5.437036991000014,7.942133904000002],[5.4359931949999805,7.932390689999977],[5.430078030000004,7.924387454999987],[5.42659807199999,7.914992331999997],[5.4238142969999785,7.896202087000006],[5.421378613000002,7.886458874000027],[5.417899132000002,7.879847526999981],[5.41685533499998,7.871844291999992],[5.416811943000027,7.8517622950000145],[5.414733409999997,7.84396886799999],[5.414733409999997,7.838170527999978],[5.412679672000024,7.833916187],[5.407460212999979,7.824172974000021],[5.40119648000001,7.8039908409999725],[5.3966732029999775,7.7845044140000255],[5.396499634000008,7.775651932000017],[5.39632511100001,7.766758442000025],[5.3966732029999775,7.749360084999978],[5.3923926350000215,7.733767032999992],[5.39180135700002,7.73161363600002],[5.387426376000008,7.72380113600002],[5.391483784000002,7.722786902999985],[5.400674820000006,7.719782828999996],[5.409373759999994,7.719782828999996],[5.416892528999995,7.716513634000023],[5.4232926369999745,7.710735797999973],[5.426772117999974,7.700992584000005],[5.432687758999975,7.68324613599998],[5.439647197999989,7.668283463000023],[5.447302341000011,7.662020206000022],[5.458089352000002,7.657148838000012],[5.478619099000014,7.655756950000011],[5.499149322999983,7.659236431000011],[5.516199588999996,7.666195868999978],[5.542645454000024,7.682550429999992],[5.549952507,7.688465595000025],[5.554128647000027,7.692150593000008],[5.554645392999987,7.691915713000014],[5.555021854000017,7.692453515000011],[5.558526196999992,7.6967665519999855],[5.563108797999973,7.702157847000024],[5.567960964000008,7.70943609599999],[5.572813129999986,7.716714345000014],[5.576047906999975,7.721836075999988],[5.579821814000013,7.727766501000019],[5.581169638000006,7.730192584000008],[5.589256580999972,7.735314314999982],[5.598152218999985,7.74070561100001],[5.602734820000023,7.743401258000006],[5.608665245999987,7.74771429499998],[5.612978281999972,7.751218637000022],[5.61675218900001,7.755262109],[5.620795660999988,7.763349052000024],[5.6245695669999805,7.77143599499999],[5.629152169000008,7.77898380900001],[5.632656510999993,7.785183798999981],[5.642360843000006,7.796505519999982],[5.646134749999987,7.802435945000013],[5.64829126799998,7.807288110999991],[5.650178222000022,7.809175063999987],[5.652334740000015,7.816453314],[5.654221693000011,7.819688090999989],[5.656917340999996,7.824540257000024],[5.65853318500001,7.827769885999999],[5.656604290000018,7.828348636999976],[5.642685889999996,7.828696250999997],[5.630506991999994,7.834959984000022],[5.623199462999992,7.842963219000012],[5.6141524309999795,7.8655810359999805],[5.61241245299999,7.876368045999982],[5.608584881000013,7.910816668999985],[5.60406160399998,7.926475047999986],[5.601973534000024,7.942829609],[5.598841666999988,7.951876640000023],[5.598841666999988,7.958487988000002],[5.601625442999989,7.96370744699999],[5.609628676999989,7.966143607999982],[5.6141524309999795,7.962316036000004],[5.627027035000026,7.957096100000001],[5.634334564000028,7.958487988000002],[5.645469665999997,7.963011741999992],[5.647209167000028,7.966143607999982],[5.647557258999996,7.974146843000028],[5.647557258999996,7.986158370999988],[5.649573325999995,7.987886429000014],[5.650732994000009,7.9907407759999955],[5.656952380999996,7.99432897600002],[5.6632156370000075,8.000244140999996],[5.668087481999976,8.002331733999995],[5.66739130000002,8.00859546700002],[5.662519932000009,8.015206336999995],[5.656328201000008,8.019577025999979],[5.650689124999985,8.02355766300002],[5.648949146000007,8.032605171],[5.647209167000028,8.040956497000025],[5.643033504000016,8.048263550000001],[5.639902114999984,8.053831100000025],[5.643033504000016,8.059050560000003],[5.645817280000017,8.060790062000024],[5.653820515000007,8.06427001999998],[5.659736156000008,8.069837570000004],[5.656256675999998,8.074708939000004],[5.648949146000007,8.07436084699998],[5.643636227000002,8.073967933999995]]]},"properties":{"fid":216,"cty_nm":"Nigeria","iso3cd":"NGA","adm1nm":"Ekiti","adm2nm":"Ikole","adm1cd":"NGA013","adm2cd":"NGA013011"}},{"type":"Feature","id":217,"geometry":{"type":"Polygon","coordinates":[[[5.2828621859999885,8.008471488999987],[5.269551277000005,8.011059761000013],[5.262400626999977,8.012941360000013],[5.256755828999985,8.018210410999984],[5.244451523000009,8.02053546899998],[5.240949630999978,8.014070511],[5.234928131000004,8.005414963000021],[5.230412483000009,7.996382713000003],[5.227401733000022,7.987350940999988],[5.221004009000012,7.979447842000013],[5.208208560999992,7.971544742999981],[5.192778587000021,7.96439409300001],[5.180736065000019,7.95611476900001],[5.170951365999997,7.946706295000013],[5.166811466000013,7.940685271999996],[5.1647067069999935,7.938229561000014],[5.168316840999978,7.932029247000003],[5.173209190000023,7.926760673999979],[5.179230689999997,7.921492100000023],[5.189391612999998,7.917728900999975],[5.197670936999998,7.912459850000005],[5.207079410999995,7.9094491000000176],[5.224767208000003,7.9064388279999775],[5.249605179000014,7.904556750999973],[5.258539199999973,7.904277802000024],[5.258637427999986,7.9064388279999775],[5.258637427999986,7.916599750999978],[5.260895252000012,7.926760673999979],[5.266164302999982,7.936169146999987],[5.273314475999996,7.954233170000009],[5.27745437599998,7.973050117000014],[5.278754710999976,7.981633663000025],[5.279335976000027,7.985468863999984],[5.280841350999992,8.001651763999973],[5.2828621859999885,8.008471488999987]]]},"properties":{"fid":217,"cty_nm":"Nigeria","iso3cd":"NGA","adm1nm":"Ekiti","adm2nm":"Ilejemeji","adm1cd":"NGA013","adm2cd":"NGA013012"}},{"type":"Feature","id":218,"geometry":{"type":"Polygon","coordinates":[[[5.387426376000008,7.72380113600002],[5.3839569090000055,7.724668502999975],[5.372667313000022,7.724668502999975],[5.353850365000028,7.731066226999985],[5.320732593999992,7.745367050000027],[5.3026685710000265,7.755904675000011],[5.281593799999996,7.771334170999978],[5.273314475999996,7.778484343999992],[5.265653133000001,7.789870262000022],[5.263906001999999,7.788269519999972],[5.259766578999972,7.783753395000019],[5.250358104999975,7.782624245000022],[5.236433506000026,7.779989719000014],[5.221004009000012,7.7803664209999965],[5.198423862000027,7.778484343999992],[5.176596164999978,7.778108120000013],[5.155521393000015,7.775474072000009],[5.146113395999976,7.773968696999987],[5.141597271000023,7.770957946999999],[5.139338969999983,7.7720870969999964],[5.135951996000017,7.75816249799999],[5.132188797000026,7.748001574999989],[5.1299309730000004,7.741227149999986],[5.125414847999991,7.727679253000019],[5.119769572999985,7.713002205000009],[5.116758822999998,7.7017121320000115],[5.113748550000025,7.693432808000011],[5.1092324260000055,7.682518958999992],[5.1077270509999835,7.671981812000013],[5.10546875,7.658433436999985],[5.101705551000009,7.643003941000018],[5.09982824299999,7.639666556999998],[5.101893425000014,7.6360130310000045],[5.103587150999999,7.6264452930000175],[5.106438636999997,7.622524737999981],[5.1224040989999935,7.6241869930000234],[5.134070396000027,7.62343454400002],[5.138962746000004,7.624939918999985],[5.145360470000014,7.629832267999973],[5.152134418000003,7.631337642999995],[5.162295818000018,7.6320900919999985],[5.171703815000001,7.632842541000002],[5.181112288999998,7.636229991999983],[5.187133788999972,7.644509314999993],[5.1931552890000034,7.652412415000015],[5.207455634999974,7.661067962999994],[5.223261832999981,7.6674656870000035],[5.240197181999974,7.671228885999994],[5.266164302999982,7.672734261000016],[5.282346725000025,7.674239634999992],[5.31320619600001,7.672734261000016],[5.330893993000018,7.672358035999991],[5.354602813999975,7.672358035999991],[5.365892886999973,7.671605109999973],[5.373043537000001,7.667841910999982],[5.378312111000014,7.6659603119999815],[5.3854622840000275,7.669347286000004],[5.390731334999998,7.676874161000001],[5.395999908000022,7.6806373599999915],[5.400139331999981,7.689292908000027],[5.403800010999987,7.694173336000006],[5.408155917999977,7.700992584000005],[5.413375378000012,7.710735797999973],[5.416892528999995,7.716513634000023],[5.409373759999994,7.719782828999996],[5.400674820000006,7.719782828999996],[5.391483784000002,7.722786902999985],[5.387426376000008,7.72380113600002]]]},"properties":{"fid":218,"cty_nm":"Nigeria","iso3cd":"NGA","adm1nm":"Ekiti","adm2nm":"Irepodun/Ifelodun","adm1cd":"NGA013","adm2cd":"NGA013013"}},{"type":"Feature","id":219,"geometry":{"type":"Polygon","coordinates":[[[5.454043865000017,7.300614356999972],[5.452521800999989,7.306049824000013],[5.45078182200001,7.315444946000014],[5.449389934999999,7.331103325000015],[5.4504337309999755,7.345717906999994],[5.4570450780000215,7.356504916999995],[5.458089352000002,7.369031905999975],[5.454957485000023,7.38677835499999],[5.45078182200001,7.400349140000003],[5.443822383999986,7.413223743000003],[5.440690994000022,7.426098346999993],[5.439299107000011,7.436885356999994],[5.441341399999999,7.448458672000015],[5.442430495999986,7.4546318050000195],[5.446606158999998,7.462983130999987],[5.452173710000011,7.467506409000009],[5.46330881099999,7.474117755999998],[5.469920157999979,7.47794580499999],[5.475487708999992,7.479685307000011],[5.488710403000027,7.4856009480000125],[5.499497414000018,7.4904723170000125],[5.505760669999972,7.494996071000003],[5.514460086999975,7.499171734000015],[5.518983364000007,7.503347397000027],[5.52315902700002,7.507523059999983],[5.528726577999976,7.511350632000017],[5.531858444000022,7.514482020999992],[5.5369453430000135,7.524835586999984],[5.539591312000027,7.530568599999981],[5.541601180999976,7.532228470000007],[5.545776843999988,7.540927887000009],[5.548212528000022,7.5471911430000205],[5.552736282000012,7.554846286999975],[5.5447330470000225,7.553454398999975],[5.521419047999984,7.55032300900001],[5.492886065999983,7.548234939999986],[5.46678829199999,7.544407368000009],[5.43790721900001,7.541971683999975],[5.404850483000018,7.53779602100002],[5.381884575000015,7.535707951000006],[5.361834048999981,7.537303447999989],[5.3598198889999935,7.537245273999986],[5.34673976900001,7.5405797959999745],[5.328645229000017,7.541971683999975],[5.313019275999977,7.543030739000017],[5.311943053999983,7.536752223999997],[5.310551167000028,7.533620358000007],[5.307767391000027,7.529096603000028],[5.30587148699999,7.526064872999996],[5.304042815999992,7.521189213000014],[5.302824020000003,7.51844692200001],[5.302214622000008,7.516009331000021],[5.299777031000019,7.512048244000027],[5.297339438999984,7.505953788999989],[5.29642534300001,7.500164509000001],[5.297339438999984,7.495593547999988],[5.296730041999979,7.491632461999984],[5.29642534300001,7.488585472000011],[5.297339438999984,7.484623908999993],[5.299777031000019,7.4809675220000145],[5.3055667880000215,7.476091861999976],[5.308309077999979,7.472435474000008],[5.30800437900001,7.4693884850000245],[5.303738117000023,7.463598728000022],[5.300995827000008,7.457504749000009],[5.302519320999977,7.453847885000016],[5.3062539100000095,7.440543651999974],[5.3082776069999795,7.441227912999977],[5.3119812009999805,7.442171573999985],[5.314757824000026,7.443110466000007],[5.3203310970000075,7.441294669999991],[5.322216511000022,7.4357647900000075],[5.325028895999992,7.430240153999989],[5.3269190789999925,7.423787117000018],[5.3288092610000035,7.417334079999989],[5.331616879000023,7.412732601000016],[5.333496571000012,7.4081263539999895],[5.337236404000009,7.402606963999972],[5.340048313000011,7.397082329],[5.342865943999982,7.390634536999983],[5.344746112999985,7.386028290000013],[5.346626281999988,7.381421565999972],[5.348521709000011,7.374045372000012],[5.349479674999998,7.368510722999986],[5.350442885999996,7.362051963999988],[5.351400851999983,7.356517315000019],[5.353306770000017,7.3472943310000005],[5.354249476999996,7.3445296290000215],[5.355233192000014,7.334378242000014],[5.355263709999974,7.328837872000008],[5.354377747000001,7.321446418999983],[5.354403495999975,7.3168296810000015],[5.354439259000003,7.3103661540000076],[5.355397224000001,7.3048315049999815],[5.35634517699998,7.3011431689999995],[5.35823011399998,7.295613289000016],[5.362881660000028,7.292869091],[5.367527961999997,7.291048049999972],[5.372174262999977,7.289227009000001],[5.377747536000015,7.287411212999984],[5.381466389000025,7.285584927000002],[5.388226031999977,7.283186913000009],[5.398140430000012,7.288447856999994],[5.404620170999976,7.290330410000024],[5.412964821000003,7.290376663000018],[5.417595862999974,7.29132556899998],[5.426857471000005,7.293223381000018],[5.435851097000011,7.2960338589999765],[5.438889979999999,7.296983719000025],[5.445370196999988,7.298866271999998],[5.450928211000019,7.299820423000028],[5.454043865000017,7.300614356999972]]]},"properties":{"fid":219,"cty_nm":"Nigeria","iso3cd":"NGA","adm1nm":"Ekiti","adm2nm":"Ise/Orun","adm1cd":"NGA013","adm2cd":"NGA013014"}},{"type":"Feature","id":220,"geometry":{"type":"Polygon","coordinates":[[[5.1626114850000135,8.04950618700002],[5.15702676799998,8.052456855999992],[5.150629044000027,8.055843353],[5.142349720000027,8.061864852999975],[5.127672672000017,8.062994002999972],[5.117887973999984,8.062618256000007],[5.114124774999993,8.058101653999984],[5.104340076000028,8.046812057000011],[5.097189426,8.03928470599999],[5.089286327000025,8.03062915800001],[5.087197303999972,8.027896881000004],[5.08439397799998,8.024231911000015],[5.075738430000001,8.024984360000019],[5.0723514559999785,8.031005859000004],[5.061813830999995,8.038155555999992],[5.057632923000028,8.039464951000014],[5.056488990999981,8.031078338999976],[5.0530581470000016,8.02345466600002],[5.039715767000018,8.010111809000023],[5.035522461000028,8.005156516999989],[5.032854079999993,7.996769427999993],[5.033235073000014,7.989907742000014],[5.033235073000014,7.9822835919999875],[5.036599636000005,7.979447842000013],[5.0463843350000275,7.973426341999982],[5.058426856999972,7.96251249300002],[5.068588256999988,7.953104019000023],[5.079125404000024,7.939179896999974],[5.085899353000002,7.932029247000003],[5.094156264999981,7.922412394999981],[5.098694801000022,7.929395198999998],[5.103587150999999,7.934287547999986],[5.111114025000006,7.94331932099999],[5.120898724000028,7.948588371000028],[5.129554272000007,7.952351570000019],[5.138586520999979,7.950469971000018],[5.152510643000028,7.945201397000005],[5.160037518000024,7.940685271999996],[5.1647067069999935,7.938229561000014],[5.166811466000013,7.940685271999996],[5.170951365999997,7.946706295000013],[5.180736065000019,7.95611476900001],[5.192778587000021,7.96439409300001],[5.208208560999992,7.971544742999981],[5.221004009000012,7.979447842000013],[5.227401733000022,7.987350940999988],[5.230412483000009,7.996382713000003],[5.234928131000004,8.005414963000021],[5.240949630999978,8.014070511],[5.244451523000009,8.02053546899998],[5.230788707999977,8.021973609999975],[5.220251082999994,8.020844459999978],[5.202939986999979,8.017081260999987],[5.195789337000008,8.018210410999984],[5.191649913999981,8.022350311000025],[5.188262939000026,8.029500008000014],[5.181865215000016,8.036273956000002],[5.176972866000028,8.038908957999979],[5.164929867000012,8.047187805000021],[5.1626114850000135,8.04950618700002]]]},"properties":{"fid":220,"cty_nm":"Nigeria","iso3cd":"NGA","adm1nm":"Ekiti","adm2nm":"Moba","adm1cd":"NGA013","adm2cd":"NGA013015"}},{"type":"Feature","id":221,"geometry":{"type":"Polygon","coordinates":[[[5.387426376000008,7.72380113600002],[5.39180135700002,7.73161363600002],[5.3923926350000215,7.733767032999992],[5.3966732029999775,7.749360084999978],[5.39632511100001,7.766758442000025],[5.396499634000008,7.775651932000017],[5.3966732029999775,7.7845044140000255],[5.40119648000001,7.8039908409999725],[5.407460212999979,7.824172974000021],[5.412679672000024,7.833916187],[5.414733409999997,7.838170527999978],[5.414733409999997,7.84396886799999],[5.416811943000027,7.8517622950000145],[5.41685533499998,7.871844291999992],[5.417899132000002,7.879847526999981],[5.421378613000002,7.886458874000027],[5.4238142969999785,7.896202087000006],[5.42659807199999,7.914992331999997],[5.430078030000004,7.924387454999987],[5.4359931949999805,7.932390689999977],[5.437036991000014,7.942133904000002],[5.436341286000015,7.951180935000025],[5.440865040000006,7.958140372999992],[5.444692611999983,7.963011741999992],[5.447476386999995,7.9682312009999805],[5.450955867999994,7.973798751999993],[5.450955867999994,7.979714393999984],[5.444692611999983,7.9866733549999935],[5.4377331730000265,7.989805221999973],[5.419638634000023,7.997808455999973],[5.403632163999987,8.007551192999983],[5.388669967999988,8.019034385999987],[5.3744029999999725,8.027385712000012],[5.359210013999984,8.036108017000004],[5.357989787999998,8.034016608999991],[5.351968764999981,8.025736809000023],[5.345947265999996,8.020092009999985],[5.340302467000015,8.015575409000007],[5.332399367999983,8.009554863000005],[5.317722321000019,8.007673264000005],[5.297776221999982,8.007673264000005],[5.2828621859999885,8.008471488999987],[5.280841350999992,8.001651763999973],[5.279335976000027,7.985468863999984],[5.278754710999976,7.981633663000025],[5.27745437599998,7.973050117000014],[5.273314475999996,7.954233170000009],[5.266164302999982,7.936169146999987],[5.260895252000012,7.926760673999979],[5.258637427999986,7.916599750999978],[5.258637427999986,7.9064388279999775],[5.258539199999973,7.904277802000024],[5.258261204000007,7.89815902700002],[5.256755828999985,7.881224154999984],[5.257884978999982,7.866170882999995],[5.25525045400002,7.854880809999997],[5.254497528000002,7.842837810999981],[5.254497528000002,7.834934711000017],[5.257508277999989,7.818376064000006],[5.262400626999977,7.801817416999995],[5.264282702999992,7.794666767000024],[5.265653133000001,7.789870262000022],[5.273314475999996,7.778484343999992],[5.281593799999996,7.771334170999978],[5.3026685710000265,7.755904675000011],[5.320732593999992,7.745367050000027],[5.353850365000028,7.731066226999985],[5.372667313000022,7.724668502999975],[5.3839569090000055,7.724668502999975],[5.387426376000008,7.72380113600002]]]},"properties":{"fid":221,"cty_nm":"Nigeria","iso3cd":"NGA","adm1nm":"Ekiti","adm2nm":"Oye","adm1cd":"NGA013","adm2cd":"NGA013016"}}]}