{"type":"FeatureCollection","features":[{"type":"Feature","id":97,"geometry":{"type":"Polygon","coordinates":[[[6.147355080000011,4.940584182999999],[6.159770965999996,4.939789771999983],[6.183907031999979,4.956556797000019],[6.207135201000028,4.973804950999977],[6.224823952000008,4.98882722899998],[6.248579978999999,5.0097827910000206],[6.261198044000025,5.023036003000016],[6.265113831000008,5.036443233],[6.267603873999974,5.047087192999982],[6.273586272999978,5.056044101999987],[6.283061981000003,5.061213017],[6.292538165999986,5.055182934000015],[6.2918567660000235,5.045729160000008],[6.305215836000002,5.0496749879999925],[6.311758041000019,5.05652999900002],[6.318922997000016,5.072203159000026],[6.32192421000002,5.085625171999993],[6.330677031999983,5.088259219999998],[6.342185974000017,5.091309071000012],[6.358265877000008,5.093811989000017],[6.369017123999981,5.105239868000012],[6.376519202999987,5.114400864000004],[6.38448715200002,5.124019146000023],[6.395730018999984,5.13729619999998],[6.399549960999991,5.145593166000026],[6.40109920499998,5.154859065999972],[6.3977317810000045,5.170718193000027],[6.388543129000027,5.19364976899999],[6.379288196999994,5.188702105999994],[6.365991115999975,5.18800687800001],[6.338929176000022,5.18616199500002],[6.32384300199999,5.187821864999989],[6.3110132219999855,5.187583922999977],[6.3004450799999745,5.185912131999999],[6.288495064000017,5.183798790000026],[6.276088238,5.181694983999989],[6.265036106000025,5.1786379810000085],[6.254354954000007,5.17092704800001],[6.247786999000027,5.162677765000012],[6.238401889999977,5.150762080999982],[6.2290511130000255,5.14070415499998],[6.219233990000021,5.130188942000018],[6.213502883999979,5.117743969000003],[6.203141211999991,5.102592945000026],[6.186738014000014,5.082901000999982],[6.180618762999984,5.0741801259999875],[6.172105789,5.059926033000011],[6.16457796100002,5.049370765999981],[6.157560825000019,5.041594981999992],[6.141942977999975,5.01491880399999],[6.142096042999981,4.998651981000023],[6.147355080000011,4.940584182999999]]]},"properties":{"fid":97,"cty_nm":"Nigeria","iso3cd":"NGA","adm1nm":"Bayelsa","adm2nm":"Kolokuma/Opokuma","adm1cd":"NGA006","adm2cd":"NGA006003"}},{"type":"Feature","id":98,"geometry":{"type":"Polygon","coordinates":[[[6.386468886999978,4.619801998000014],[6.364497185000005,4.62065505999999],[6.350300789000016,4.6209049220000225],[6.338386059000015,4.620650768000019],[6.326653957000019,4.6301522250000176],[6.321376800999985,4.641861915999982],[6.3147001269999805,4.652203083000018],[6.305205822000005,4.658875942000009],[6.292901992999987,4.6623458860000255],[6.280088901999989,4.663036823000027],[6.268667220999987,4.664632797000024],[6.251170157999979,4.6598310470000115],[6.233982086000026,4.6471228600000245],[6.224243163999972,4.640789986000016],[6.201821804000019,4.642115116000014],[6.1931171420000055,4.617640017999975],[6.18695402100002,4.606595992999985],[6.179451942000014,4.597434997999983],[6.173306942000011,4.58732080499999],[6.169029235999972,4.579031944000008],[6.159706115999995,4.566572188999999],[6.1648678779999955,4.552618979999977],[6.1580648419999875,4.531827926999995],[6.152342796000028,4.519846916000006],[6.146681785999988,4.511117935000016],[6.145978927999977,4.498118877000024],[6.145734786999981,4.4851131440000245],[6.150812148999989,4.462718010000003],[6.161196232000009,4.454635143000019],[6.174345016000018,4.447432994999986],[6.187468051999986,4.438837051000007],[6.200705051,4.436279774000013],[6.221223830999975,4.431271075999973],[6.2288608549999935,4.423235893000026],[6.237299919000009,4.409145831999979],[6.237710572000026,4.408011951999981],[6.2387377050000055,4.412844108999991],[6.239578612999992,4.4104819309999925],[6.2465301810000256,4.400473164999994],[6.245263385999976,4.390549932999988],[6.256450175999987,4.379998207000028],[6.256977161000009,4.379942308000011],[6.27047350700002,4.391401470000005],[6.281947219000017,4.375349251999978],[6.280495843999972,4.37426076700001],[6.291535854000017,4.370084763000023],[6.3037791250000055,4.363362789000007],[6.32347011600001,4.363015174999987],[6.337683201000004,4.363694190999979],[6.354670048000003,4.365716933999977],[6.364418030000024,4.372515201999988],[6.379633904000002,4.377822875999982],[6.392006874000003,4.37806892399999],[6.407699107999974,4.384296893999988],[6.415235042999996,4.395317078000005],[6.422305107,4.405879020999976],[6.429927825999982,4.421544074999986],[6.432003974999986,4.4345188140000005],[6.431394099999977,4.4507927889999905],[6.429904937999993,4.460420132000024],[6.428943156999992,4.466636181000013],[6.425197124000022,4.486682891999976],[6.423996924999983,4.495997906000014],[6.421019076999983,4.5081319810000196],[6.410377025999992,4.5269079209999745],[6.409255981000001,4.540402889000006],[6.408126831000004,4.553433895000012],[6.396613120999973,4.574549198],[6.39312410399998,4.583903790000022],[6.3897829059999935,4.601156235000019],[6.386468886999978,4.619801998000014]]]},"properties":{"fid":98,"cty_nm":"Nigeria","iso3cd":"NGA","adm1nm":"Bayelsa","adm2nm":"Nembe","adm1cd":"NGA006","adm2cd":"NGA006004"}},{"type":"Feature","id":99,"geometry":{"type":"Polygon","coordinates":[[[6.440402031000019,4.9548158650000005],[6.437415122999994,4.966485976999991],[6.430675983000015,4.973575115000017],[6.421666145000017,4.981634139999983],[6.418285846999993,4.972400187999995],[6.402005196000005,4.959210873000018],[6.388965129999974,4.947824001000015],[6.374542236000025,4.935997009000005],[6.35873699199999,4.923729896999987],[6.348971844000005,4.916003226999976],[6.337868214000025,4.910158157000012],[6.323523997999985,4.902512074000015],[6.314682961000017,4.895233153999982],[6.304944992000003,4.888898848999986],[6.294254780000017,4.880723952999972],[6.285476207999977,4.876697062999995],[6.275349140000003,4.874086857000009],[6.257938862000003,4.873929976999989],[6.2427229880000255,4.86862278000001],[6.238286972000026,4.851973057000009],[6.235286235999979,4.838550091000002],[6.230981826999994,4.828866958999981],[6.224404811999989,4.820155144000012],[6.220118045999982,4.811400890000016],[6.213963985000021,4.800821781000025],[6.210109234000015,4.790667057000007],[6.208103180000023,4.781408786999975],[6.207012177000024,4.772133827000005],[6.207129955000028,4.754010201000028],[6.206954956000004,4.74471902800002],[6.2071337699999845,4.7298460009999985],[6.2069511409999905,4.720090866000021],[6.204909800999985,4.708973884999978],[6.200579166000011,4.697898865000013],[6.198554993000016,4.687710761999995],[6.196331024000017,4.666840076000028],[6.197978972999977,4.657052994000026],[6.201821804000019,4.642115116000014],[6.224243163999972,4.640789986000016],[6.233982086000026,4.6471228600000245],[6.251170157999979,4.6598310470000115],[6.268667220999987,4.664632797000024],[6.280088901999989,4.663036823000027],[6.292901992999987,4.6623458860000255],[6.305205822000005,4.658875942000009],[6.3147001269999805,4.652203083000018],[6.321376800999985,4.641861915999982],[6.326653957000019,4.6301522250000176],[6.338386059000015,4.620650768000019],[6.350300789000016,4.6209049220000225],[6.364497185000005,4.62065505999999],[6.386468886999978,4.619801998000014],[6.39348602299998,4.627577782000003],[6.406137942999976,4.642689227999995],[6.422014235999995,4.658671856000012],[6.429541110999992,4.669227122999985],[6.439350128000001,4.679276942999991],[6.450611115000015,4.693482876000019],[6.4610600469999895,4.713280200999975],[6.459428786999979,4.723997116000021],[6.445941925,4.730044841999984],[6.441421986000023,4.7453298570000015],[6.444090843000026,4.760978222000006],[6.444660187000011,4.77556705500001],[6.429982184999972,4.765873908999993],[6.422863959999972,4.777152060999981],[6.412812233000011,4.802886962999992],[6.408864974999972,4.812250136999978],[6.402275084999985,4.827237129000025],[6.399279117999981,4.838441848999992],[6.398606776999998,4.851465225000027],[6.398394107999991,4.864480018999984],[6.400884151000014,4.875123977999976],[6.406606196999974,4.887104034000004],[6.414566040000011,4.896256923999999],[6.420719147,4.90683698700002],[6.425559997999983,4.92069101300001],[6.433986187000016,4.930301188999977],[6.440640926000015,4.943194865999999],[6.440402031000019,4.9548158650000005]]]},"properties":{"fid":99,"cty_nm":"Nigeria","iso3cd":"NGA","adm1nm":"Bayelsa","adm2nm":"Ogbia","adm1cd":"NGA006","adm2cd":"NGA006005"}},{"type":"Feature","id":100,"geometry":{"type":"Polygon","coordinates":[[[6.530881882000017,5.2845377919999805],[6.54117488899999,5.295972823999989],[6.5486240390000034,5.302347182999995],[6.555650233999984,5.31058692900001],[6.5631599430000165,5.320212841],[6.567076206000024,5.333620070999984],[6.568703174999996,5.34706687900001],[6.569458008000026,5.3628530500000124],[6.569632053000021,5.372142791999977],[6.561977862999981,5.379249096000024],[6.552827835000016,5.379875183000024],[6.540015220999976,5.380566120000026],[6.528549193999993,5.3798389429999816],[6.518475056,5.380016803999979],[6.500597954,5.379403114000013],[6.4854769710000255,5.379205227],[6.495871066999996,5.369657516000018],[6.500541209999994,5.351987839000003],[6.502585887999999,5.338941096999974],[6.493019103999984,5.328299522000009],[6.493532180999978,5.326040745],[6.490166664000014,5.324021339000012],[6.473052978999988,5.3218822480000085],[6.45023488999999,5.32758665099999],[6.434547424000016,5.323307990999979],[6.425990581999997,5.311185836999982],[6.408876895999981,5.3047685619999925],[6.393188952999992,5.3069076539999855],[6.380353927999977,5.309046744999989],[6.362527370000009,5.314038277000009],[6.347552775999986,5.320456028000024],[6.338832378000006,5.319911003000016],[6.3336009980000085,5.317730903999973],[6.330088138999997,5.313632487999996],[6.327453612999989,5.310412407000001],[6.325403214000005,5.3065395360000025],[6.321877002999997,5.30526494999998],[6.315567970000018,5.304772854000021],[6.310642718999986,5.3035430909999945],[6.306432246999975,5.302983761000007],[6.302890300999991,5.301016331000028],[6.300047873999972,5.299026489000028],[6.297190666000006,5.296343803000013],[6.295017718999986,5.2929458620000105],[6.292909622000025,5.289627552000013],[6.289982318999989,5.286700248999978],[6.288518429000021,5.284943580999993],[6.286762237999994,5.282309054999985],[6.28500556900002,5.27908897399999],[6.28354215600001,5.274990559000003],[6.28354215600001,5.27059936500001],[6.283834457000012,5.266500950000022],[6.285265445999983,5.262743950000015],[6.287155627999994,5.259274483000013],[6.2907519340000135,5.251054764000003],[6.292275428999972,5.245395184000017],[6.293005943000026,5.238823890999981],[6.290450095999972,5.234077453999987],[6.284712791000004,5.231664658],[6.278995990999988,5.228888035000011],[6.272560596000005,5.2282361979999905],[6.259417534000022,5.227870940999992],[6.244461059999992,5.2336568829999806],[6.238560199999995,5.235210418999998],[6.2335329059999935,5.2381677629999785],[6.213285445999986,5.238669394999988],[6.202086925999993,5.231778145000021],[6.195784091999997,5.223075866999977],[6.194151401999989,5.216709137000009],[6.195891379999978,5.211076735999995],[6.198081969999976,5.203774929000019],[6.200667857999974,5.190462111999977],[6.202291011999989,5.179281235000019],[6.200734137999973,5.169549942000003],[6.190907001000028,5.158570766000025],[6.178827763000015,5.161139965000018],[6.165906429000017,5.161139965000018],[6.154707432000009,5.151664256999993],[6.150269031999983,5.141166209999994],[6.143735886000002,5.134776115000022],[6.129725932999975,5.129266739000002],[6.120682715999976,5.133677482999985],[6.1090512279999984,5.14218807200001],[6.0978527070000155,5.149941443999978],[6.085792541999979,5.150802612000007],[6.069569587999979,5.141344070000002],[6.066751002999979,5.133347033999996],[6.063354015000016,5.123184203999983],[6.063728332999972,5.111771583999996],[6.062267780000013,5.103009701000019],[6.05496597299998,5.097167968999997],[6.044443129999991,5.095670700000028],[6.027214527000012,5.095670700000028],[6.019461632000002,5.098254681000014],[6.013582229999997,5.100392817999989],[6.004523276999976,5.103686809999999],[6.000202178999984,5.107390881000015],[5.995820998999989,5.113232136000022],[5.9921703339999794,5.117613316000018],[5.985598563999986,5.124185085000022],[5.980889320000017,5.130557537000016],[5.97829675700001,5.133312224999997],[5.974926471999993,5.13752460500001],[5.970254898000007,5.128180981000014],[5.9664502140000195,5.110024929000019],[5.959865093000019,5.100848197999994],[5.962886809999986,5.091035842999986],[5.966843127999994,5.0821371079999835],[5.971264839000014,5.073695182999984],[5.97882318500001,5.061480044999996],[5.992317200000002,5.048230171],[5.993515967999997,5.038916110999992],[5.99233818099998,5.024995804000014],[5.993062018999979,5.014760017000015],[5.993163109000022,4.99570608099998],[5.992520808999984,4.985959052999988],[5.989848137000024,4.965559959000018],[5.985958099000015,4.953547001000004],[5.980175018000011,4.938313961000006],[5.980811119000009,4.923432826999999],[5.982469082000023,4.91411113700002],[5.988237857999991,4.904250144999992],[5.992608070000017,4.893021106999981],[6.0026130680000165,4.889126777999991],[6.003293991000021,4.876567840999996],[5.999905108999997,4.86686897300001],[5.996057986999972,4.857179164999991],[5.989272117999974,4.837316989999977],[5.988181113999985,4.828042983999978],[5.989294051999991,4.814083099000015],[6.009434223000028,4.813262939000026],[6.028244018999999,4.814788818000011],[6.041541100000018,4.815484046999984],[6.0507259369999815,4.81671619399998],[6.061275959,4.817459106000001],[6.072821139999974,4.822366237999972],[6.075477122999985,4.841835976000027],[6.074865817999978,4.8581109049999895],[6.073287010000001,4.871613979000017],[6.072218894999992,4.887897015000021],[6.073327065000001,4.898100853000017],[6.075333118000003,4.907359122999992],[6.077330112000027,4.916152953999983],[6.081202984000015,4.9272370339999725],[6.0855340960000035,4.9383130069999766],[6.087662220000027,4.954073906000019],[6.090637206999986,4.966104030999986],[6.089931010999976,4.977269173000025],[6.085604191000016,4.990820885000005],[6.079895019999981,5.003932953000003],[6.070539951000001,5.018039226999974],[6.062489986000003,5.028404235999972],[6.054904937999993,5.039226054999972],[6.054629803000012,5.048988818999987],[6.0657172200000105,5.053905009999994],[6.074996947999978,5.060245990999988],[6.0803527830000235,5.0527172089999794],[6.087038994000011,5.042840004000027],[6.094182967999984,5.0329561230000195],[6.102215767000018,5.02166080500001],[6.109351157999981,5.011312008000004],[6.118714808999982,4.99767112699999],[6.1314668659999825,4.993729115000008],[6.142096042999981,4.998651981000023],[6.141942977999975,5.01491880399999],[6.157560825000019,5.041594981999992],[6.16457796100002,5.049370765999981],[6.172105789,5.059926033000011],[6.180618762999984,5.0741801259999875],[6.186738014000014,5.082901000999982],[6.203141211999991,5.102592945000026],[6.213502883999979,5.117743969000003],[6.219233990000021,5.130188942000018],[6.2290511130000255,5.14070415499998],[6.238401889999977,5.150762080999982],[6.247786999000027,5.162677765000012],[6.254354954000007,5.17092704800001],[6.265036106000025,5.1786379810000085],[6.276088238,5.181694983999989],[6.288495064000017,5.183798790000026],[6.3004450799999745,5.185912131999999],[6.3110132219999855,5.187583922999977],[6.32384300199999,5.187821864999989],[6.338929176000022,5.18616199500002],[6.365991115999975,5.18800687800001],[6.379288196999994,5.188702105999994],[6.388543129000027,5.19364976899999],[6.400932789000024,5.19482517199998],[6.4240660670000125,5.206963062],[6.439308166999979,5.213664054999981],[6.451354026999979,5.220886230000019],[6.462906836999991,5.226257800999974],[6.47356176400001,5.232575892999989],[6.486999034999997,5.240703106000012],[6.4968161580000015,5.251216887999988],[6.504765986999985,5.259905815000025],[6.5122418400000015,5.267673016000003],[6.519733905999999,5.276370048999979],[6.530881882000017,5.2845377919999805]]]},"properties":{"fid":100,"cty_nm":"Nigeria","iso3cd":"NGA","adm1nm":"Bayelsa","adm2nm":"Sagbama","adm1cd":"NGA006","adm2cd":"NGA006006"}},{"type":"Feature","id":101,"geometry":{"type":"Polygon","coordinates":[[[6.55338096600002,5.189809798999988],[6.558826447000001,5.198422908999987],[6.549230098999999,5.212652205999973],[6.5527620319999755,5.226540564999993],[6.566636086000017,5.236972809000008],[6.547786235999979,5.257751942000027],[6.537384986999996,5.264905929999998],[6.5325131420000275,5.2738208769999915],[6.530881882000017,5.2845377919999805],[6.519733905999999,5.276370048999979],[6.5122418400000015,5.267673016000003],[6.504765986999985,5.259905815000025],[6.4968161580000015,5.251216887999988],[6.486999034999997,5.240703106000012],[6.47356176400001,5.232575892999989],[6.462906836999991,5.226257800999974],[6.451354026999979,5.220886230000019],[6.439308166999979,5.213664054999981],[6.4240660670000125,5.206963062],[6.400932789000024,5.19482517199998],[6.388543129000027,5.19364976899999],[6.3977317810000045,5.170718193000027],[6.40109920499998,5.154859065999972],[6.399549960999991,5.145593166000026],[6.395730018999984,5.13729619999998],[6.38448715200002,5.124019146000023],[6.376519202999987,5.114400864000004],[6.369017123999981,5.105239868000012],[6.358265877000008,5.093811989000017],[6.342185974000017,5.091309071000012],[6.330677031999983,5.088259219999998],[6.32192421000002,5.085625171999993],[6.318922997000016,5.072203159000026],[6.311758041000019,5.05652999900002],[6.305215836000002,5.0496749879999925],[6.2918567660000235,5.045729160000008],[6.292538165999986,5.055182934000015],[6.283061981000003,5.061213017],[6.273586272999978,5.056044101999987],[6.267603873999974,5.047087192999982],[6.265113831000008,5.036443233],[6.261198044000025,5.023036003000016],[6.248579978999999,5.0097827910000206],[6.224823952000008,4.98882722899998],[6.207135201000028,4.973804950999977],[6.183907031999979,4.956556797000019],[6.159770965999996,4.939789771999983],[6.147355080000011,4.940584182999999],[6.153099059999988,4.877175808000004],[6.152299880999976,4.859066962999975],[6.156695843000023,4.849230766000005],[6.179998875000024,4.846032143000002],[6.196959019000019,4.846662045000016],[6.238286972000026,4.851973057000009],[6.2427229880000255,4.86862278000001],[6.257938862000003,4.873929976999989],[6.275349140000003,4.874086857000009],[6.285476207999977,4.876697062999995],[6.294254780000017,4.880723952999972],[6.304944992000003,4.888898848999986],[6.314682961000017,4.895233153999982],[6.323523997999985,4.902512074000015],[6.337868214000025,4.910158157000012],[6.348971844000005,4.916003226999976],[6.35873699199999,4.923729896999987],[6.374542236000025,4.935997009000005],[6.388965129999974,4.947824001000015],[6.402005196000005,4.959210873000018],[6.418285846999993,4.972400187999995],[6.421666145000017,4.981634139999983],[6.410391807999986,4.991127014000028],[6.411561011999993,5.004581927999993],[6.417273997999985,5.016098021999994],[6.425769806000005,5.0294241909999755],[6.429607868000005,5.038650035999979],[6.439036846000022,5.052887917000021],[6.4439039229999935,5.0681371690000105],[6.451053143000024,5.082880020000005],[6.46049880999999,5.098048210000002],[6.46433687199999,5.107274055000005],[6.472980975999974,5.128497123999978],[6.479144096000027,5.139541149000024],[6.485816001999979,5.153363227999989],[6.49333476999999,5.163454055999978],[6.5113611219999825,5.171964168999978],[6.52629852299998,5.174164771999983],[6.534568309999997,5.186845302999984],[6.544492245000015,5.1862940789999925],[6.55338096600002,5.189809798999988]]]},"properties":{"fid":101,"cty_nm":"Nigeria","iso3cd":"NGA","adm1nm":"Bayelsa","adm2nm":"Yenegoa","adm1cd":"NGA006","adm2cd":"NGA006008"}},{"type":"Feature","id":762,"geometry":{"type":"MultiPolygon","coordinates":[[[[6.574090480999985,4.709374905000004],[6.578935623000007,4.715189457000008],[6.586215019000008,4.718504906000021],[6.593472480999992,4.722457885999972],[6.60024976699998,4.734055995999995],[6.6072411540000076,4.746353149000015],[6.598309993999976,4.752677917000028],[6.588737010999978,4.755170822000025],[6.579172133999975,4.758128166000006],[6.5636019710000255,4.7584028239999725],[6.5526118280000105,4.758596897000018],[6.537438869000027,4.755611896999994],[6.527311801999986,4.753003120000017],[6.517581940000014,4.7471342090000235],[6.510600090000025,4.741216183000006],[6.498985767000022,4.732592106000027],[6.4896440510000275,4.722999096000024],[6.478478908999989,4.713901996999994],[6.4610600469999895,4.713280200999975],[6.450611115000015,4.693482876000019],[6.439350128000001,4.679276942999991],[6.429541110999992,4.669227122999985],[6.422014235999995,4.658671856000012],[6.406137942999976,4.642689227999995],[6.39348602299998,4.627577782000003],[6.386468886999978,4.619801998000014],[6.3897829059999935,4.601156235000019],[6.39312410399998,4.583903790000022],[6.396613120999973,4.574549198],[6.408126831000004,4.553433895000012],[6.409255981000001,4.540402889000006],[6.410377025999992,4.5269079209999745],[6.421019076999983,4.5081319810000196],[6.423996924999983,4.495997906000014],[6.425197124000022,4.486682891999976],[6.428943156999992,4.466636181000013],[6.429904937999993,4.460420132000024],[6.431394099999977,4.4507927889999905],[6.432003974999986,4.4345188140000005],[6.429927825999982,4.421544074999986],[6.422305107,4.405879020999976],[6.415235042999996,4.395317078000005],[6.407699107999974,4.384296893999988],[6.392006874000003,4.37806892399999],[6.379633904000002,4.377822875999982],[6.364418030000024,4.372515201999988],[6.354670048000003,4.365716933999977],[6.337683201000004,4.363694190999979],[6.32347011600001,4.363015174999987],[6.3037791250000055,4.363362789000007],[6.291535854000017,4.370084763000023],[6.280495843999972,4.37426076700001],[6.2788887020000175,4.373055459],[6.270555496999975,4.368055344000027],[6.2599741359999825,4.358074144],[6.252252969999972,4.335211248000007],[6.241366137,4.317750149000005],[6.241128805000017,4.317369498000005],[6.240519802999984,4.31612501699999],[6.238898877999986,4.312812690999976],[6.238483847999987,4.311964586999977],[6.235656043999995,4.3061860309999815],[6.23351452899999,4.298809702000028],[6.234155078000015,4.298115773000006],[6.239225235999982,4.292623102999983],[6.243984157999989,4.291909265000015],[6.249456918000021,4.290719534999994],[6.254929677999996,4.28976775000001],[6.262306007999996,4.290481587999977],[6.264163079000014,4.29095053399999],[6.272499084000003,4.293055535000008],[6.291666030999977,4.293610573000024],[6.294678123999972,4.2939400249999835],[6.295696756999973,4.294051439999976],[6.309444428000006,4.295555115000013],[6.339162597999973,4.297619972000007],[6.367652107000026,4.301151839999989],[6.386838506000004,4.303530393000017],[6.410484398999984,4.3062072870000065],[6.464568498999995,4.315189573999987],[6.464831961000016,4.315253368000015],[6.473884037999994,4.317445232000011],[6.493610381999986,4.322221755999976],[6.549120634000019,4.325273642000013],[6.548765091000007,4.32705347000001],[6.548645019999981,4.327236175999985],[6.548645019999981,4.334348202000001],[6.548027038999976,4.343715191000001],[6.544572829999993,4.35492801700002],[6.535923958000012,4.357870101999993],[6.520407200000022,4.360930919999987],[6.514143944000011,4.368941784000015],[6.5120639799999935,4.380130768000015],[6.511841774000004,4.392681121999999],[6.512516974999983,4.40428590800002],[6.511864184999979,4.418239116999985],[6.512575149999975,4.431702137000002],[6.516438008000023,4.442320823999978],[6.519386768000004,4.452957153],[6.5228929520000065,4.462992191000012],[6.525196074999997,4.469583035000028],[6.531782150000026,4.478759765999996],[6.534255028000018,4.488474845999974],[6.537251473000026,4.4949827190000065],[6.539985179999974,4.500919818999989],[6.549862384999983,4.510221480999974],[6.542593956000019,4.5218510629999855],[6.545016766000003,4.533480166999993],[6.553039074000026,4.53739976899999],[6.560038089999978,4.541233062999993],[6.566337109000017,4.553831576999983],[6.560038089999978,4.554316520999976],[6.551316261000011,4.558192729999973],[6.543078422999997,4.568368435000025],[6.540171145999977,4.576605797000013],[6.545501231999992,4.580966949000015],[6.548893452000016,4.586297034999973],[6.54404783199999,4.590173720999985],[6.538109780000013,4.596213818000024],[6.535140990999992,4.608811854999999],[6.5260949130000085,4.615013122999983],[6.516617774999986,4.622614860999988],[6.5154361720000225,4.632859230000008],[6.511964798000008,4.6431441309999855],[6.528808116999983,4.661898135999991],[6.537717819000022,4.672893047000002],[6.546593189000021,4.682030200999975],[6.553585052000017,4.688412189000019],[6.562364101000014,4.692440033000025],[6.5605225560000235,4.697745322999992],[6.567574977999982,4.701641083000027],[6.573121071000003,4.701622009000005],[6.574090480999985,4.709374905000004]]],[[[6.252181400999973,4.363740236000012],[6.254709578000018,4.378017001999979],[6.256977161000009,4.379942308000011],[6.256450175999987,4.379998207000028],[6.245263385999976,4.390549932999988],[6.242960989999972,4.372514497999987],[6.240843268999981,4.360469468000019],[6.247125046000008,4.359278745999973],[6.252181400999973,4.363740236000012]]],[[[6.231067347000021,4.377272596000012],[6.233055115000013,4.386110305999978],[6.235880110999972,4.399400527000012],[6.237710572000026,4.408011951999981],[6.237299919000009,4.409145831999979],[6.2288608549999935,4.423235893000026],[6.221223830999975,4.431271075999973],[6.200705051,4.436279774000013],[6.187468051999986,4.438837051000007],[6.174345016000018,4.447432994999986],[6.161196232000009,4.454635143000019],[6.150812148999989,4.462718010000003],[6.145734786999981,4.4851131440000245],[6.145978927999977,4.498118877000024],[6.146681785999988,4.511117935000016],[6.152342796000028,4.519846916000006],[6.1580648419999875,4.531827926999995],[6.1648678779999955,4.552618979999977],[6.159706115999995,4.566572188999999],[6.138486861999979,4.538215159999993],[6.12641477599999,4.529599189999999],[6.115873813999997,4.5293197629999895],[6.105132103000017,4.518358230999979],[6.09297323200002,4.505095959000016],[6.075696945000004,4.48774290099999],[6.064576149000004,4.480968952000012],[6.056220054999983,4.475076199],[6.047431946000017,4.4705848689999925],[6.035888194999984,4.465676785000028],[6.01881408700001,4.459008217000019],[6.004996776999974,4.455070019000004],[5.9948787690000245,4.4529252049999855],[5.989879608000024,4.44409704200001],[5.982494353999982,4.430711269000028],[5.978549956999984,4.412786007000022],[5.971416472999977,4.403478145999998],[5.971416472999977,4.392400264999992],[5.973324776000027,4.378491879000023],[5.96448516800001,4.37121295899999],[5.95654153800001,4.370013713999981],[5.953460216999986,4.3695487979999825],[5.946165561999976,4.373263835999978],[5.942115784000009,4.375326157000018],[5.927539824999997,4.379765034000002],[5.918891906999988,4.382706165000002],[5.904316902000005,4.387145996000015],[5.88524103200001,4.3958458899999755],[5.876592158999983,4.398787022000022],[5.867655276999983,4.399742125999978],[5.855247021000025,4.400037289000011],[5.847100598999987,4.399041200999989],[5.868610381999986,4.3813886649999745],[5.931110381999986,4.340555191000021],[5.9405546180000215,4.336111069000026],[5.976643353999975,4.321316438999986],[5.978099030999999,4.320719682999993],[5.978035083999998,4.320032712999989],[5.977303714000016,4.312175732000014],[5.996483811000019,4.30573401800001],[6.0089858289999825,4.301535163999972],[6.057777405000024,4.288055419999978],[6.073234398000011,4.282964735999997],[6.080593352999983,4.2805410999999935],[6.083979010000007,4.279426052000019],[6.084061924000025,4.2777212280000185],[6.084163310000008,4.275636596000027],[6.086362328999996,4.271484438000016],[6.091216428999985,4.271960329000024],[6.104166030999977,4.2727775569999835],[6.111110687000007,4.272499084999993],[6.115833282999972,4.2730550759999915],[6.136507363000021,4.274852065999994],[6.171689801000014,4.2779101230000265],[6.191157581000027,4.280693515999985],[6.209380463000002,4.279719274999991],[6.219359587999975,4.283037057999991],[6.221614681999995,4.283786814999985],[6.22032729,4.288027290999992],[6.218944125999997,4.292583229000002],[6.216620356000021,4.300237379000009],[6.214999198999976,4.305832862999978],[6.212991706000025,4.329881258],[6.214972692999993,4.3361844010000254],[6.221367407999992,4.3565312210000116],[6.231067347000021,4.377272596000012]]]]},"properties":{"fid":762,"cty_nm":"Nigeria","iso3cd":"NGA","adm1nm":"Bayelsa","adm2nm":"Brass","adm1cd":"NGA006","adm2cd":"NGA006001"}},{"type":"Feature","id":763,"geometry":{"type":"Polygon","coordinates":[[[6.118714808999982,4.99767112699999],[6.109351157999981,5.011312008000004],[6.102215767000018,5.02166080500001],[6.094182967999984,5.0329561230000195],[6.087038994000011,5.042840004000027],[6.0803527830000235,5.0527172089999794],[6.074996947999978,5.060245990999988],[6.0657172200000105,5.053905009999994],[6.054629803000012,5.048988818999987],[6.054904937999993,5.039226054999972],[6.062489986000003,5.028404235999972],[6.070539951000001,5.018039226999974],[6.079895019999981,5.003932953000003],[6.085604191000016,4.990820885000005],[6.089931010999976,4.977269173000025],[6.090637206999986,4.966104030999986],[6.087662220000027,4.954073906000019],[6.0855340960000035,4.9383130069999766],[6.081202984000015,4.9272370339999725],[6.077330112000027,4.916152953999983],[6.075333118000003,4.907359122999992],[6.073327065000001,4.898100853000017],[6.072218894999992,4.887897015000021],[6.073287010000001,4.871613979000017],[6.074865817999978,4.8581109049999895],[6.075477122999985,4.841835976000027],[6.072821139999974,4.822366237999972],[6.061275959,4.817459106000001],[6.0507259369999815,4.81671619399998],[6.041541100000018,4.815484046999984],[6.028244018999999,4.814788818000011],[6.009434223000028,4.813262939000026],[5.989294051999991,4.814083099000015],[5.988181113999985,4.828042983999978],[5.989272117999974,4.837316989999977],[5.996057986999972,4.857179164999991],[5.999905108999997,4.86686897300001],[6.003293991000021,4.876567840999996],[6.0026130680000165,4.889126777999991],[5.992608070000017,4.893021106999981],[5.977787970999998,4.884452819999979],[5.967160224999986,4.8795289990000015],[5.953774929000019,4.874189854000008],[5.942688942000018,4.8692741390000265],[5.9302120209999885,4.863452911000024],[5.9177432060000115,4.858098030000008],[5.9043321610000135,4.851364135999972],[5.895068169000012,4.845952033999993],[5.878451824000024,4.83927392999999],[5.860426903000018,4.8307638169999905],[5.845651149999981,4.8245191569999974],[5.836880206999979,4.820957184000008],[5.827633858000013,4.816473007000013],[5.812435149999999,4.8120951650000166],[5.797201157000018,4.805858134999994],[5.785584927000002,4.803482533000022],[5.781522751000011,4.807175158999996],[5.771552563,4.814560412999981],[5.767859935999979,4.812344551000024],[5.766013622000003,4.800528048999979],[5.755305290000024,4.79609727899998],[5.735364914000002,4.79831266399998],[5.724267005999991,4.800641059999975],[5.72022533400002,4.8064365390000034],[5.714316844999985,4.808651924000003],[5.711542129999998,4.805975913999987],[5.704346656999974,4.809021472999973],[5.701392650999992,4.812344551000024],[5.696592330999977,4.81049823799998],[5.695484637999982,4.801636218999988],[5.696592330999977,4.792773724000028],[5.694038390999992,4.784626484],[5.689576149000004,4.778741836999984],[5.6829295160000015,4.7813267710000105],[5.67406749700001,4.785388469999987],[5.665574074000006,4.78354215600001],[5.648652077000008,4.774559021000016],[5.647110939000015,4.7687716479999835],[5.642523766000011,4.765374183999995],[5.644182204999993,4.756051064000019],[5.647687911999981,4.747624873999996],[5.6447567939999885,4.737917900000014],[5.632462977999978,4.741853236999987],[5.625324725999974,4.743661879999991],[5.626801490999981,4.740707874000009],[5.631246567000005,4.736355305000018],[5.630494118000001,4.732953071999987],[5.62754011200002,4.732583999999974],[5.624456882000004,4.738062859000024],[5.620893478000028,4.737384319],[5.621262549999983,4.732953071999987],[5.62052392999999,4.72889137300001],[5.616199016999985,4.729592799999978],[5.6101846689999775,4.730368137000028],[5.6101846689999775,4.7388615610000215],[5.607599735000008,4.738492011999995],[5.605015277999996,4.739599704999989],[5.602060795,4.744400500999973],[5.597630024000011,4.744769572999985],[5.596521854000002,4.740338326000028],[5.595687865999992,4.735066890999974],[5.588767528999995,4.730368137000028],[5.583527564999997,4.727528095000025],[5.577991961999999,4.7272696499999824],[5.569565773000022,4.722613810999974],[5.566681861999996,4.727214812999989],[5.561165969000001,4.731330820999972],[5.558823426000004,4.734844635000002],[5.558133173999977,4.735465862000012],[5.557187451999994,4.736822010000026],[5.5552748910000105,4.739564588999997],[5.5521101919999865,4.744102709999993],[5.549218106000012,4.745367562000013],[5.54695826599999,4.746355901000015],[5.545158591000018,4.747142987000018],[5.540473503999976,4.748899895000022],[5.538080734000005,4.748128033],[5.532967319000022,4.746136692999983],[5.534332862999975,4.737947888999997],[5.545564921999983,4.7174655900000175],[5.551088176999997,4.707393618000026],[5.566110610999999,4.679999351999982],[5.579443931000014,4.659721374000014],[5.5852775569999835,4.651944160000028],[5.594444275000001,4.64083290100001],[5.604166030999977,4.629999161000001],[5.663677913000015,4.5537195069999825],[5.697068769999987,4.522398700999986],[5.697782345999997,4.515025141000024],[5.716838309000025,4.500415056999998],[5.735626217000004,4.486560693999991],[5.843041146000019,4.402372691999972],[5.847100598999987,4.399041200999989],[5.855247021000025,4.400037289000011],[5.867655276999983,4.399742125999978],[5.876592158999983,4.398787022000022],[5.88524103200001,4.3958458899999755],[5.904316902000005,4.387145996000015],[5.918891906999988,4.382706165000002],[5.927539824999997,4.379765034000002],[5.942115784000009,4.375326157000018],[5.946165561999976,4.373263835999978],[5.953460216999986,4.3695487979999825],[5.95654153800001,4.370013713999981],[5.96448516800001,4.37121295899999],[5.973324776000027,4.378491879000023],[5.971416472999977,4.392400264999992],[5.971416472999977,4.403478145999998],[5.978549956999984,4.412786007000022],[5.982494353999982,4.430711269000028],[5.989879608000024,4.44409704200001],[5.9948787690000245,4.4529252049999855],[6.004996776999974,4.455070019000004],[6.01881408700001,4.459008217000019],[6.035888194999984,4.465676785000028],[6.047431946000017,4.4705848689999925],[6.056220054999983,4.475076199],[6.064576149000004,4.480968952000012],[6.075696945000004,4.48774290099999],[6.09297323200002,4.505095959000016],[6.105132103000017,4.518358230999979],[6.115873813999997,4.5293197629999895],[6.12641477599999,4.529599189999999],[6.138486861999979,4.538215159999993],[6.159706115999995,4.566572188999999],[6.169029235999972,4.579031944000008],[6.173306942000011,4.58732080499999],[6.179451942000014,4.597434997999983],[6.18695402100002,4.606595992999985],[6.1931171420000055,4.617640017999975],[6.201821804000019,4.642115116000014],[6.197978972999977,4.657052994000026],[6.196331024000017,4.666840076000028],[6.198554993000016,4.687710761999995],[6.200579166000011,4.697898865000013],[6.204909800999985,4.708973884999978],[6.2069511409999905,4.720090866000021],[6.2071337699999845,4.7298460009999985],[6.206954956000004,4.74471902800002],[6.207129955000028,4.754010201000028],[6.207012177000024,4.772133827000005],[6.208103180000023,4.781408786999975],[6.210109234000015,4.790667057000007],[6.213963985000021,4.800821781000025],[6.220118045999982,4.811400890000016],[6.224404811999989,4.820155144000012],[6.230981826999994,4.828866958999981],[6.235286235999979,4.838550091000002],[6.238286972000026,4.851973057000009],[6.196959019000019,4.846662045000016],[6.179998875000024,4.846032143000002],[6.156695843000023,4.849230766000005],[6.152299880999976,4.859066962999975],[6.153099059999988,4.877175808000004],[6.147355080000011,4.940584182999999],[6.142096042999981,4.998651981000023],[6.1314668659999825,4.993729115000008],[6.118714808999982,4.99767112699999]]]},"properties":{"fid":763,"cty_nm":"Nigeria","iso3cd":"NGA","adm1nm":"Bayelsa","adm2nm":"Southern Ijaw","adm1cd":"NGA006","adm2cd":"NGA006007"}},{"type":"Feature","id":764,"geometry":{"type":"Polygon","coordinates":[[[5.959865093000019,5.100848197999994],[5.9664502140000195,5.110024929000019],[5.970254898000007,5.128180981000014],[5.974926471999993,5.13752460500001],[5.9724555020000025,5.14061403300002],[5.964244843000017,5.149107456000024],[5.960538864,5.15721845600001],[5.946052074000022,5.164227961999984],[5.933200836000026,5.164695262999999],[5.927826405000019,5.160723209000025],[5.927592753999988,5.154881954000018],[5.926891803999979,5.139927864000015],[5.921751498999981,5.135020732999976],[5.9175453189999985,5.134086131999993],[5.916377067999974,5.131515980000017],[5.9159097670000165,5.117496490000008],[5.914507866000008,5.108150005000027],[5.9093675610000105,5.104878901999996],[5.896516323000014,5.104411602000027],[5.885300636000011,5.099972247999972],[5.882730483999978,5.101841449999995],[5.881353321000006,5.109508990999984],[5.880772745999991,5.109508990999984],[5.877645015999974,5.10525846500002],[5.87789249399998,5.100305079999998],[5.878387927999995,5.097085952999976],[5.877645015999974,5.09138965599999],[5.874425411000004,5.086188793000019],[5.8717012409999825,5.081235408999987],[5.870214938999993,5.076034546000017],[5.869472026999972,5.07108163800001],[5.867738723999992,5.068109511999978],[5.865143117000002,5.069586158999982],[5.864981173999979,5.069471835999991],[5.863081932,5.074440002000017],[5.8573832509999875,5.077362536999999],[5.853145599000015,5.075462818000005],[5.851976395000008,5.070202827000003],[5.848323821999998,5.066549778000024],[5.840871333999985,5.067572594000012],[5.839994907000005,5.070786952999981],[5.839510917999974,5.074536324000007],[5.840579032999983,5.080577373999972],[5.840140819999988,5.083061218000012],[5.8353190419999805,5.082476616000008],[5.830643177000013,5.080285071999981],[5.8255290989999935,5.077508449999982],[5.8226065640000115,5.075755119000007],[5.820268630999976,5.075170517000004],[5.817346095999994,5.077362536999999],[5.815300465000007,5.081892489999973],[5.814131260000011,5.084522246999995],[5.8090171810000015,5.086421966999978],[5.805510520999974,5.083645821000005],[5.80361080199998,5.081892489999973],[5.797473906999983,5.083061218000012],[5.791336536000017,5.085837363999985],[5.789144992999979,5.084376335000002],[5.7898755069999766,5.078677653999989],[5.788122176999991,5.072540759999981],[5.784176826000021,5.0693259239999975],[5.780443192000007,5.064958572000023],[5.7790188789999775,5.058013915999993],[5.775635718999979,5.057479858000022],[5.773499012000002,5.061219214999994],[5.769225597000002,5.063355923000017],[5.764239787999998,5.064246178000019],[5.758363723999992,5.061040877999972],[5.751953602000015,5.053740500999993],[5.748570442000016,5.053206444000011],[5.743050574999984,5.055699348000019],[5.736462115999984,5.05658960300002],[5.730586051999978,5.054452895999987],[5.728449345000001,5.050713539000014],[5.724532126999975,5.041098117999979],[5.7193684580000195,5.030948638999973],[5.710287094000023,5.023826122000003],[5.702096461999986,5.022935867000001],[5.691234588999976,5.024182320000023],[5.682153701999994,5.027921676999995],[5.675565242999994,5.029880047000006],[5.66666221600002,5.028277874000025],[5.663456917000019,5.024004459000025],[5.663456917000019,5.018840312999998],[5.663635253999985,5.015100956000026],[5.6618089680000026,5.012883663000025],[5.656670570000017,5.011776446999988],[5.647893429000021,5.011776446999988],[5.642328738999993,5.0156021120000105],[5.632938862000003,5.01838398000001],[5.62528801000002,5.026035309000008],[5.619723319999991,5.034729480999999],[5.611029148,5.038902759999985],[5.5992045400000166,5.042380809999997],[5.590857982999978,5.043424129000016],[5.5856413839999846,5.047945023000011],[5.584598063999977,5.055248259999985],[5.569295882999995,5.056291579999993],[5.550863742999979,5.055596352000009],[5.544603825000024,5.058030604999999],[5.533127308000019,5.062899589999972],[5.5240850449999925,5.068811892999975],[5.516781806999973,5.080636024],[5.511565207999979,5.088287353999988],[5.502870560000019,5.092460631999984],[5.493828296999993,5.091764926999986],[5.485134125000002,5.090373993000014],[5.47922182100001,5.091764926999986],[5.475568295000016,5.092287064000004],[5.472823143000028,5.092679024000006],[5.471425595000028,5.093001202999972],[5.470558166999979,5.091109275999997],[5.463018902999977,5.100140161000013],[5.453976951000016,5.106683679000014],[5.447790352000027,5.1178671459999805],[5.437777519000008,5.132222174999981],[5.4330549239999755,5.134444237000025],[5.414443969999979,5.136110305999978],[5.406645249000007,5.136788430000024],[5.40166664100002,5.137221337000028],[5.398935596999991,5.135440749999987],[5.395533423000018,5.133222601],[5.387499809000019,5.131110191999994],[5.380519024000023,5.12810675999998],[5.375165236999976,5.126203191000002],[5.377068805000022,5.119421726999974],[5.382592035000016,5.109281237000005],[5.384055402999991,5.105854813999997],[5.386184426,5.101391540000009],[5.390378343999998,5.095565466999972],[5.413372793999997,5.046394953999993],[5.423665933999985,5.024384467999994],[5.436457007000001,4.9900505360000125],[5.441749838000021,4.97584346299999],[5.441723973000023,4.975468786000022],[5.440917091000017,4.963780467999982],[5.4425821180000185,4.948570357999984],[5.445256296000025,4.943830837000007],[5.446718216000022,4.941239833999987],[5.451400996000018,4.933644593999986],[5.451914203999991,4.923642221000023],[5.451944350000019,4.923054696000008],[5.451819716999978,4.907414732999996],[5.456298978999996,4.89856712400001],[5.459538325999972,4.89216864399998],[5.467168883999989,4.877096473999984],[5.483479873000022,4.844878386999994],[5.489132846000018,4.835635013000001],[5.494636308999986,4.826636106000024],[5.506546559000014,4.807338486999981],[5.520145298999978,4.78513252099998],[5.527283682000018,4.772491634000005],[5.528753870999992,4.763328080000008],[5.5295082509999816,4.760648317999994],[5.532057474999988,4.751592786000003],[5.532967319000022,4.746136692999983],[5.538080734000005,4.748128033],[5.540473503999976,4.748899895000022],[5.545158591000018,4.747142987000018],[5.54695826599999,4.746355901000015],[5.549218106000012,4.745367562000013],[5.5521101919999865,4.744102709999993],[5.5552748910000105,4.739564588999997],[5.557187451999994,4.736822010000026],[5.558133173999977,4.735465862000012],[5.558823426000004,4.734844635000002],[5.561165969000001,4.731330820999972],[5.566681861999996,4.727214812999989],[5.569565773000022,4.722613810999974],[5.577991961999999,4.7272696499999824],[5.583527564999997,4.727528095000025],[5.588767528999995,4.730368137000028],[5.595687865999992,4.735066890999974],[5.596521854000002,4.740338326000028],[5.597630024000011,4.744769572999985],[5.602060795,4.744400500999973],[5.605015277999996,4.739599704999989],[5.607599735000008,4.738492011999995],[5.6101846689999775,4.7388615610000215],[5.6101846689999775,4.730368137000028],[5.616199016999985,4.729592799999978],[5.62052392999999,4.72889137300001],[5.621262549999983,4.732953071999987],[5.620893478000028,4.737384319],[5.624456882000004,4.738062859000024],[5.62754011200002,4.732583999999974],[5.630494118000001,4.732953071999987],[5.631246567000005,4.736355305000018],[5.626801490999981,4.740707874000009],[5.625324725999974,4.743661879999991],[5.632462977999978,4.741853236999987],[5.6447567939999885,4.737917900000014],[5.647687911999981,4.747624873999996],[5.644182204999993,4.756051064000019],[5.642523766000011,4.765374183999995],[5.647110939000015,4.7687716479999835],[5.648652077000008,4.774559021000016],[5.665574074000006,4.78354215600001],[5.67406749700001,4.785388469999987],[5.6829295160000015,4.7813267710000105],[5.689576149000004,4.778741836999984],[5.694038390999992,4.784626484],[5.696592330999977,4.792773724000028],[5.695484637999982,4.801636218999988],[5.696592330999977,4.81049823799998],[5.701392650999992,4.812344551000024],[5.704346656999974,4.809021472999973],[5.711542129999998,4.805975913999987],[5.714316844999985,4.808651924000003],[5.72022533400002,4.8064365390000034],[5.724267005999991,4.800641059999975],[5.735364914000002,4.79831266399998],[5.755305290000024,4.79609727899998],[5.766013622000003,4.800528048999979],[5.767859935999979,4.812344551000024],[5.771552563,4.814560412999981],[5.781522751000011,4.807175158999996],[5.785584927000002,4.803482533000022],[5.797201157000018,4.805858134999994],[5.812435149999999,4.8120951650000166],[5.827633858000013,4.816473007000013],[5.836880206999979,4.820957184000008],[5.845651149999981,4.8245191569999974],[5.860426903000018,4.8307638169999905],[5.878451824000024,4.83927392999999],[5.895068169000012,4.845952033999993],[5.9043321610000135,4.851364135999972],[5.9177432060000115,4.858098030000008],[5.9302120209999885,4.863452911000024],[5.942688942000018,4.8692741390000265],[5.953774929000019,4.874189854000008],[5.967160224999986,4.8795289990000015],[5.977787970999998,4.884452819999979],[5.992608070000017,4.893021106999981],[5.988237857999991,4.904250144999992],[5.982469082000023,4.91411113700002],[5.980811119000009,4.923432826999999],[5.980175018000011,4.938313961000006],[5.985958099000015,4.953547001000004],[5.989848137000024,4.965559959000018],[5.992520808999984,4.985959052999988],[5.993163109000022,4.99570608099998],[5.993062018999979,5.014760017000015],[5.99233818099998,5.024995804000014],[5.993515967999997,5.038916110999992],[5.992317200000002,5.048230171],[5.97882318500001,5.061480044999996],[5.971264839000014,5.073695182999984],[5.966843127999994,5.0821371079999835],[5.962886809999986,5.091035842999986],[5.959865093000019,5.100848197999994]]]},"properties":{"fid":764,"cty_nm":"Nigeria","iso3cd":"NGA","adm1nm":"Bayelsa","adm2nm":"Ekeremor","adm1cd":"NGA006","adm2cd":"NGA006002"}}]}