{"type":"FeatureCollection","features":[{"type":"Feature","id":239,"geometry":{"type":"Polygon","coordinates":[[[7.030075072999978,9.257713318000015],[7.015266895000025,9.268970490000015],[6.7880544660000055,9.270166397000025],[6.786707401000001,9.155335426000022],[6.784782887000006,8.991261482000027],[6.77852249099999,8.45755004900002],[6.827889918999972,8.45755004900002],[6.984174728000028,8.459377288999974],[6.991440773000022,8.459823608000022],[6.991245746999994,8.463339806000022],[6.991245746999994,8.474547385999983],[6.9949817660000235,8.478816986000027],[7.00031852699999,8.485221862999992],[7.004588603999991,8.492159843000024],[7.000852585000018,8.505502701000012],[6.998717784999997,8.515643119999993],[6.994447707999996,8.51884555800001],[6.987509726999974,8.527385712000012],[6.981638432000011,8.529520035000019],[6.972565651000025,8.537526130999993],[6.963492393000024,8.542862892000016],[6.948548317000018,8.55086898799999],[6.932003021000014,8.560475349],[6.919727324999997,8.564745903000016],[6.903716087000021,8.571683883999981],[6.893041611000001,8.581290244999991],[6.8812999730000115,8.586627959999987],[6.869558333999976,8.583425522000027],[6.863687514999981,8.579155921999984],[6.856215476999978,8.576487541000006],[6.852479458000005,8.577020645000005],[6.8508782389999965,8.579689980000012],[6.845007420000002,8.581824303000019],[6.835934162000001,8.581290244999991],[6.832731723999984,8.58235836],[6.833799361999979,8.586093903000005],[6.836467743000014,8.593565941000008],[6.834866524000006,8.599970817999974],[6.829796314000021,8.602106094000021],[6.825526713999977,8.604774475],[6.822324276000018,8.607442855999977],[6.817520618000003,8.609044074999986],[6.813251019000006,8.610645293999994],[6.813251019000006,8.61438083600001],[6.8159198760000095,8.616516112999989],[6.816453457000023,8.621319771000003],[6.814318657000001,8.62558937099999],[6.8079137799999785,8.626122474999988],[6.803110600000025,8.630926132000013],[6.804177761000005,8.635195732],[6.8111162189999845,8.635729790000028],[6.8148522380000145,8.638932227999987],[6.8121838569999795,8.64640426599999],[6.804177761000005,8.64640426599999],[6.803110600000025,8.652275084999985],[6.8079137799999785,8.657078743],[6.803110600000025,8.664550781000003],[6.799908161000019,8.673089980999976],[6.803644179999992,8.67575836200001],[6.807380199000022,8.676292418999992],[6.8121838569999795,8.677359581000019],[6.818588256999988,8.682163238999976],[6.822857856999974,8.684831619000022],[6.824992656999996,8.6875],[6.827127933999975,8.693370818999995],[6.823925495000026,8.697640418999981],[6.818054675999974,8.696040154000002],[6.811649799000008,8.691769599999986],[6.808447838000006,8.692837714999996],[6.801509380000027,8.69870853399999],[6.798840523000024,8.705646515000012],[6.803644179999992,8.711517334000007],[6.81004858,8.715253829999995],[6.81004858,8.719523429999981],[6.810582638000028,8.725928307000004],[6.8153858179999816,8.72806263000001],[6.816453457000023,8.733400345000007],[6.81004858,8.736601829999984],[6.802576541999997,8.74087238300001],[6.794570922999981,8.739271164000002],[6.792969703999972,8.744073867999987],[6.799374580000006,8.746209145000023],[6.799908161000019,8.75154590599999],[6.803644179999992,8.755282401999978],[6.80898141900002,8.753147124999998],[6.814318657000001,8.753681183000026],[6.820189475999996,8.761153220999972],[6.814318657000001,8.768091201999994],[6.800975800000003,8.769159317000003],[6.795638560999976,8.777164459000005],[6.797239779999984,8.784103393999999],[6.802042960999984,8.787304877999986],[6.809514998999987,8.787838936000014],[6.8153858179999816,8.792642592999982],[6.819121838000001,8.801715850999983],[6.821256638000023,8.812390327000003],[6.8233919140000125,8.818794249999996],[6.833265304999998,8.823063849999983],[6.837535381000009,8.826266288999989],[6.840203761999987,8.831604003999985],[6.845007420000002,8.833738326999992],[6.85141181900002,8.835339546],[6.855147838999983,8.844946860999983],[6.860485077000021,8.847615242000018],[6.869024276999994,8.843878745999973],[6.872226715000011,8.844946860999983],[6.872226715000011,8.851350783999976],[6.8743615149999755,8.857755660999999],[6.873827934000019,8.863626479999994],[6.872226715000011,8.872166633999996],[6.874895095999989,8.879638671999999],[6.8780975340000055,8.882840156999976],[6.880232334000027,8.888177872000028],[6.885035991999985,8.892447472000015],[6.888772011000015,8.897251128999983],[6.88290119200002,8.901520729000026],[6.884407520000025,8.908621788000005],[6.883968353,8.914329528999986],[6.888772011000015,8.921801566999989],[6.892508029999988,8.927139281999985],[6.898378848999982,8.92980766300002],[6.897845268000026,8.935144423999986],[6.897845268000026,8.939948082],[6.8973112109999875,8.944217681999987],[6.898912429999996,8.95062255900001],[6.902114868000012,8.954892158999996],[6.901047230000017,8.960229873999992],[6.898912429999996,8.96343135799998],[6.898912429999996,8.968235015999994],[6.896777629999974,8.97303867300002],[6.893041611000001,8.975173949999999],[6.892508029999988,8.983179092],[6.887704371999973,8.989583969000023],[6.881833552999979,8.991718291999973],[6.880766391999998,8.99492073099998],[6.879698753000014,9.005061150000017],[6.877030373000025,9.011466025999994],[6.875962733999984,9.019472122000025],[6.873827934000019,9.02641010299999],[6.866355896000016,9.041354178999995],[6.867423534000011,9.04615783700001],[6.870625496000002,9.047759056000018],[6.873827934000019,9.050961493999978],[6.8743615149999755,9.054163932999984],[6.873827934000019,9.061101913000016],[6.8743615149999755,9.066972733],[6.877030373000025,9.072309494000024],[6.8780975340000055,9.07871437099999],[6.8812999730000115,9.081916809000006],[6.8812999730000115,9.086186408999993],[6.881833552999979,9.092057227999987],[6.886637210999993,9.092057227999987],[6.888772011000015,9.097928046999982],[6.889305592000028,9.109669684999972],[6.886103153000022,9.119811057999982],[6.889305592000028,9.124613762000024],[6.892508029999988,9.12888336200001],[6.890906810999979,9.133687018999979],[6.880766391999998,9.132619857999998],[6.877030373000025,9.138490676999993],[6.87916517299999,9.149699210999984],[6.878631115000019,9.159305572999983],[6.877563952999992,9.163042067999982],[6.877563952999992,9.171581268000011],[6.880766391999998,9.177986144999977],[6.8855695720000085,9.184924125999999],[6.889839171999995,9.189727783000023],[6.888772011000015,9.198266982999996],[6.892508029999988,9.205204964000018],[6.897845268000026,9.204671860000019],[6.906384467999999,9.196665763999988],[6.9127893450000215,9.195598602000018],[6.918126583000003,9.198266982999996],[6.920794963999981,9.197732925000025],[6.924530983000011,9.197732925000025],[6.930935383000019,9.199868202000005],[6.937340259999985,9.198801041000024],[6.945879459000025,9.202002525000012],[6.949615478999988,9.205204964000018],[6.952817917000004,9.204137801999991],[6.958155154999986,9.20307064100001],[6.961357593999992,9.206806183000026],[6.965093613000022,9.210542679000014],[6.966160774000002,9.216946602000007],[6.962424754999972,9.219081878999987],[6.959756373999994,9.223885536000012],[6.963492393000024,9.228155135999998],[6.968295574000024,9.231890678000013],[6.972031592999997,9.232958794000012],[6.974166393000019,9.229222298000025],[6.97470045099999,9.224952697999981],[6.9795036319999895,9.223885536000012],[6.980037689000028,9.229756355000006],[6.983773708000001,9.231890678000013],[6.991245746999994,9.231890678000013],[6.993914126999982,9.236694336000028],[7.005655766000018,9.24630165100001],[7.013661861000003,9.244166373999974],[7.025403499999982,9.247902870000019],[7.030075072999978,9.257713318000015]]]},"properties":{"fid":239,"cty_nm":"Nigeria","iso3cd":"NGA","adm1nm":"Federal Capital Territory","adm2nm":"Abaji","adm1cd":"NGA015","adm2cd":"NGA015001"}},{"type":"Feature","id":240,"geometry":{"type":"Polygon","coordinates":[[[7.730054854999992,9.331963539000014],[7.719591617999981,9.346354485000006],[7.672389029999977,9.411277771000016],[7.589875221,9.431607245999999],[7.509752750000018,9.361051558999975],[7.496598720999998,9.362247466999975],[7.476269245000026,9.370618820000004],[7.463114738000002,9.368227004999994],[7.445176601000014,9.369422912999994],[7.417672157000027,9.367031096999995],[7.3985385889999975,9.357463837000012],[7.393836021000027,9.353999138000006],[7.388168334999989,9.34982299799998],[7.249756812999976,9.155721663999998],[7.266910075999988,9.153434752999999],[7.305337905999977,9.153434752999999],[7.332023621000019,9.159839630000022],[7.367782593000015,9.156637192000005],[7.383260249999978,9.165710449000017],[7.412081241999999,9.16464328799998],[7.444104195000023,9.167844772000024],[7.530032157999983,9.167311668000025],[7.582870483000022,9.159839630000022],[7.587140083000008,9.161440848999973],[7.6033191679999845,9.161440848999973],[7.667605877000028,9.30365085599999],[7.730054854999992,9.331963539000014]]]},"properties":{"fid":240,"cty_nm":"Nigeria","iso3cd":"NGA","adm1nm":"Federal Capital Territory","adm2nm":"Bwari","adm1cd":"NGA015","adm2cd":"NGA015003"}},{"type":"Feature","id":241,"geometry":{"type":"Polygon","coordinates":[[[7.167658329000005,9.15311813400001],[7.030075072999978,9.257713318000015],[7.025403499999982,9.247902870000019],[7.013661861000003,9.244166373999974],[7.005655766000018,9.24630165100001],[6.993914126999982,9.236694336000028],[6.991245746999994,9.231890678000013],[6.983773708000001,9.231890678000013],[6.980037689000028,9.229756355000006],[6.9795036319999895,9.223885536000012],[6.97470045099999,9.224952697999981],[6.974166393000019,9.229222298000025],[6.972031592999997,9.232958794000012],[6.968295574000024,9.231890678000013],[6.963492393000024,9.228155135999998],[6.959756373999994,9.223885536000012],[6.962424754999972,9.219081878999987],[6.966160774000002,9.216946602000007],[6.965093613000022,9.210542679000014],[6.961357593999992,9.206806183000026],[6.958155154999986,9.20307064100001],[6.952817917000004,9.204137801999991],[6.949615478999988,9.205204964000018],[6.945879459000025,9.202002525000012],[6.937340259999985,9.198801041000024],[6.930935383000019,9.199868202000005],[6.924530983000011,9.197732925000025],[6.920794963999981,9.197732925000025],[6.918126583000003,9.198266982999996],[6.9127893450000215,9.195598602000018],[6.906384467999999,9.196665763999988],[6.897845268000026,9.204671860000019],[6.892508029999988,9.205204964000018],[6.888772011000015,9.198266982999996],[6.889839171999995,9.189727783000023],[6.8855695720000085,9.184924125999999],[6.880766391999998,9.177986144999977],[6.877563952999992,9.171581268000011],[6.877563952999992,9.163042067999982],[6.878631115000019,9.159305572999983],[6.87916517299999,9.149699210999984],[6.877030373000025,9.138490676999993],[6.880766391999998,9.132619857999998],[6.890906810999979,9.133687018999979],[6.892508029999988,9.12888336200001],[6.889305592000028,9.124613762000024],[6.886103153000022,9.119811057999982],[6.889305592000028,9.109669684999972],[6.888772011000015,9.097928046999982],[6.886637210999993,9.092057227999987],[6.881833552999979,9.092057227999987],[6.8812999730000115,9.086186408999993],[6.8812999730000115,9.081916809000006],[6.8780975340000055,9.07871437099999],[6.877030373000025,9.072309494000024],[6.8743615149999755,9.066972733],[6.873827934000019,9.061101913000016],[6.8743615149999755,9.054163932999984],[6.873827934000019,9.050961493999978],[6.870625496000002,9.047759056000018],[6.867423534000011,9.04615783700001],[6.866355896000016,9.041354178999995],[6.873827934000019,9.02641010299999],[6.875962733999984,9.019472122000025],[6.877030373000025,9.011466025999994],[6.879698753000014,9.005061150000017],[6.880766391999998,8.99492073099998],[6.881833552999979,8.991718291999973],[6.887704371999973,8.989583969000023],[6.892508029999988,8.983179092],[6.893041611000001,8.975173949999999],[6.896777629999974,8.97303867300002],[6.898912429999996,8.968235015999994],[6.898912429999996,8.96343135799998],[6.901047230000017,8.960229873999992],[6.902114868000012,8.954892158999996],[6.898912429999996,8.95062255900001],[6.8973112109999875,8.944217681999987],[6.897845268000026,8.939948082],[6.897845268000026,8.935144423999986],[6.898378848999982,8.92980766300002],[6.892508029999988,8.927139281999985],[6.888772011000015,8.921801566999989],[6.883968353,8.914329528999986],[6.884407520000025,8.908621788000005],[7.120918274000019,8.900915145999988],[7.117736340000022,8.906324386999984],[7.115067958999987,8.919667243999982],[7.1134667399999785,8.93301010099998],[7.101458073000003,8.938346862999992],[7.097188473000017,8.945818900999996],[7.10092449199999,8.955959319999977],[7.110531330000015,8.960762977999991],[7.122806549000018,8.97303867300002],[7.132947445000013,8.984780311999998],[7.1404194830000165,8.991718291999973],[7.14415550199999,9.001859664999984],[7.154829501999984,9.01573562599998],[7.168172358999982,9.028011321999998],[7.170841216999975,9.033349036999994],[7.1911225320000085,9.04829311399999],[7.20126295099999,9.065905570999973],[7.209802627999977,9.080315589999998],[7.214072226999974,9.087787628000001],[7.218875407999974,9.101130485999988],[7.220476626999982,9.10806846600002],[7.2197580339999945,9.113510131999988],[7.167658329000005,9.15311813400001]]]},"properties":{"fid":241,"cty_nm":"Nigeria","iso3cd":"NGA","adm1nm":"Federal Capital Territory","adm2nm":"Gwagwalada","adm1cd":"NGA015","adm2cd":"NGA015004"}},{"type":"Feature","id":264,"geometry":{"type":"Polygon","coordinates":[[[7.477623462999986,8.631333351000023],[7.475593090000018,8.632527351000022],[7.46545267099998,8.633061408999993],[7.4569129939999925,8.63412857100002],[7.44463777499999,8.631993293999983],[7.434496879999983,8.630393028000015],[7.4296936989999836,8.633061408999993],[7.4296936989999836,8.638398170000016],[7.430760860000021,8.645870209000009],[7.437165736999987,8.652275084999985],[7.438232899000013,8.65494346600002],[7.443570136999995,8.658145905000026],[7.452109813999982,8.659213066000007],[7.462784290000002,8.663482665999993],[7.471857070999988,8.670954703999996],[7.481997966999984,8.678426742999989],[7.484666348000019,8.684831619000022],[7.489470004999987,8.691236495999988],[7.497475624000003,8.704045296000004],[7.506548882000004,8.715253829999995],[7.509217261999993,8.72112464899999],[7.510284900999977,8.723258971999996],[7.516155719999972,8.72966384900002],[7.5188241000000176,8.739804268],[7.523094177000019,8.747810363999974],[7.52256011999998,8.752079964000018],[7.516155719999972,8.757416724999985],[7.510284900999977,8.757416724999985],[7.499610424000025,8.760086059999992],[7.490537167000014,8.765422821000016],[7.4852004050000005,8.77236080199998],[7.480396747999976,8.784103393999999],[7.479863167000019,8.792108536],[7.478795527999978,8.795310974000017],[7.478795527999978,8.799580574000004],[7.481997966999984,8.803317069999991],[7.479329108999991,8.806519508000008],[7.467053889999988,8.807586669999978],[7.454778194000028,8.811856270000021],[7.441968917999986,8.812923431000002],[7.409412384000007,8.817727089000016],[7.404075146000025,8.816125870000008],[7.370985030999975,8.817193030999988],[7.3523049350000065,8.818794249999996],[7.331490040000006,8.821463585000004],[7.312275886999998,8.832137107999984],[7.293595790999973,8.838541985000006],[7.268511294999996,8.854020118999983],[7.256235600000025,8.860958099000015],[7.2386231419999945,8.874300957000003],[7.217808246999994,8.888177872000028],[7.200195312000005,8.896183013999973],[7.187920093999992,8.89938545199999],[7.16977357899998,8.909526825],[7.16497039799998,8.908992766999972],[7.16176796000002,8.91112708999998],[7.146823883000025,8.916464806000022],[7.132947445000013,8.925538062999976],[7.1134667399999785,8.93301010099998],[7.115067958999987,8.919667243999982],[7.117736340000022,8.906324386999984],[7.120918274000019,8.900915145999988],[7.123073578000003,8.897251128999983],[7.132146835000015,8.884975433000022],[7.150292873000012,8.86682891800001],[7.156697749999978,8.860958099000015],[7.163635730999999,8.858822823000025],[7.178046226999982,8.848149299999989],[7.187119483999993,8.838007926999978],[7.1913890839999794,8.823063849999983],[7.189254284000015,8.808653831000015],[7.180181026000014,8.796912193000026],[7.174843787999976,8.792642592999982],[7.154562950000013,8.78517055499998],[7.137484073999985,8.781434058999992],[7.128410815999985,8.777698516999976],[7.117202759000008,8.767558097999995],[7.105994700999986,8.754215240000008],[7.102792263000026,8.74193954499998],[7.09958982500001,8.726461411000002],[7.102258682000013,8.70831489599999],[7.109730721000005,8.692837714999996],[7.117202759000008,8.680562018999979],[7.117202759000008,8.665617942999972],[7.112399100999994,8.644803046999982],[7.103325843999983,8.628257750999978],[7.076106547999984,8.617050171000017],[7.063830853000013,8.610111237000012],[7.048886776000018,8.601572036999983],[7.0376787189999845,8.59303283700001],[7.023802279999984,8.58235836],[7.008324623000021,8.565279007000015],[7.002453804000027,8.558341025999994],[6.997116565999988,8.55140209199999],[6.9917793270000175,8.542329788000018],[6.985908508000023,8.531655311999998],[6.987509726999974,8.527385712000012],[6.994447707999996,8.51884555800001],[6.998717784999997,8.515643119999993],[7.000852585000018,8.505502701000012],[7.004588603999991,8.492159843000024],[7.00031852699999,8.485221862999992],[6.9949817660000235,8.478816986000027],[6.991245746999994,8.474547385999983],[6.991245746999994,8.463339806000022],[6.991440773000022,8.459823608000022],[7.025258064000013,8.461647986999992],[7.057121753999979,8.462965011999984],[7.084213734000002,8.463680266999972],[7.1167411800000195,8.46622180899999],[7.162991046999991,8.473337173000004],[7.210765362000018,8.480960846000016],[7.2711839680000026,8.49246597299998],[7.312413215999982,8.500782012999991],[7.3423995969999964,8.510438919000023],[7.368616581000026,8.529129028],[7.389157295000018,8.545507430999976],[7.4181270600000175,8.569902420000005],[7.443030834000012,8.593281746000002],[7.477623462999986,8.631333351000023]]]},"properties":{"fid":264,"cty_nm":"Nigeria","iso3cd":"NGA","adm1nm":"Federal Capital Territory","adm2nm":"Kuje","adm1cd":"NGA015","adm2cd":"NGA015005"}},{"type":"Feature","id":265,"geometry":{"type":"Polygon","coordinates":[[[7.120918274000019,8.900915145999988],[6.884407520000025,8.908621788000005],[6.88290119200002,8.901520729000026],[6.888772011000015,8.897251128999983],[6.885035991999985,8.892447472000015],[6.880232334000027,8.888177872000028],[6.8780975340000055,8.882840156999976],[6.874895095999989,8.879638671999999],[6.872226715000011,8.872166633999996],[6.873827934000019,8.863626479999994],[6.8743615149999755,8.857755660999999],[6.872226715000011,8.851350783999976],[6.872226715000011,8.844946860999983],[6.869024276999994,8.843878745999973],[6.860485077000021,8.847615242000018],[6.855147838999983,8.844946860999983],[6.85141181900002,8.835339546],[6.845007420000002,8.833738326999992],[6.840203761999987,8.831604003999985],[6.837535381000009,8.826266288999989],[6.833265304999998,8.823063849999983],[6.8233919140000125,8.818794249999996],[6.821256638000023,8.812390327000003],[6.819121838000001,8.801715850999983],[6.8153858179999816,8.792642592999982],[6.809514998999987,8.787838936000014],[6.802042960999984,8.787304877999986],[6.797239779999984,8.784103393999999],[6.795638560999976,8.777164459000005],[6.800975800000003,8.769159317000003],[6.814318657000001,8.768091201999994],[6.820189475999996,8.761153220999972],[6.814318657000001,8.753681183000026],[6.80898141900002,8.753147124999998],[6.803644179999992,8.755282401999978],[6.799908161000019,8.75154590599999],[6.799374580000006,8.746209145000023],[6.792969703999972,8.744073867999987],[6.794570922999981,8.739271164000002],[6.802576541999997,8.74087238300001],[6.81004858,8.736601829999984],[6.816453457000023,8.733400345000007],[6.8153858179999816,8.72806263000001],[6.810582638000028,8.725928307000004],[6.81004858,8.719523429999981],[6.81004858,8.715253829999995],[6.803644179999992,8.711517334000007],[6.798840523000024,8.705646515000012],[6.801509380000027,8.69870853399999],[6.808447838000006,8.692837714999996],[6.811649799000008,8.691769599999986],[6.818054675999974,8.696040154000002],[6.823925495000026,8.697640418999981],[6.827127933999975,8.693370818999995],[6.824992656999996,8.6875],[6.822857856999974,8.684831619000022],[6.818588256999988,8.682163238999976],[6.8121838569999795,8.677359581000019],[6.807380199000022,8.676292418999992],[6.803644179999992,8.67575836200001],[6.799908161000019,8.673089980999976],[6.803110600000025,8.664550781000003],[6.8079137799999785,8.657078743],[6.803110600000025,8.652275084999985],[6.804177761000005,8.64640426599999],[6.8121838569999795,8.64640426599999],[6.8148522380000145,8.638932227999987],[6.8111162189999845,8.635729790000028],[6.804177761000005,8.635195732],[6.803110600000025,8.630926132000013],[6.8079137799999785,8.626122474999988],[6.814318657000001,8.62558937099999],[6.816453457000023,8.621319771000003],[6.8159198760000095,8.616516112999989],[6.813251019000006,8.61438083600001],[6.813251019000006,8.610645293999994],[6.817520618000003,8.609044074999986],[6.822324276000018,8.607442855999977],[6.825526713999977,8.604774475],[6.829796314000021,8.602106094000021],[6.834866524000006,8.599970817999974],[6.836467743000014,8.593565941000008],[6.833799361999979,8.586093903000005],[6.832731723999984,8.58235836],[6.835934162000001,8.581290244999991],[6.845007420000002,8.581824303000019],[6.8508782389999965,8.579689980000012],[6.852479458000005,8.577020645000005],[6.856215476999978,8.576487541000006],[6.863687514999981,8.579155921999984],[6.869558333999976,8.583425522000027],[6.8812999730000115,8.586627959999987],[6.893041611000001,8.581290244999991],[6.903716087000021,8.571683883999981],[6.919727324999997,8.564745903000016],[6.932003021000014,8.560475349],[6.948548317000018,8.55086898799999],[6.963492393000024,8.542862892000016],[6.972565651000025,8.537526130999993],[6.981638432000011,8.529520035000019],[6.987509726999974,8.527385712000012],[6.985908508000023,8.531655311999998],[6.9917793270000175,8.542329788000018],[6.997116565999988,8.55140209199999],[7.002453804000027,8.558341025999994],[7.008324623000021,8.565279007000015],[7.023802279999984,8.58235836],[7.0376787189999845,8.59303283700001],[7.048886776000018,8.601572036999983],[7.063830853000013,8.610111237000012],[7.076106547999984,8.617050171000017],[7.103325843999983,8.628257750999978],[7.112399100999994,8.644803046999982],[7.117202759000008,8.665617942999972],[7.117202759000008,8.680562018999979],[7.109730721000005,8.692837714999996],[7.102258682000013,8.70831489599999],[7.09958982500001,8.726461411000002],[7.102792263000026,8.74193954499998],[7.105994700999986,8.754215240000008],[7.117202759000008,8.767558097999995],[7.128410815999985,8.777698516999976],[7.137484073999985,8.781434058999992],[7.154562950000013,8.78517055499998],[7.174843787999976,8.792642592999982],[7.180181026000014,8.796912193000026],[7.189254284000015,8.808653831000015],[7.1913890839999794,8.823063849999983],[7.187119483999993,8.838007926999978],[7.178046226999982,8.848149299999989],[7.163635730999999,8.858822823000025],[7.156697749999978,8.860958099000015],[7.150292873000012,8.86682891800001],[7.132146835000015,8.884975433000022],[7.123073578000003,8.897251128999983],[7.120918274000019,8.900915145999988]]]},"properties":{"fid":265,"cty_nm":"Nigeria","iso3cd":"NGA","adm1nm":"Federal Capital Territory","adm2nm":"Kwali","adm1cd":"NGA015","adm2cd":"NGA015006"}},{"type":"Feature","id":266,"geometry":{"type":"Polygon","coordinates":[[[7.6033191679999845,9.161440848999973],[7.587140083000008,9.161440848999973],[7.582870483000022,9.159839630000022],[7.530032157999983,9.167311668000025],[7.444104195000023,9.167844772000024],[7.412081241999999,9.16464328799998],[7.383260249999978,9.165710449000017],[7.367782593000015,9.156637192000005],[7.332023621000019,9.159839630000022],[7.305337905999977,9.153434752999999],[7.266910075999988,9.153434752999999],[7.249756812999976,9.155721663999998],[7.233965873999978,9.133502007000004],[7.2197580339999945,9.113510131999988],[7.220476626999982,9.10806846600002],[7.218875407999974,9.101130485999988],[7.214072226999974,9.087787628000001],[7.209802627999977,9.080315589999998],[7.20126295099999,9.065905570999973],[7.1911225320000085,9.04829311399999],[7.170841216999975,9.033349036999994],[7.168172358999982,9.028011321999998],[7.154829501999984,9.01573562599998],[7.14415550199999,9.001859664999984],[7.1404194830000165,8.991718291999973],[7.132947445000013,8.984780311999998],[7.122806549000018,8.97303867300002],[7.110531330000015,8.960762977999991],[7.10092449199999,8.955959319999977],[7.097188473000017,8.945818900999996],[7.101458073000003,8.938346862999992],[7.1134667399999785,8.93301010099998],[7.132947445000013,8.925538062999976],[7.146823883000025,8.916464806000022],[7.16176796000002,8.91112708999998],[7.16497039799998,8.908992766999972],[7.16977357899998,8.909526825],[7.187920093999992,8.89938545199999],[7.200195312000005,8.896183013999973],[7.217808246999994,8.888177872000028],[7.2386231419999945,8.874300957000003],[7.256235600000025,8.860958099000015],[7.268511294999996,8.854020118999983],[7.293595790999973,8.838541985000006],[7.312275886999998,8.832137107999984],[7.331490040000006,8.821463585000004],[7.3523049350000065,8.818794249999996],[7.370985030999975,8.817193030999988],[7.404075146000025,8.816125870000008],[7.409412384000007,8.817727089000016],[7.441968917999986,8.812923431000002],[7.454778194000028,8.811856270000021],[7.467053889999988,8.807586669999978],[7.479329108999991,8.806519508000008],[7.481997966999984,8.803317069999991],[7.478795527999978,8.799580574000004],[7.478795527999978,8.795310974000017],[7.479863167000019,8.792108536],[7.480396747999976,8.784103393999999],[7.4852004050000005,8.77236080199998],[7.490537167000014,8.765422821000016],[7.499610424000025,8.760086059999992],[7.510284900999977,8.757416724999985],[7.516155719999972,8.757416724999985],[7.52256011999998,8.752079964000018],[7.523094177000019,8.747810363999974],[7.5188241000000176,8.739804268],[7.516155719999972,8.72966384900002],[7.510284900999977,8.723258971999996],[7.509217261999993,8.72112464899999],[7.506548882000004,8.715253829999995],[7.497475624000003,8.704045296000004],[7.489470004999987,8.691236495999988],[7.484666348000019,8.684831619000022],[7.481997966999984,8.678426742999989],[7.471857070999988,8.670954703999996],[7.462784290000002,8.663482665999993],[7.452109813999982,8.659213066000007],[7.443570136999995,8.658145905000026],[7.438232899000013,8.65494346600002],[7.437165736999987,8.652275084999985],[7.430760860000021,8.645870209000009],[7.4296936989999836,8.638398170000016],[7.4296936989999836,8.633061408999993],[7.434496879999983,8.630393028000015],[7.44463777499999,8.631993293999983],[7.4569129939999925,8.63412857100002],[7.46545267099998,8.633061408999993],[7.475593090000018,8.632527351000022],[7.477623462999986,8.631333351000023],[7.479258537000021,8.632776260000014],[7.493228435999981,8.650736809000023],[7.496000766999998,8.654301642999997],[7.501979828000003,8.668651581000006],[7.541442871000015,8.740403174999983],[7.56530141799999,8.785279274000004],[7.591669082999999,8.834875107000016],[7.594658852000009,8.856400489999999],[7.59226703600001,8.924564362000012],[7.5886793139999895,9.129055977000007],[7.6033191679999845,9.161440848999973]]]},"properties":{"fid":266,"cty_nm":"Nigeria","iso3cd":"NGA","adm1nm":"Federal Capital Territory","adm2nm":"Abuja Municipal","adm1cd":"NGA015","adm2cd":"NGA015002"}}]}