{"type":"FeatureCollection","features":[{"type":"Feature","id":464,"geometry":{"type":"Polygon","coordinates":[[[4.479101180999976,8.561439514000028],[4.478637218000017,8.564689636000026],[4.4725394249999795,8.576376915000026],[4.4547543529999984,8.590604782000014],[4.442050934000008,8.60889720900002],[4.420709610000017,8.631256103999988],[4.394794463999972,8.656154633000028],[4.368879317999983,8.67393875099998],[4.342456341000002,8.690199851999978],[4.329244614000004,8.69324874900002],[4.306886673000008,8.695281029],[4.28097152700002,8.698329925999985],[4.247942923999972,8.700362206000023],[4.225584984000022,8.702394485000013],[4.206113338000023,8.703819275],[4.210346699000013,8.691824913000005],[4.213420868000014,8.682601928999986],[4.20914363899999,8.68065833999998],[4.2597684859999845,8.575006485000017],[4.348138808999977,8.391195297000024],[4.391735077000021,8.304002761999982],[4.417978286999983,8.273376465000013],[4.441759585999989,8.252991676000022],[4.460104941999987,8.236005782999996],[4.477091312000027,8.218339920000005],[4.483886241999983,8.20271205900002],[4.4900012019999735,8.182328224000003],[4.494078159000026,8.166700363000018],[4.494078159000026,8.14971351600002],[4.494078159000026,8.133406638999986],[4.494964122999988,8.122775078000018],[4.504528521999987,8.125608444000022],[4.5195484160000206,8.130329131999986],[4.527701854999975,8.132045746000017],[4.535855292999997,8.135049820000006],[4.558599472000026,8.14663600900002],[4.566753387000006,8.152644156999997],[4.575765133000004,8.155219078000016],[4.584347724999986,8.159081458999992],[4.591642857000011,8.166805266999972],[4.594646931,8.171096802000022],[4.597651004999989,8.186116218999985],[4.592930317000025,8.198561668000025],[4.58863925899999,8.204569816999992],[4.584776878000014,8.212722778],[4.583060264999972,8.220018386999982],[4.583060264999972,8.229458808999993],[4.583060264999972,8.235037804000001],[4.584776878000014,8.240187644999992],[4.590785026999981,8.251344680999978],[4.601084232000005,8.26336097699999],[4.622111797000002,8.281384467999999],[4.624257087999979,8.28868007699998],[4.627690314999995,8.303270339999983],[4.628977775999999,8.30884933499999],[4.637989521000009,8.326872825999999],[4.641851901999985,8.336314200999993],[4.650005340999996,8.346612929999992],[4.654726028000027,8.350046157999998],[4.6641068459999815,8.35635375999999],[4.649371147000011,8.373122215000024],[4.643781661999981,8.376679420000016],[4.629340172000013,8.380662917999985],[4.631586074999973,8.374138832000028],[4.628537177999988,8.371597290000011],[4.62599659,8.376679420000016],[4.621423720999985,8.383792877000019],[4.614309788000014,8.393447875999982],[4.590519905000008,8.404359817999989],[4.56806898100001,8.410216331000015],[4.552316666000024,8.412248610999995],[4.537072658999989,8.41529750799998],[4.526909827999987,8.421903610000015],[4.5187797550000255,8.424952507],[4.5157308579999835,8.432065964000003],[4.511157990000015,8.436638832000028],[4.505060195999988,8.443753242000014],[4.499978542000008,8.457472800999994],[4.494897365999975,8.47779846200001],[4.48981618900001,8.488469124000005],[4.483718394999983,8.507269859000019],[4.47914505,8.535725593999985],[4.4760961530000145,8.549953460999973],[4.479101180999976,8.561439514000028]]]},"properties":{"fid":464,"cty_nm":"Nigeria","iso3cd":"NGA","adm1nm":"Kwara","adm2nm":"Asa","adm1cd":"NGA024","adm2cd":"NGA024001"}},{"type":"Feature","id":465,"geometry":{"type":"Polygon","coordinates":[[[5.525417805000018,8.940100669999993],[5.511850833999972,8.944170951999979],[5.49760580100002,8.944170951999979],[5.4853954320000184,8.944849013999999],[5.473863601999994,8.947562217999973],[5.466402054000014,8.954345703000001],[5.460975169999983,8.962486266999974],[5.457583426999975,8.96859073600001],[5.445373534999987,8.972661017999997],[5.4365549089999945,8.975374222000028],[5.425023079000027,8.978766441000005],[5.4080648419999875,8.978766441000005],[5.391106128999979,8.982835770000008],[5.375504493999983,8.990297317999989],[5.37007761000001,8.996402740000008],[5.348370552000006,8.998437880999973],[5.332090377999975,8.995724677999988],[5.3232722280000075,8.992332458000021],[5.307670115999997,9.000473021999994],[5.297495364999975,9.003186226000025],[5.286641598000017,9.009969710999997],[5.272396564000019,9.014718055999992],[5.254759788999991,9.016753197000014],[5.237801074999993,9.018788337999979],[5.225591183000006,9.02692794799998],[5.208971976999976,9.03506851200001],[5.196761607999974,9.054061890000014],[5.171663283999976,9.087300301000028],[5.159452914999974,9.106972693999978],[5.130962849000014,9.123252868999998],[5.1078991890000225,9.135462760999985],[5.0848355289999745,9.150385857000003],[5.065163611999992,9.16259670300002],[5.048204898999984,9.187694550000003],[5.032603263999988,9.197870254999998],[5.016323090000014,9.20533180199999],[4.996651172999975,9.207366943000011],[4.971552848999977,9.200583457999983],[4.962055683000017,9.193121910000002],[4.9417057040000145,9.18430328400001],[4.923390387999973,9.17616271999998],[4.911180495999986,9.171414374999983],[4.898970126999984,9.170058250000011],[4.886081696000019,9.167345047000026],[4.876585007000017,9.161239624000018],[4.876071453000009,9.157646178999983],[4.879298210000002,9.152420998000025],[4.881333351000023,9.146316528],[4.884046554999998,9.140889168000001],[4.889473437999982,9.136140823000005],[4.887438297000017,9.131392478999999],[4.886081696000019,9.124608994000027],[4.8915085790000035,9.119182587000012],[4.897613524999997,9.11714744599999],[4.899648666000019,9.106293677999986],[4.900326729000028,9.099510193000015],[4.900326729000028,9.092048644999977],[4.900326729000028,9.086622238000018],[4.898292065000021,9.082551955999975],[4.897613524999997,9.075090407999994],[4.892186642000013,9.069664000999978],[4.890830040000026,9.063558578000027],[4.892865180999991,9.059488296999973],[4.890408039000022,9.056834220999974],[4.896212101000003,9.042737961],[4.9028458600000135,9.027812958000027],[4.907820701999981,9.019520759999978],[4.907820701999981,9.003766059999975],[4.907820701999981,8.993816375999984],[4.9028458600000135,8.986353873999974],[4.897041321000017,8.975573540000028],[4.897041321000017,8.966452598999979],[4.895382880999989,8.938260077999985],[4.894553660999975,8.907580375999999],[4.894553660999975,8.901776314000017],[4.90533351900001,8.882704735000004],[4.925233841000022,8.866950035000002],[4.950109482000016,8.856170653999982],[4.960059643000022,8.852853775000028],[4.968351841000015,8.847879410000019],[4.9849352840000165,8.84290409099998],[4.993227482000009,8.836270332000026],[4.997373104000019,8.828807831000006],[5.011469363999993,8.829636574000006],[5.029711722999991,8.826319694999995],[5.051270484999975,8.817198753000014],[5.057074547000013,8.807249069000022],[5.078633785000022,8.767447472000015],[5.081121445000008,8.756668090999995],[5.090242386,8.737596511999982],[5.098534106999978,8.729305266999972],[5.109313487999998,8.725988388000019],[5.120922088999976,8.716867447000027],[5.139993667999988,8.709404945000017],[5.156577587000015,8.700283050999985],[5.162381648999997,8.694478989000004],[5.193061828999987,8.689503670000022],[5.208816050999985,8.678724289000002],[5.237008571999979,8.660482407000018],[5.257738113000016,8.655507087999979],[5.274322032999976,8.656336784000018],[5.290076732999978,8.66960334800001],[5.305002213000023,8.685358047000022],[5.318269252999983,8.697795868000014],[5.326560974000017,8.705258368999978],[5.338998795000009,8.709404945000017],[5.355582713999979,8.713550568000016],[5.372166156999981,8.716037749999998],[5.380458354999973,8.716037749999998],[5.402846335999982,8.704429625999978],[5.40865039800002,8.700283050999985],[5.413625717000002,8.686187743999994],[5.420673846999989,8.65882396699999],[5.423161506999975,8.640582085000005],[5.4239907259999995,8.613218307000011],[5.420673846999989,8.591659546000017],[5.419015408000007,8.569272040999977],[5.420673846999989,8.548542022999982],[5.420673846999989,8.533617020000008],[5.425649166000028,8.516203879999978],[5.435599326999977,8.492156981999983],[5.440574169000001,8.485524177999991],[5.4463787079999975,8.47971916199998],[5.453513622000003,8.486290931999974],[5.465723514999979,8.49239540100001],[5.476577281999994,8.49985790300002],[5.490143776000025,8.518173218000015],[5.496249198999976,8.529026031],[5.50303220699999,8.534453391999989],[5.510494231999985,8.535131454000009],[5.514564037000014,8.535131454000009],[5.513207436000016,8.538522720000003],[5.5172777180000026,8.550054550000027],[5.515920639000001,8.558195114],[5.503710747000014,8.579223633000026],[5.486073970999996,8.609748840000009],[5.477255344000014,8.635525702999985],[5.463010311000005,8.665372848999993],[5.457583426999975,8.675547600000016],[5.45487022399999,8.699289322000027],[5.450121879999983,8.720317840999996],[5.454191685000012,8.747451781999985],[5.46029710800002,8.764410019000024],[5.461653709000018,8.78272533400002],[5.462331772000027,8.796970366999972],[5.461653709000018,8.804432868999982],[5.450121879999983,8.82681751299998],[5.447408676000009,8.842419624000001],[5.4480867390000185,8.861413002000006],[5.4582619669999985,8.868196486999977],[5.466402054000014,8.87837123899999],[5.473185538999985,8.88583374000001],[5.479969025000003,8.895330429000012],[5.492857456000024,8.906183242999987],[5.5064239499999985,8.913645744000007],[5.516599177999979,8.920428275999996],[5.522704123999972,8.93060398099999],[5.525417805000018,8.937387466000018],[5.525417805000018,8.940100669999993]]]},"properties":{"fid":465,"cty_nm":"Nigeria","iso3cd":"NGA","adm1nm":"Kwara","adm2nm":"Edu","adm1cd":"NGA024","adm2cd":"NGA024003"}},{"type":"Feature","id":466,"geometry":{"type":"Polygon","coordinates":[[[5.497963905000006,8.110664368000016],[5.497963905000006,8.114674567999998],[5.50448465300002,8.123804092],[5.5179615019999915,8.131194115000028],[5.526221275000012,8.139019965999978],[5.5327424999999835,8.146844864000002],[5.536654949000024,8.15640926399999],[5.53708982500001,8.163364409999986],[5.538393973999973,8.17858028400002],[5.539698123999983,8.190752982999982],[5.539698123999983,8.198577881000006],[5.53708982500001,8.205533980999974],[5.530568599999981,8.21118545500002],[5.5244822500000055,8.215967178000028],[5.512310028000002,8.216402054000014],[5.494920730999979,8.214663506000022],[5.477531433000024,8.205099105999977],[5.47187948200002,8.204229354999995],[5.466228007999973,8.202490807000004],[5.4575333600000135,8.206403732000012],[5.454055786000026,8.197709083999996],[5.434492588000012,8.185101508999992],[5.405365467000024,8.17858028400002],[5.36623954800001,8.171190261999982],[5.34624147400001,8.171190261999982],[5.323635577999994,8.168147087000023],[5.2962474820000125,8.161190986999998],[5.276684283999998,8.153366088999974],[5.241470814000024,8.142063140999994],[5.206257343000004,8.125977515999978],[5.190607070999988,8.11336994200002],[5.170174599000006,8.081199646000016],[5.163653850999992,8.055550574999984],[5.1626114850000135,8.04950618700002],[5.164929867000012,8.047187805000021],[5.176972866000028,8.038908957999979],[5.181865215000016,8.036273956000002],[5.188262939000026,8.029500008000014],[5.191649913999981,8.022350311000025],[5.195789337000008,8.018210410999984],[5.202939986999979,8.017081260999987],[5.220251082999994,8.020844459999978],[5.230788707999977,8.021973609999975],[5.244451523000009,8.02053546899998],[5.256755828999985,8.018210410999984],[5.262400626999977,8.012941360000013],[5.269551277000005,8.011059761000013],[5.2828621859999885,8.008471488999987],[5.297776221999982,8.007673264000005],[5.317722321000019,8.007673264000005],[5.332399367999983,8.009554863000005],[5.340302467000015,8.015575409000007],[5.345947265999996,8.020092009999985],[5.351968764999981,8.025736809000023],[5.357989787999998,8.034016608999991],[5.359210013999984,8.036108017000004],[5.360624313000017,8.038532256999986],[5.361377238999978,8.043424605999974],[5.360248088999981,8.053586005999989],[5.358742714000016,8.063370705000011],[5.358742714000016,8.07390785199999],[5.360624313000017,8.08294010200001],[5.364011287999972,8.090466499000001],[5.371161938,8.096487998999976],[5.387344359999986,8.102132797000024],[5.3982577319999905,8.103638649000004],[5.421214581000015,8.105520248000005],[5.449063301000024,8.105895996000015],[5.475030421999975,8.108154296999999],[5.497963905000006,8.110664368000016]]]},"properties":{"fid":466,"cty_nm":"Nigeria","iso3cd":"NGA","adm1nm":"Kwara","adm2nm":"Ekiti","adm1cd":"NGA024","adm2cd":"NGA024004"}},{"type":"Feature","id":467,"geometry":{"type":"Polygon","coordinates":[[[4.890408039000022,9.056834220999974],[4.884603500000026,9.057663918000003],[4.881287097999973,9.054347038000003],[4.877555369999982,9.047713279999982],[4.880043030000024,9.042737961],[4.878384589999996,9.033617020000008],[4.878384589999996,9.029471397000009],[4.877555369999982,9.021179199000017],[4.8725805280000145,9.020350456000017],[4.865946769999994,9.017862320000006],[4.858484267999984,9.016203879999978],[4.85185051000002,9.013716697999996],[4.85185051000002,9.007082938999986],[4.851021290000006,8.997961997999994],[4.839412689000028,8.992157936000012],[4.830291747999979,8.990499495999984],[4.827804088999983,8.984695434999992],[4.812878608999995,8.974744797000028],[4.804586887000028,8.96230697599998],[4.802099227999975,8.951527596000005],[4.804586887000028,8.928310393999993],[4.807074547000013,8.91421413400002],[4.806245326999999,8.895142555000007],[4.808732985999995,8.879387855999994],[4.812878608999995,8.86114597300002],[4.815366267999991,8.84622096999999],[4.826145649000011,8.830466269999988],[4.835267067000018,8.813881874000003],[4.84770488700002,8.798956870999973],[4.862629889999994,8.783202171000028],[4.870092869000018,8.764960288999987],[4.880776405000006,8.746441840999978],[4.882530689000021,8.743401527000003],[4.889163971000016,8.72764682799999],[4.917356491000021,8.716037749999998],[4.932281971000009,8.708575248999978],[4.943890571999987,8.698625564999986],[4.972912312000005,8.687845229999994],[4.983691691999979,8.676237105999974],[4.981204032999983,8.656336784000018],[4.949695109999993,8.640582085000005],[4.919014930999992,8.624827385000003],[4.877555369999982,8.60243892699998],[4.8651175499999795,8.588342667000006],[4.855167388999973,8.580051421999997],[4.837754249999989,8.576734542999986],[4.819512367000016,8.575076103000015],[4.806245326999999,8.572588920999976],[4.782198906000019,8.565955162000023],[4.769761086000017,8.565955162000023],[4.723326682999982,8.549371719000021],[4.703425884000012,8.537762642000018],[4.692646502999992,8.530300140000008],[4.683525562,8.518691063000006],[4.676814556000011,8.506817818000002],[4.6793513299999745,8.502188682999986],[4.692054749000022,8.488469124000005],[4.698660373999985,8.485928535000028],[4.7220344539999815,8.478815079000015],[4.727623940000001,8.474749565000025],[4.7382950780000215,8.462553978000017],[4.743630408999991,8.45442390400001],[4.748711586000013,8.444769859000019],[4.753284930999996,8.435114860999988],[4.753793239999993,8.427493094999988],[4.7558255199999735,8.41529750799998],[4.754809379999983,8.40361022899998],[4.753284930999996,8.39548015600002],[4.745154857999978,8.391414641999972],[4.732451438999988,8.386841774000004],[4.725337505000027,8.387350082000012],[4.707552910000004,8.388366699000017],[4.697897910999984,8.39395618399999],[4.687735557999986,8.396496773000024],[4.667409897000027,8.399545670000009],[4.653182029999982,8.402593613000022],[4.637938023000004,8.405135154999982],[4.629299640999989,8.405135154999982],[4.623710155000026,8.40157794999999],[4.620661258999974,8.399545670000009],[4.622694016000025,8.39395618399999],[4.629340172000013,8.380662917999985],[4.643781661999981,8.376679420000016],[4.649371147000011,8.373122215000024],[4.6641068459999815,8.35635375999999],[4.672320366000008,8.34403801000002],[4.678328513999986,8.335455894000006],[4.6912021640000034,8.315286635999996],[4.7027888299999745,8.294687270999987],[4.707509517999995,8.282242774999986],[4.713946341999986,8.268081665000011],[4.719525336999993,8.256065368999998],[4.728966236000019,8.245337485999983],[4.734115600999985,8.23804187799999],[4.737548828000001,8.230746269000008],[4.7444152830000235,8.215726851999989],[4.747418879999998,8.20971870400001],[4.755438804999983,8.210750580000024],[4.767176628000016,8.215967178000028],[4.775871277000022,8.222923278999986],[4.789348125000004,8.23379135099998],[4.79804277400001,8.248137473999975],[4.804129123999985,8.262918472000024],[4.808911324000007,8.277699471000005],[4.806302546999973,8.302044867999996],[4.803259850000018,8.316825866999977],[4.803694247999999,8.334215164],[4.804563998999981,8.342040062000024],[4.806302546999973,8.347256660000028],[4.820214271999987,8.358994483999993],[4.837168694000013,8.362907409999991],[4.8567318920000275,8.367689132999999],[4.868904590999989,8.368558883999981],[4.885030270000016,8.36984920499998],[4.890641211999991,8.370297431999973],[4.907160759000021,8.369863510000016],[4.920637607999993,8.365515709000022],[4.930202006999991,8.359864234999975],[4.941504955000028,8.35638618500002],[4.955416203000027,8.35551738700002],[4.964545726999972,8.353343010000003],[4.977587700000015,8.348996161999992],[4.985413074000007,8.346821784999975],[4.9975852970000005,8.346387863000018],[5.014540194999995,8.34812641100001],[5.024973869000007,8.348561286999995],[5.035407066000005,8.34986495999999],[5.048449516000005,8.352908134000018],[5.065838814000017,8.35942935899999],[5.087140560000023,8.364212036000026],[5.101921558000015,8.364645957999983],[5.1219191550000005,8.365080832999979],[5.134526730000005,8.364212036000026],[5.142351626999982,8.35942935899999],[5.152350425999998,8.345952988000022],[5.156697749999978,8.336388587999977],[5.168001174999972,8.313782692000018],[5.175391674000025,8.299001694000026],[5.177999972999999,8.292480468999997],[5.176695823999978,8.279004096999984],[5.176260947999992,8.264223098999992],[5.175826072999996,8.252050399999973],[5.1866946220000045,8.247268677000022],[5.197997569999984,8.249442101],[5.2093005180000205,8.248572350000018],[5.220603943000015,8.249442101],[5.234080315000028,8.254658699000004],[5.239895821000005,8.255067825000026],[5.245818138000004,8.257266997999977],[5.255816935999974,8.265526771999987],[5.263207436000016,8.268135071000017],[5.274510860000021,8.27074432400002],[5.281031609000024,8.27378749799999],[5.285813808,8.278569220999998],[5.290161133000026,8.284220694999988],[5.299725056,8.295523643000024],[5.306246281000028,8.300740242000018],[5.311462878999976,8.308566093000024],[5.32102727900002,8.325085639999998],[5.324504852000018,8.333780289000003],[5.3234930039999995,8.337099075000026],[5.321502685999974,8.34107875799998],[5.322829722999984,8.34439563799998],[5.3274731640000255,8.349039077999976],[5.330789566000021,8.355672835999997],[5.341900826000028,8.375241280000012],[5.347705363999978,8.382704735000004],[5.359313965000013,8.395142555000007],[5.372581004999972,8.40923881499998],[5.380872726000007,8.420846939],[5.396627426000009,8.438260077999985],[5.412382126000011,8.452356339000005],[5.433111667999981,8.466452598999979],[5.4463787079999975,8.47971916199998],[5.440574169000001,8.485524177999991],[5.435599326999977,8.492156981999983],[5.425649166000028,8.516203879999978],[5.420673846999989,8.533617020000008],[5.420673846999989,8.548542022999982],[5.419015408000007,8.569272040999977],[5.420673846999989,8.591659546000017],[5.4239907259999995,8.613218307000011],[5.423161506999975,8.640582085000005],[5.420673846999989,8.65882396699999],[5.413625717000002,8.686187743999994],[5.40865039800002,8.700283050999985],[5.402846335999982,8.704429625999978],[5.380458354999973,8.716037749999998],[5.372166156999981,8.716037749999998],[5.355582713999979,8.713550568000016],[5.338998795000009,8.709404945000017],[5.326560974000017,8.705258368999978],[5.318269252999983,8.697795868000014],[5.305002213000023,8.685358047000022],[5.290076732999978,8.66960334800001],[5.274322032999976,8.656336784000018],[5.257738113000016,8.655507087999979],[5.237008571999979,8.660482407000018],[5.208816050999985,8.678724289000002],[5.193061828999987,8.689503670000022],[5.162381648999997,8.694478989000004],[5.156577587000015,8.700283050999985],[5.139993667999988,8.709404945000017],[5.120922088999976,8.716867447000027],[5.109313487999998,8.725988388000019],[5.098534106999978,8.729305266999972],[5.090242386,8.737596511999982],[5.081121445000008,8.756668090999995],[5.078633785000022,8.767447472000015],[5.057074547000013,8.807249069000022],[5.051270484999975,8.817198753000014],[5.029711722999991,8.826319694999995],[5.011469363999993,8.829636574000006],[4.997373104000019,8.828807831000006],[4.993227482000009,8.836270332000026],[4.9849352840000165,8.84290409099998],[4.968351841000015,8.847879410000019],[4.960059643000022,8.852853775000028],[4.950109482000016,8.856170653999982],[4.925233841000022,8.866950035000002],[4.90533351900001,8.882704735000004],[4.894553660999975,8.901776314000017],[4.894553660999975,8.907580375999999],[4.895382880999989,8.938260077999985],[4.897041321000017,8.966452598999979],[4.897041321000017,8.975573540000028],[4.9028458600000135,8.986353873999974],[4.907820701999981,8.993816375999984],[4.907820701999981,9.003766059999975],[4.907820701999981,9.019520759999978],[4.9028458600000135,9.027812958000027],[4.896212101000003,9.042737961],[4.890408039000022,9.056834220999974]]]},"properties":{"fid":467,"cty_nm":"Nigeria","iso3cd":"NGA","adm1nm":"Kwara","adm2nm":"Ifelodun","adm1cd":"NGA024","adm2cd":"NGA024005"}},{"type":"Feature","id":468,"geometry":{"type":"Polygon","coordinates":[[[4.676814556000011,8.506817818000002],[4.683525562,8.518691063000006],[4.692646502999992,8.530300140000008],[4.703425884000012,8.537762642000018],[4.723326682999982,8.549371719000021],[4.769761086000017,8.565955162000023],[4.782198906000019,8.565955162000023],[4.806245326999999,8.572588920999976],[4.819512367000016,8.575076103000015],[4.837754249999989,8.576734542999986],[4.855167388999973,8.580051421999997],[4.8651175499999795,8.588342667000006],[4.877555369999982,8.60243892699998],[4.919014930999992,8.624827385000003],[4.949695109999993,8.640582085000005],[4.981204032999983,8.656336784000018],[4.983691691999979,8.676237105999974],[4.972912312000005,8.687845229999994],[4.943890571999987,8.698625564999986],[4.932281971000009,8.708575248999978],[4.917356491000021,8.716037749999998],[4.889163971000016,8.72764682799999],[4.882530689000021,8.743401527000003],[4.880776405000006,8.746441840999978],[4.869801520999999,8.741346358999976],[4.860983372000021,8.73727703100002],[4.854877949000013,8.731849669999974],[4.845381260000011,8.724388122999983],[4.840632915000015,8.713535309000008],[4.833849429999987,8.704716682000026],[4.825031281000008,8.693184852999991],[4.808751105999988,8.680974960000015],[4.780939101999991,8.661980629000027],[4.76533698999998,8.647057533000009],[4.741595268000026,8.630777358999978],[4.721923350999987,8.613819121999995],[4.713783264000028,8.605000496000002],[4.706999779,8.598217009999985],[4.691398144000004,8.584650039999985],[4.679187775000003,8.574475287999974],[4.663586140000007,8.561586379999994],[4.650019169000018,8.555481911000015],[4.637809276999974,8.554802895000023],[4.6188154220000115,8.553446769999994],[4.597108841000022,8.556159972999978],[4.572688579999976,8.55887317700001],[4.557765007,8.559551238999973],[4.552323340999976,8.559770583999978],[4.550207614999977,8.559856415000013],[4.543678761000024,8.560625076000008],[4.537072658999989,8.558591842999988],[4.533515930000021,8.553510666000022],[4.533007622000014,8.544872284000007],[4.533007622000014,8.53674221],[4.5314831730000265,8.530644417000019],[4.533515930000021,8.518448830000011],[4.534532070000012,8.505237578999981],[4.536056518999999,8.494058608999978],[4.5391054149999945,8.482371329999978],[4.545711040000015,8.469160079999995],[4.557398319000015,8.452899933000026],[4.571626186000003,8.440704346000018],[4.5767073630000255,8.436638832000028],[4.582304478000026,8.437612533999982],[4.588394642000026,8.438672065999981],[4.603130340999996,8.436131477000004],[4.607195853999997,8.435623168999996],[4.62040710399998,8.438163756999984],[4.6341271399999755,8.442228317000001],[4.6341271399999755,8.444769859000019],[4.6295537949999925,8.453915596000002],[4.633618832000025,8.46052169799998],[4.633618832000025,8.470176697],[4.629045485999995,8.478306770000017],[4.609228133999977,8.484911919000012],[4.595508574999997,8.487960815000008],[4.587378501999979,8.488977432000013],[4.585345744999984,8.49151802099999],[4.582805156999996,8.49710750600002],[4.582296847999999,8.499648094000008],[4.590426922000006,8.505745887999979],[4.604146957000012,8.508286476000023],[4.615325928000004,8.507778168000016],[4.638700008000001,8.508286476000023],[4.651403426999991,8.506762504999983],[4.668171883000014,8.507778168000016],[4.676814556000011,8.506817818000002]]]},"properties":{"fid":468,"cty_nm":"Nigeria","iso3cd":"NGA","adm1nm":"Kwara","adm2nm":"Ilorin East","adm1cd":"NGA024","adm2cd":"NGA024006"}},{"type":"Feature","id":469,"geometry":{"type":"Polygon","coordinates":[[[4.676814556000011,8.506817818000002],[4.668171883000014,8.507778168000016],[4.651403426999991,8.506762504999983],[4.638700008000001,8.508286476000023],[4.615325928000004,8.507778168000016],[4.604146957000012,8.508286476000023],[4.590426922000006,8.505745887999979],[4.582296847999999,8.499648094000008],[4.582805156999996,8.49710750600002],[4.585345744999984,8.49151802099999],[4.587378501999979,8.488977432000013],[4.595508574999997,8.487960815000008],[4.609228133999977,8.484911919000012],[4.629045485999995,8.478306770000017],[4.633618832000025,8.470176697],[4.633618832000025,8.46052169799998],[4.6295537949999925,8.453915596000002],[4.6341271399999755,8.444769859000019],[4.6341271399999755,8.442228317000001],[4.62040710399998,8.438163756999984],[4.607195853999997,8.435623168999996],[4.603130340999996,8.436131477000004],[4.588394642000026,8.438672065999981],[4.582304478000026,8.437612533999982],[4.590519905000008,8.404359817999989],[4.614309788000014,8.393447875999982],[4.621423720999985,8.383792877000019],[4.62599659,8.376679420000016],[4.628537177999988,8.371597290000011],[4.631586074999973,8.374138832000028],[4.629340172000013,8.380662917999985],[4.622694016000025,8.39395618399999],[4.620661258999974,8.399545670000009],[4.623710155000026,8.40157794999999],[4.629299640999989,8.405135154999982],[4.637938023000004,8.405135154999982],[4.653182029999982,8.402593613000022],[4.667409897000027,8.399545670000009],[4.687735557999986,8.396496773000024],[4.697897910999984,8.39395618399999],[4.707552910000004,8.388366699000017],[4.725337505000027,8.387350082000012],[4.732451438999988,8.386841774000004],[4.745154857999978,8.391414641999972],[4.753284930999996,8.39548015600002],[4.754809379999983,8.40361022899998],[4.7558255199999735,8.41529750799998],[4.753793239999993,8.427493094999988],[4.753284930999996,8.435114860999988],[4.748711586000013,8.444769859000019],[4.743630408999991,8.45442390400001],[4.7382950780000215,8.462553978000017],[4.727623940000001,8.474749565000025],[4.7220344539999815,8.478815079000015],[4.698660373999985,8.485928535000028],[4.692054749000022,8.488469124000005],[4.6793513299999745,8.502188682999986],[4.676814556000011,8.506817818000002]]]},"properties":{"fid":469,"cty_nm":"Nigeria","iso3cd":"NGA","adm1nm":"Kwara","adm2nm":"Ilorin South","adm1cd":"NGA024","adm2cd":"NGA024007"}},{"type":"Feature","id":470,"geometry":{"type":"Polygon","coordinates":[[[4.550207614999977,8.559856415000013],[4.5309753419999765,8.569263458000023],[4.522844791000011,8.571295738000003],[4.514714717999993,8.570279120999999],[4.508616924000023,8.570279120999999],[4.498454571000025,8.566721916000006],[4.49286460899998,8.560625076000008],[4.485242844000027,8.559100150999996],[4.479101180999976,8.561439514000028],[4.4760961530000145,8.549953460999973],[4.47914505,8.535725593999985],[4.483718394999983,8.507269859000019],[4.48981618900001,8.488469124000005],[4.494897365999975,8.47779846200001],[4.499978542000008,8.457472800999994],[4.505060195999988,8.443753242000014],[4.511157990000015,8.436638832000028],[4.5157308579999835,8.432065964000003],[4.5187797550000255,8.424952507],[4.526909827999987,8.421903610000015],[4.537072658999989,8.41529750799998],[4.552316666000024,8.412248610999995],[4.56806898100001,8.410216331000015],[4.590519905000008,8.404359817999989],[4.582304478000026,8.437612533999982],[4.5767073630000255,8.436638832000028],[4.571626186000003,8.440704346000018],[4.557398319000015,8.452899933000026],[4.545711040000015,8.469160079999995],[4.5391054149999945,8.482371329999978],[4.536056518999999,8.494058608999978],[4.534532070000012,8.505237578999981],[4.533515930000021,8.518448830000011],[4.5314831730000265,8.530644417000019],[4.533007622000014,8.53674221],[4.533007622000014,8.544872284000007],[4.533515930000021,8.553510666000022],[4.537072658999989,8.558591842999988],[4.543678761000024,8.560625076000008],[4.550207614999977,8.559856415000013]]]},"properties":{"fid":470,"cty_nm":"Nigeria","iso3cd":"NGA","adm1nm":"Kwara","adm2nm":"Ilorin West","adm1cd":"NGA024","adm2cd":"NGA024008"}},{"type":"Feature","id":471,"geometry":{"type":"Polygon","coordinates":[[[5.181912421999982,8.192491530999973],[5.173217772999976,8.195969581999975],[5.16582727399998,8.19727420800001],[5.160610675999976,8.199882506999984],[5.15322017699998,8.199882506999984],[5.146698952000008,8.199882506999984],[5.137569427000017,8.193796157999998],[5.128005504999976,8.186840056999984],[5.124527453999974,8.180319785999984],[5.119310856000027,8.170755385999996],[5.112789630999998,8.163364409999986],[5.103225708000025,8.15901756300002],[5.096270084000025,8.158582686999978],[5.089314461000015,8.154669762000026],[5.08105421099998,8.148583411999994],[5.073229313000013,8.14510631600001],[5.061925888000019,8.14510631600001],[5.044102192000025,8.144236565000028],[5.021495818999995,8.148583411999994],[5.011931896000021,8.150322914000014],[5.006279945000017,8.154234885999983],[4.985413074000007,8.170320511],[4.978022575000011,8.176406859999986],[4.964110850999987,8.18423175800001],[4.957590102999973,8.193361282000012],[4.944113254999991,8.209012031999976],[4.9336795809999785,8.221184730999994],[4.919768332999979,8.231183052000006],[4.904987334999987,8.252920151000012],[4.899770260000025,8.26074504899998],[4.897161960999995,8.270309447999978],[4.888032436000003,8.285090446000027],[4.882815837999999,8.295523643000024],[4.882380962000013,8.305088043000012],[4.880642414000022,8.314652443],[4.880642414000022,8.324215889000016],[4.881946563999975,8.339431762999993],[4.883685112000023,8.350734710999973],[4.885424136999973,8.361602783000023],[4.885424136999973,8.365515709000022],[4.885030270000016,8.36984920499998],[4.868904590999989,8.368558883999981],[4.8567318920000275,8.367689132999999],[4.837168694000013,8.362907409999991],[4.820214271999987,8.358994483999993],[4.806302546999973,8.347256660000028],[4.804563998999981,8.342040062000024],[4.803694247999999,8.334215164],[4.803259850000018,8.316825866999977],[4.806302546999973,8.302044867999996],[4.808911324000007,8.277699471000005],[4.804129123999985,8.262918472000024],[4.79804277400001,8.248137473999975],[4.789348125000004,8.23379135099998],[4.775871277000022,8.222923278999986],[4.767176628000016,8.215967178000028],[4.755438804999983,8.210750580000024],[4.747418879999998,8.20971870400001],[4.747848034000015,8.203282355999988],[4.757288932999984,8.183542251999995],[4.759863853000013,8.17710495],[4.7628679279999915,8.161227225999994],[4.764155388000006,8.156077385000003],[4.770163059000026,8.137195587000008],[4.773596286999975,8.123033523999993],[4.775742053999977,8.11616802200001],[4.779174805000025,8.09857273099999],[4.781426907000025,8.092098236000027],[4.782608031999985,8.088703156000008],[4.790761470999996,8.080549239999982],[4.793765544999985,8.07368373899999],[4.79649925199999,8.067988395999976],[4.799294949,8.065057754999998],[4.805271149000021,8.063862801000028],[4.812895298000001,8.059288025],[4.818613529000004,8.053569793999998],[4.830049991999999,8.05547618899999],[4.8433923719999825,8.061956405999979],[4.850381373999994,8.066616058000022],[4.852541447000021,8.068056107000018],[4.8574972150000235,8.072630881999999],[4.856734753000012,8.079111098999988],[4.854828834999978,8.085972786000013],[4.8517789840000205,8.091691017000016],[4.854066371999977,8.095502853000028],[4.861309052000024,8.094740867999974],[4.877701283000022,8.09130954699998],[4.887231349999979,8.090929030999973],[4.895408153999995,8.08935642199998],[4.913153647999991,8.085591315999977],[4.926877499,8.079873084999974],[4.939457417000028,8.068056107000018],[4.9451756479999744,8.060812950000013],[4.949749946999987,8.05547618899999],[4.960805416000028,8.052426337999975],[4.966904639999996,8.046708106999972],[4.968429565000008,8.037559509000005],[4.970716476000007,8.032603263999988],[4.969192028000009,8.024216652000007],[4.967106342000022,8.020046234000006],[4.969573020999974,8.017354964999981],[4.973385334,8.018116951000025],[4.98100948299998,8.02574157700002],[4.987490176999984,8.032221794000009],[4.989295482999978,8.03403949699998],[4.995876789000022,8.032221794000009],[5.0019760129999895,8.034128189],[5.005406857000025,8.043276787000025],[5.009981632000006,8.050139426999976],[5.014936923999983,8.054713248999974],[5.020655154999986,8.059288025],[5.029041767000024,8.063862801000028],[5.0324726100000134,8.068056107000018],[5.037047385999983,8.070724487000007],[5.039715767000018,8.071867942999972],[5.044290542999988,8.06996154799998],[5.049627304000012,8.064624786000024],[5.053439616999981,8.057763099999988],[5.054930210000009,8.049190521000014],[5.062942981999981,8.052833556999985],[5.06648540499998,8.054468154999995],[5.069751263000001,8.056855202000008],[5.073663711999984,8.06337642699998],[5.077576636999993,8.066419601000007],[5.083662510000011,8.070766449000018],[5.092792034000013,8.079461098000024],[5.112789630999998,8.097720145999972],[5.12757062899999,8.111196517999986],[5.134091854000019,8.118587493999996],[5.151481151999974,8.135541916000022],[5.164088248999974,8.143801688999986],[5.168001174999972,8.147714614999984],[5.171478748000027,8.152061462000006],[5.175826072999996,8.159887314000002],[5.177565098000002,8.165972710000005],[5.177565098000002,8.171625136999978],[5.180173396999976,8.182058333999976],[5.181912421999982,8.192491530999973]]]},"properties":{"fid":471,"cty_nm":"Nigeria","iso3cd":"NGA","adm1nm":"Kwara","adm2nm":"Irepodun","adm1cd":"NGA024","adm2cd":"NGA024009"}},{"type":"Feature","id":472,"geometry":{"type":"Polygon","coordinates":[[[5.239895821000005,8.255067825000026],[5.234080315000028,8.254658699000004],[5.220603943000015,8.249442101],[5.2093005180000205,8.248572350000018],[5.197997569999984,8.249442101],[5.1866946220000045,8.247268677000022],[5.175826072999996,8.252050399999973],[5.176260947999992,8.264223098999992],[5.176695823999978,8.279004096999984],[5.177999972999999,8.292480468999997],[5.175391674000025,8.299001694000026],[5.168001174999972,8.313782692000018],[5.156697749999978,8.336388587999977],[5.152350425999998,8.345952988000022],[5.142351626999982,8.35942935899999],[5.134526730000005,8.364212036000026],[5.1219191550000005,8.365080832999979],[5.101921558000015,8.364645957999983],[5.087140560000023,8.364212036000026],[5.065838814000017,8.35942935899999],[5.048449516000005,8.352908134000018],[5.035407066000005,8.34986495999999],[5.024973869000007,8.348561286999995],[5.014540194999995,8.34812641100001],[4.9975852970000005,8.346387863000018],[4.985413074000007,8.346821784999975],[4.977587700000015,8.348996161999992],[4.964545726999972,8.353343010000003],[4.955416203000027,8.35551738700002],[4.941504955000028,8.35638618500002],[4.930202006999991,8.359864234999975],[4.920637607999993,8.365515709000022],[4.907160759000021,8.369863510000016],[4.890641211999991,8.370297431999973],[4.885030270000016,8.36984920499998],[4.885424136999973,8.365515709000022],[4.885424136999973,8.361602783000023],[4.883685112000023,8.350734710999973],[4.881946563999975,8.339431762999993],[4.880642414000022,8.324215889000016],[4.880642414000022,8.314652443],[4.882380962000013,8.305088043000012],[4.882815837999999,8.295523643000024],[4.888032436000003,8.285090446000027],[4.897161960999995,8.270309447999978],[4.899770260000025,8.26074504899998],[4.904987334999987,8.252920151000012],[4.919768332999979,8.231183052000006],[4.9336795809999785,8.221184730999994],[4.944113254999991,8.209012031999976],[4.957590102999973,8.193361282000012],[4.964110850999987,8.18423175800001],[4.978022575000011,8.176406859999986],[4.985413074000007,8.170320511],[5.006279945000017,8.154234885999983],[5.011931896000021,8.150322914000014],[5.021495818999995,8.148583411999994],[5.044102192000025,8.144236565000028],[5.061925888000019,8.14510631600001],[5.073229313000013,8.14510631600001],[5.08105421099998,8.148583411999994],[5.089314461000015,8.154669762000026],[5.096270084000025,8.158582686999978],[5.103225708000025,8.15901756300002],[5.112789630999998,8.163364409999986],[5.119310856000027,8.170755385999996],[5.124527453999974,8.180319785999984],[5.128005504999976,8.186840056999984],[5.137569427000017,8.193796157999998],[5.146698952000008,8.199882506999984],[5.15322017699998,8.199882506999984],[5.160610675999976,8.199882506999984],[5.16582727399998,8.19727420800001],[5.173217772999976,8.195969581999975],[5.181912421999982,8.192491530999973],[5.1858248710000225,8.18901443499999],[5.191476822000027,8.190752982999982],[5.193650246000004,8.194231032999994],[5.193650246000004,8.200317383000026],[5.197997569999984,8.21422862999998],[5.2088661189999925,8.225531578000016],[5.2175607679999985,8.235964775000014],[5.2240815160000125,8.237704276999978],[5.227559566000025,8.240312576000008],[5.230602740999984,8.244225502000006],[5.239895821000005,8.255067825000026]]]},"properties":{"fid":472,"cty_nm":"Nigeria","iso3cd":"NGA","adm1nm":"Kwara","adm2nm":"Isin","adm1cd":"NGA024","adm2cd":"NGA024010"}},{"type":"Feature","id":473,"geometry":{"type":"Polygon","coordinates":[[[3.8233191969999893,10.05430603000002],[3.8199408049999874,10.056839943],[3.8160774710000283,9.704633713000021],[3.8105998039999918,9.205241203000014],[3.810251235999999,9.173461913999972],[3.8260700700000143,9.182162285000004],[3.862960577000024,9.188310623000007],[3.92137074499999,9.172939300999985],[3.9444272520000254,9.148345946999996],[3.9720952509999847,9.07763862600001],[3.9905405040000232,9.048433304000014],[4.01206016499998,9.034599303999983],[4.072007179000025,9.014616966000006],[4.133491515999992,8.994634627999972],[4.2104601859999775,8.970032692000018],[4.253385544000025,8.966966629000012],[4.273368359000017,8.97926425899999],[4.290276527000003,8.991560935999985],[4.316407203999972,8.997709273999988],[4.325629710999976,8.994634627999972],[4.3290133479999895,8.989559174000021],[4.338026523999986,8.993165015999978],[4.348753451999983,8.995309829999997],[4.360016346000009,8.998528480999994],[4.3750338550000265,9.009254456000008],[4.3980965609999885,9.023735999999985],[4.428131580000013,9.036071777000018],[4.443685055000003,9.041971207000017],[4.459239006000018,9.046798706000004],[4.471038341999986,9.053234099999997],[4.4882011409999905,9.05967044800002],[4.502146244000016,9.068251610000004],[4.524136065999983,9.074151992999987],[4.549880028000018,9.074687958000027],[4.587960242999998,9.082733153999982],[4.603514194000013,9.084342003000017],[4.60995006600001,9.081660270999976],[4.6297945979999895,9.081660270999976],[4.654466151999998,9.08058738699998],[4.674847125999975,9.084878921999973],[4.702736855000012,9.093460083000025],[4.717217921999975,9.101505280000026],[4.734380722000026,9.120276450999995],[4.752616405000026,9.139585495000006],[4.764554976999989,9.149931907999985],[4.751920700000028,9.179856299999983],[4.751920700000028,9.19949722299998],[4.757158279000009,9.224376677999999],[4.754539490000013,9.247945786000002],[4.737516879999987,9.268896102999975],[4.713947296000015,9.278062820000002],[4.685140133000004,9.292466164000018],[4.6393103600000245,9.308178902000009],[4.617050171000017,9.330439567999974],[4.609726905999992,9.361758232],[4.578422547000002,9.388053893999995],[4.501166822000016,9.440430640999978],[4.443552017999991,9.509829520999972],[4.3872470869999916,9.562206268000011],[4.350583554000025,9.588395118999983],[4.282493590999991,9.694458008000026],[4.209918022000011,9.778295517000004],[4.206547261000026,9.78218936899998],[4.171192646000009,9.820162772999993],[4.152861117999976,9.862063407999983],[4.141076089000023,9.860754013000019],[4.127982139999972,9.851588248999974],[4.118815899000026,9.85551643399998],[4.122744082999986,9.860754013000019],[4.124053478999997,9.875158310000018],[4.114887715000009,9.88170528400002],[4.095246314999997,9.877777100000003],[4.095246314999997,9.867301940999994],[4.083461762000013,9.851588248999974],[4.080842973000017,9.851588248999974],[4.078224181999985,9.854207039000016],[4.070367336000004,9.856825829000002],[4.057273388999988,9.856825829000002],[4.052035809000017,9.863373755999987],[4.038941383000008,9.864683151000008],[4.027156830000024,9.856825829000002],[4.021918774000028,9.856825829000002],[4.020609379000007,9.860754013000019],[4.01668119499999,9.868611336000015],[4.012753009999983,9.885633469000027],[4.011443615000019,9.898727416999975],[4.002277850999974,9.906583785999999],[3.994421005999982,9.900036811999996],[3.985255241999994,9.893489837999994],[3.982636212999978,9.898727416999975],[3.980017423999982,9.906583785999999],[3.9672505870000236,9.902983665000022],[3.962340356000027,9.90789318100002],[3.954156399999988,9.90789318100002],[3.945972444000006,9.90789318100002],[3.936151981000023,9.916077614000017],[3.9345152380000172,9.927535057],[3.942698956000015,9.93244552599998],[3.9590668690000257,9.934082031000003],[3.960703611999975,9.937355995000019],[3.9688873289999833,9.942265511000016],[3.9705240729999787,9.948813438000002],[3.965613841999982,9.956996918000016],[3.9590668690000257,9.960269928000002],[3.949246168000002,9.961907386999997],[3.94106221200002,9.961907386999997],[3.9345152380000172,9.966817855999977],[3.9345152380000172,9.970090866000021],[3.936151981000023,9.97336482999998],[3.94106221200002,9.976637840000024],[3.9525196559999927,9.978275299000018],[3.954156399999988,9.983184814000026],[3.949246168000002,9.991369247000023],[3.9345152380000172,9.99955272699998],[3.921420813999987,9.99955272699998],[3.909963607999998,9.989732742000001],[3.8870487219999745,9.988095283999996],[3.8870487219999745,10.004463196000017],[3.890322208999976,10.015920639],[3.903416395000022,10.019194603000017],[3.890322208999976,10.030652046],[3.8821382529999937,10.035562514999981],[3.8723175530000162,10.042109488999984],[3.8641338360000077,10.050292968999997],[3.8510396479999827,10.055203437999978],[3.833034992000023,10.047019004999981],[3.8233191969999893,10.05430603000002]]]},"properties":{"fid":473,"cty_nm":"Nigeria","iso3cd":"NGA","adm1nm":"Kwara","adm2nm":"Kaiama","adm1cd":"NGA024","adm2cd":"NGA024011"}},{"type":"Feature","id":474,"geometry":{"type":"Polygon","coordinates":[[[4.890408039000022,9.056834220999974],[4.892865180999991,9.059488296999973],[4.890830040000026,9.063558578000027],[4.892186642000013,9.069664000999978],[4.897613524999997,9.075090407999994],[4.898292065000021,9.082551955999975],[4.900326729000028,9.086622238000018],[4.900326729000028,9.092048644999977],[4.900326729000028,9.099510193000015],[4.899648666000019,9.106293677999986],[4.897613524999997,9.11714744599999],[4.8915085790000035,9.119182587000012],[4.886081696000019,9.124608994000027],[4.887438297000017,9.131392478999999],[4.889473437999982,9.136140823000005],[4.884046554999998,9.140889168000001],[4.881333351000023,9.146316528],[4.879298210000002,9.152420998000025],[4.876071453000009,9.157646178999983],[4.87168312099999,9.155138969000006],[4.865247249999982,9.15031147000002],[4.85720205299998,9.148702620999984],[4.8480844499999876,9.141194343999985],[4.828239918000008,9.134222030999979],[4.8159041399999865,9.132612228000028],[4.8105406760000164,9.136366844000008],[4.800886631000026,9.136366844000008],[4.78533268000001,9.135293961000002],[4.772460937000005,9.147629737999978],[4.768706322000014,9.153530121000017],[4.764554976999989,9.149931907999985],[4.752616405000026,9.139585495000006],[4.734380722000026,9.120276450999995],[4.717217921999975,9.101505280000026],[4.702736855000012,9.093460083000025],[4.674847125999975,9.084878921999973],[4.654466151999998,9.08058738699998],[4.6297945979999895,9.081660270999976],[4.60995006600001,9.081660270999976],[4.603514194000013,9.084342003000017],[4.587960242999998,9.082733153999982],[4.549880028000018,9.074687958000027],[4.524136065999983,9.074151992999987],[4.502146244000016,9.068251610000004],[4.4882011409999905,9.05967044800002],[4.471038341999986,9.053234099999997],[4.459239006000018,9.046798706000004],[4.443685055000003,9.041971207000017],[4.428131580000013,9.036071777000018],[4.3980965609999885,9.023735999999985],[4.3750338550000265,9.009254456000008],[4.360016346000009,8.998528480999994],[4.348753451999983,8.995309829999997],[4.338026523999986,8.993165015999978],[4.3290133479999895,8.989559174000021],[4.334852219000027,8.980800628999987],[4.334852219000027,8.957744597999977],[4.3210182189999955,8.942373276000012],[4.257997036000006,8.900871277000022],[4.2211065289999965,8.86090660100001],[4.194975853000017,8.816330909999976],[4.190364360999979,8.753309249999973],[4.201124191000019,8.717955588999985],[4.206113338000023,8.703819275],[4.225584984000022,8.702394485000013],[4.247942923999972,8.700362206000023],[4.28097152700002,8.698329925999985],[4.306886673000008,8.695281029],[4.329244614000004,8.69324874900002],[4.342456341000002,8.690199851999978],[4.368879317999983,8.67393875099998],[4.394794463999972,8.656154633000028],[4.420709610000017,8.631256103999988],[4.442050934000008,8.60889720900002],[4.4547543529999984,8.590604782000014],[4.4725394249999795,8.576376915000026],[4.478637218000017,8.564689636000026],[4.479101180999976,8.561439514000028],[4.485242844000027,8.559100150999996],[4.49286460899998,8.560625076000008],[4.498454571000025,8.566721916000006],[4.508616924000023,8.570279120999999],[4.514714717999993,8.570279120999999],[4.522844791000011,8.571295738000003],[4.5309753419999765,8.569263458000023],[4.550207614999977,8.559856415000013],[4.552323340999976,8.559770583999978],[4.557765007,8.559551238999973],[4.572688579999976,8.55887317700001],[4.597108841000022,8.556159972999978],[4.6188154220000115,8.553446769999994],[4.637809276999974,8.554802895000023],[4.650019169000018,8.555481911000015],[4.663586140000007,8.561586379999994],[4.679187775000003,8.574475287999974],[4.691398144000004,8.584650039999985],[4.706999779,8.598217009999985],[4.713783264000028,8.605000496000002],[4.721923350999987,8.613819121999995],[4.741595268000026,8.630777358999978],[4.76533698999998,8.647057533000009],[4.780939101999991,8.661980629000027],[4.808751105999988,8.680974960000015],[4.825031281000008,8.693184852999991],[4.833849429999987,8.704716682000026],[4.840632915000015,8.713535309000008],[4.845381260000011,8.724388122999983],[4.854877949000013,8.731849669999974],[4.860983372000021,8.73727703100002],[4.869801520999999,8.741346358999976],[4.880776405000006,8.746441840999978],[4.870092869000018,8.764960288999987],[4.862629889999994,8.783202171000028],[4.84770488700002,8.798956870999973],[4.835267067000018,8.813881874000003],[4.826145649000011,8.830466269999988],[4.815366267999991,8.84622096999999],[4.812878608999995,8.86114597300002],[4.808732985999995,8.879387855999994],[4.806245326999999,8.895142555000007],[4.807074547000013,8.91421413400002],[4.804586887000028,8.928310393999993],[4.802099227999975,8.951527596000005],[4.804586887000028,8.96230697599998],[4.812878608999995,8.974744797000028],[4.827804088999983,8.984695434999992],[4.830291747999979,8.990499495999984],[4.839412689000028,8.992157936000012],[4.851021290000006,8.997961997999994],[4.85185051000002,9.007082938999986],[4.85185051000002,9.013716697999996],[4.858484267999984,9.016203879999978],[4.865946769999994,9.017862320000006],[4.8725805280000145,9.020350456000017],[4.877555369999982,9.021179199000017],[4.878384589999996,9.029471397000009],[4.878384589999996,9.033617020000008],[4.880043030000024,9.042737961],[4.877555369999982,9.047713279999982],[4.881287097999973,9.054347038000003],[4.884603500000026,9.057663918000003],[4.890408039000022,9.056834220999974]]]},"properties":{"fid":474,"cty_nm":"Nigeria","iso3cd":"NGA","adm1nm":"Kwara","adm2nm":"Moro","adm1cd":"NGA024","adm2cd":"NGA024012"}},{"type":"Feature","id":475,"geometry":{"type":"Polygon","coordinates":[[[4.722100258000012,8.11445140799998],[4.728537082999992,8.11616802200001],[4.739265441999976,8.117455482000025],[4.746560574,8.122604369999976],[4.7444152830000235,8.128612518000011],[4.740982056000007,8.135478972999977],[4.738836288000016,8.138912200999982],[4.734544754000012,8.142773627999986],[4.732399464000025,8.148352622999994],[4.726391315000001,8.152644156999997],[4.722958564999999,8.154789924999989],[4.722100258000012,8.15993976599998],[4.721671103999995,8.166805266999972],[4.718237876999979,8.173671721999995],[4.71523380299999,8.18182563800002],[4.712658882000028,8.188691139000014],[4.711371899000028,8.192982674000007],[4.709655284999997,8.197703362000027],[4.709655284999997,8.201136588999987],[4.708367824999982,8.205857277000007],[4.707080363999978,8.210147858000028],[4.70579290400002,8.212722778],[4.703217983000002,8.214439391999974],[4.698068619000026,8.216156006000006],[4.693777083999976,8.21744346600002],[4.687340259999985,8.214868545999991],[4.683048724999992,8.210577010999998],[4.676182746999984,8.20542812299999],[4.66974544499999,8.198132514999998],[4.668028831000015,8.194699286999992],[4.663737774000026,8.18182563800002],[4.658587932999978,8.174959182999999],[4.654726028000027,8.169380187999991],[4.650434494000024,8.162513733000026],[4.644426823000003,8.15993976599998],[4.639706134999983,8.15693569199999],[4.630265236000014,8.150498389999996],[4.6229701039999895,8.141915320999999],[4.621253490000015,8.13934135400001],[4.623828410999977,8.129899979000015],[4.631552696000028,8.123033523999993],[4.633269310000003,8.121316910000019],[4.630694388999984,8.11144733399999],[4.632411003000016,8.109301566999989],[4.643139361999999,8.108014106999974],[4.652151107999998,8.109730721000005],[4.665454388000001,8.110589027000003],[4.673607826000023,8.114022255000009],[4.68090295799999,8.11445140799998],[4.6886277199999995,8.112305640999978],[4.701930522999987,8.111876488000007],[4.714375496000002,8.111876488000007],[4.722100258000012,8.11445140799998]]]},"properties":{"fid":475,"cty_nm":"Nigeria","iso3cd":"NGA","adm1nm":"Kwara","adm2nm":"Offa","adm1cd":"NGA024","adm2cd":"NGA024013"}},{"type":"Feature","id":476,"geometry":{"type":"Polygon","coordinates":[[[5.4575333600000135,8.206403732000012],[5.442317962999994,8.218141555999978],[5.431884288999981,8.224661826999977],[5.4223198889999935,8.22813987699999],[5.418842315999996,8.235530853],[5.4223198889999935,8.251180648999991],[5.421885490000022,8.261614798999972],[5.41971159000002,8.267701149000004],[5.421450615000026,8.27378749799999],[5.41840744000001,8.283785819999991],[5.404496193,8.292045593000012],[5.397105694000004,8.292045593000012],[5.387541294000016,8.283350944999995],[5.381020546000002,8.278134346000002],[5.372325896999996,8.274221420000003],[5.362761497000008,8.273352622999994],[5.356675148000022,8.27465629599999],[5.353197575000024,8.286828995000008],[5.352762698999982,8.298131942999987],[5.353197575000024,8.305522918999998],[5.353197575000024,8.30986976600002],[5.347546100999978,8.31552124000001],[5.343198776000008,8.321607589999985],[5.335808277000012,8.32856369000001],[5.332330227,8.331171988999984],[5.324504852000018,8.333780289000003],[5.32102727900002,8.325085639999998],[5.311462878999976,8.308566093000024],[5.306246281000028,8.300740242000018],[5.299725056,8.295523643000024],[5.290161133000026,8.284220694999988],[5.285813808,8.278569220999998],[5.281031609000024,8.27378749799999],[5.274510860000021,8.27074432400002],[5.263207436000016,8.268135071000017],[5.255816935999974,8.265526771999987],[5.245818138000004,8.257266997999977],[5.239895821000005,8.255067825000026],[5.230602740999984,8.244225502000006],[5.227559566000025,8.240312576000008],[5.2240815160000125,8.237704276999978],[5.2175607679999985,8.235964775000014],[5.2088661189999925,8.225531578000016],[5.197997569999984,8.21422862999998],[5.193650246000004,8.200317383000026],[5.193650246000004,8.194231032999994],[5.191476822000027,8.190752982999982],[5.1858248710000225,8.18901443499999],[5.181912421999982,8.192491530999973],[5.180173396999976,8.182058333999976],[5.177565098000002,8.171625136999978],[5.177565098000002,8.165972710000005],[5.175826072999996,8.159887314000002],[5.171478748000027,8.152061462000006],[5.168001174999972,8.147714614999984],[5.164088248999974,8.143801688999986],[5.151481151999974,8.135541916000022],[5.134091854000019,8.118587493999996],[5.12757062899999,8.111196517999986],[5.112789630999998,8.097720145999972],[5.092792034000013,8.079461098000024],[5.083662510000011,8.070766449000018],[5.077576636999993,8.066419601000007],[5.073663711999984,8.06337642699998],[5.069751263000001,8.056855202000008],[5.06648540499998,8.054468154999995],[5.062942981999981,8.052833556999985],[5.054930210000009,8.049190521000014],[5.057632923000028,8.039464951000014],[5.061813830999995,8.038155555999992],[5.0723514559999785,8.031005859000004],[5.075738430000001,8.024984360000019],[5.08439397799998,8.024231911000015],[5.087197303999972,8.027896881000004],[5.089286327000025,8.03062915800001],[5.097189426,8.03928470599999],[5.104340076000028,8.046812057000011],[5.114124774999993,8.058101653999984],[5.117887973999984,8.062618256000007],[5.127672672000017,8.062994002999972],[5.142349720000027,8.061864852999975],[5.150629044000027,8.055843353],[5.15702676799998,8.052456855999992],[5.1626114850000135,8.04950618700002],[5.163653850999992,8.055550574999984],[5.170174599000006,8.081199646000016],[5.190607070999988,8.11336994200002],[5.206257343000004,8.125977515999978],[5.241470814000024,8.142063140999994],[5.276684283999998,8.153366088999974],[5.2962474820000125,8.161190986999998],[5.323635577999994,8.168147087000023],[5.34624147400001,8.171190261999982],[5.36623954800001,8.171190261999982],[5.405365467000024,8.17858028400002],[5.434492588000012,8.185101508999992],[5.454055786000026,8.197709083999996],[5.4575333600000135,8.206403732000012]]]},"properties":{"fid":476,"cty_nm":"Nigeria","iso3cd":"NGA","adm1nm":"Kwara","adm2nm":"Oke-Ero","adm1cd":"NGA024","adm2cd":"NGA024014"}},{"type":"Feature","id":477,"geometry":{"type":"Polygon","coordinates":[[[4.747418879999998,8.20971870400001],[4.7444152830000235,8.215726851999989],[4.737548828000001,8.230746269000008],[4.734115600999985,8.23804187799999],[4.728966236000019,8.245337485999983],[4.719525336999993,8.256065368999998],[4.713946341999986,8.268081665000011],[4.707509517999995,8.282242774999986],[4.7027888299999745,8.294687270999987],[4.6912021640000034,8.315286635999996],[4.678328513999986,8.335455894000006],[4.672320366000008,8.34403801000002],[4.6641068459999815,8.35635375999999],[4.654726028000027,8.350046157999998],[4.650005340999996,8.346612929999992],[4.641851901999985,8.336314200999993],[4.637989521000009,8.326872825999999],[4.628977775999999,8.30884933499999],[4.627690314999995,8.303270339999983],[4.624257087999979,8.28868007699998],[4.622111797000002,8.281384467999999],[4.601084232000005,8.26336097699999],[4.590785026999981,8.251344680999978],[4.584776878000014,8.240187644999992],[4.583060264999972,8.235037804000001],[4.583060264999972,8.229458808999993],[4.583060264999972,8.220018386999982],[4.584776878000014,8.212722778],[4.58863925899999,8.204569816999992],[4.592930317000025,8.198561668000025],[4.597651004999989,8.186116218999985],[4.594646931,8.171096802000022],[4.591642857000011,8.166805266999972],[4.584347724999986,8.159081458999992],[4.575765133000004,8.155219078000016],[4.566753387000006,8.152644156999997],[4.558599472000026,8.14663600900002],[4.535855292999997,8.135049820000006],[4.527701854999975,8.132045746000017],[4.5195484160000206,8.130329131999986],[4.504528521999987,8.125608444000022],[4.494964122999988,8.122775078000018],[4.495437144999983,8.11709976200001],[4.505629063000015,8.091958999999974],[4.5334868429999915,8.071575165000013],[4.5572681429999875,8.058665276],[4.568998336999982,8.054756165000015],[4.579022883999983,8.057763099999988],[4.59045887000002,8.062337875000026],[4.598083019000001,8.063862801000028],[4.603038787999992,8.068056107000018],[4.612950324999986,8.073011398000006],[4.621718407000003,8.075679778999984],[4.628961086000004,8.074536324000007],[4.633916854999995,8.071486472999993],[4.634137629999998,8.06817626999998],[4.632392406000008,8.061194419999993],[4.633916854999995,8.057001114000002],[4.637347697999985,8.053569793999998],[4.642684937000013,8.053188324000018],[4.648403168000016,8.053569793999998],[4.653358936000018,8.050519942999983],[4.659458159999986,8.045564651000007],[4.66555738400001,8.043276787000025],[4.673563004000016,8.045946120999986],[4.675087928999972,8.049757956999997],[4.679662227999984,8.052044867999996],[4.682712078000009,8.054713248999974],[4.687286377000021,8.057001114000002],[4.692242146000012,8.056238173999986],[4.695672989000002,8.052426337999975],[4.69960880299999,8.049096107000025],[4.704441071000019,8.048233031999985],[4.705588341000009,8.051510811000014],[4.711684226999978,8.05966949499998],[4.721214293999992,8.064244270000017],[4.735319138000023,8.063481330999991],[4.745611667999981,8.064244270000017],[4.754760741999974,8.065006256000004],[4.766197205000026,8.068056107000018],[4.774718760999974,8.068306923000023],[4.779158114999973,8.068437576000008],[4.785638808999977,8.068437576000008],[4.792447089999996,8.066660881000018],[4.799294949,8.065057754999998],[4.79649925199999,8.067988395999976],[4.793765544999985,8.07368373899999],[4.790761470999996,8.080549239999982],[4.782608031999985,8.088703156000008],[4.781426907000025,8.092098236000027],[4.779174805000025,8.09857273099999],[4.775742053999977,8.11616802200001],[4.773596286999975,8.123033523999993],[4.770163059000026,8.137195587000008],[4.764155388000006,8.156077385000003],[4.7628679279999915,8.161227225999994],[4.759863853000013,8.17710495],[4.757288932999984,8.183542251999995],[4.747848034000015,8.203282355999988],[4.747418879999998,8.20971870400001]],[[4.722100258000012,8.11445140799998],[4.714375496000002,8.111876488000007],[4.701930522999987,8.111876488000007],[4.6886277199999995,8.112305640999978],[4.68090295799999,8.11445140799998],[4.673607826000023,8.114022255000009],[4.665454388000001,8.110589027000003],[4.652151107999998,8.109730721000005],[4.643139361999999,8.108014106999974],[4.632411003000016,8.109301566999989],[4.630694388999984,8.11144733399999],[4.633269310000003,8.121316910000019],[4.631552696000028,8.123033523999993],[4.623828410999977,8.129899979000015],[4.621253490000015,8.13934135400001],[4.6229701039999895,8.141915320999999],[4.630265236000014,8.150498389999996],[4.639706134999983,8.15693569199999],[4.644426823000003,8.15993976599998],[4.650434494000024,8.162513733000026],[4.654726028000027,8.169380187999991],[4.658587932999978,8.174959182999999],[4.663737774000026,8.18182563800002],[4.668028831000015,8.194699286999992],[4.66974544499999,8.198132514999998],[4.676182746999984,8.20542812299999],[4.683048724999992,8.210577010999998],[4.687340259999985,8.214868545999991],[4.693777083999976,8.21744346600002],[4.698068619000026,8.216156006000006],[4.703217983000002,8.214439391999974],[4.70579290400002,8.212722778],[4.707080363999978,8.210147858000028],[4.708367824999982,8.205857277000007],[4.709655284999997,8.201136588999987],[4.709655284999997,8.197703362000027],[4.711371899000028,8.192982674000007],[4.712658882000028,8.188691139000014],[4.71523380299999,8.18182563800002],[4.718237876999979,8.173671721999995],[4.721671103999995,8.166805266999972],[4.722100258000012,8.15993976599998],[4.722958564999999,8.154789924999989],[4.726391315000001,8.152644156999997],[4.732399464000025,8.148352622999994],[4.734544754000012,8.142773627999986],[4.738836288000016,8.138912200999982],[4.740982056000007,8.135478972999977],[4.7444152830000235,8.128612518000011],[4.746560574,8.122604369999976],[4.739265441999976,8.117455482000025],[4.728537082999992,8.11616802200001],[4.722100258000012,8.11445140799998]]]},"properties":{"fid":477,"cty_nm":"Nigeria","iso3cd":"NGA","adm1nm":"Kwara","adm2nm":"Oyun","adm1cd":"NGA024","adm2cd":"NGA024015"}},{"type":"Feature","id":478,"geometry":{"type":"Polygon","coordinates":[[[6.208536148000007,8.732375144999992],[6.20321607599999,8.734561919999976],[6.185323238000024,8.729681969000012],[6.169057368999972,8.72154903400002],[6.149538039999982,8.720735549999972],[6.144658089000018,8.729681969000012],[6.131645203000005,8.751641273000018],[6.114566325999988,8.758147240000028],[6.08447408699999,8.760587692000001],[6.058448315000021,8.75896072400002],[6.033236026999987,8.75896072400002],[5.999890804000017,8.751641273000018],[5.978744984000002,8.75001430499998],[5.974678515999983,8.756521224999972],[5.943772792999994,8.74838828999998],[5.9283204079999905,8.742694855000025],[5.901481151999974,8.75001430499998],[5.886841774000004,8.746761321999998],[5.864882946000023,8.745134354000015],[5.824217796000028,8.742694855000025],[5.795752047999997,8.741881370999977],[5.774606227999982,8.753267288000018],[5.760780334000003,8.773600578000014],[5.742074489999993,8.797999382],[5.728248119,8.819958686999996],[5.712795733999997,8.82890510599998],[5.691649913999981,8.828091620999999],[5.665624142000013,8.83053111999999],[5.642038345000003,8.835411072],[5.619266032999974,8.852490424999985],[5.605439663000027,8.867942809999988],[5.601373195999997,8.876889229000028],[5.572907924999981,8.892342567000014],[5.563148022000007,8.898848534000024],[5.543629168999985,8.916741371],[5.539562702000012,8.930567741000004],[5.525417805000018,8.940100669999993],[5.525417805000018,8.937387466000018],[5.522704123999972,8.93060398099999],[5.516599177999979,8.920428275999996],[5.5064239499999985,8.913645744000007],[5.492857456000024,8.906183242999987],[5.479969025000003,8.895330429000012],[5.473185538999985,8.88583374000001],[5.466402054000014,8.87837123899999],[5.4582619669999985,8.868196486999977],[5.4480867390000185,8.861413002000006],[5.447408676000009,8.842419624000001],[5.450121879999983,8.82681751299998],[5.461653709000018,8.804432868999982],[5.462331772000027,8.796970366999972],[5.461653709000018,8.78272533400002],[5.46029710800002,8.764410019000024],[5.454191685000012,8.747451781999985],[5.450121879999983,8.720317840999996],[5.45487022399999,8.699289322000027],[5.457583426999975,8.675547600000016],[5.463010311000005,8.665372848999993],[5.477255344000014,8.635525702999985],[5.486073970999996,8.609748840000009],[5.503710747000014,8.579223633000026],[5.515920639000001,8.558195114],[5.5172777180000026,8.550054550000027],[5.513207436000016,8.538522720000003],[5.524109839999994,8.536930084000005],[5.533869267,8.530423164000013],[5.544442177000008,8.523103714000001],[5.554202079999982,8.512530326999979],[5.574534416000006,8.506024361000016],[5.588360309999985,8.497077941999976],[5.599746703999983,8.488945006999984],[5.642851829999984,8.462919235000015],[5.6583042139999975,8.459666251999977],[5.688176632000022,8.452851295000016],[5.7046623229999796,8.445839881999973],[5.719302176999975,8.443400382999982],[5.748580933000028,8.437706946999981],[5.76647329299999,8.432826996000017],[5.782739638999999,8.427947044000007],[5.790872573999991,8.427134513999988],[5.805511951000028,8.425507545000016],[5.818524836999984,8.427134513999988],[5.829097747999981,8.426321029999997],[5.849430084000005,8.422254561999978],[5.8656959529999995,8.423068047000015],[5.883588791000022,8.423068047000015],[5.897414684000012,8.423068047000015],[5.9120540619999815,8.423880576999977],[5.925066947999994,8.418188095000005],[5.942959785000028,8.412494659000004],[5.956785679000006,8.408428191999974],[5.978744984000002,8.405175208999992],[5.990944386000024,8.40192222600001],[6.013716697999996,8.400295258000028],[6.020223140999974,8.397855758999981],[6.040555954000013,8.392975807000028],[6.060074805999989,8.393788337999979],[6.077967644000012,8.397855758999981],[6.082657814000015,8.401763915999993],[6.097486973000002,8.414121627999975],[6.111312865999992,8.431200981000018],[6.113124846999995,8.441468239000017],[6.113752841999997,8.445026397999982],[6.113752841999997,8.461293221000005],[6.117005824999978,8.483251571999972],[6.1194458009999835,8.51090431199998],[6.123512268000013,8.538556099000004],[6.125139235999995,8.55563545199999],[6.133272170999987,8.567834854000012],[6.139778614000022,8.580847740000024],[6.147911549000014,8.596301079],[6.154417991999992,8.617446899000015],[6.162550925999994,8.637779235999972],[6.169870376999995,8.662991524000006],[6.183696746999999,8.686576843000012],[6.208536148000007,8.732375144999992]]]},"properties":{"fid":478,"cty_nm":"Nigeria","iso3cd":"NGA","adm1nm":"Kwara","adm2nm":"Pategi","adm1cd":"NGA024","adm2cd":"NGA024016"}},{"type":"Feature","id":689,"geometry":{"type":"Polygon","coordinates":[[[3.714665652000008,10.10177612299998],[3.7124817370000187,10.108327866000025],[3.7073855400000184,10.117064475999996],[3.7073855400000184,10.132352829000013],[3.7073855400000184,10.143273353999973],[3.7030172359999938,10.152737617000014],[3.692824841999993,10.157834052999988],[3.688456773999974,10.161474227999975],[3.684816598999987,10.170210838000003],[3.6782095620000064,10.17682991800001],[3.6525218159999895,10.171383939000009],[3.6523525939999786,10.167698525999981],[3.650076458000001,10.161934082000016],[3.6490959409999846,10.156968273000018],[3.648272717999987,10.149758668000004],[3.6464733189999947,10.139666496000018],[3.6451653199999896,10.132618055000023],[3.6435298009999997,10.123487017000002],[3.6425485739999885,10.118040414000006],[3.639868352999997,10.11365196600002],[3.6371882049999726,10.109263494999993],[3.6345973289999733,10.104434562999984],[3.6336226390000093,10.102192921999972],[3.633131218000017,10.098988856000005],[3.63199606500001,10.09738852999999],[3.6298940849999894,10.097552794000023],[3.6274696279999716,10.098198431000014],[3.62359061799998,10.099327555000002],[3.620356268000023,10.099333655999999],[3.6140469179999855,10.098063437000008],[3.6109730869999908,10.097428148999995],[3.6043373680000172,10.09455583800002],[3.5988310760000104,10.090239087999976],[3.596352513999989,10.088239664000014],[3.594461555999999,10.086152046999985],[3.5925128960000166,10.084000684999978],[3.5881348219999722,10.077438160999975],[3.5863409899999965,10.069108233000009],[3.5856866670000045,10.064942841000004],[3.585682334000012,10.062539050999987],[3.586302262999993,10.047634503999973],[3.5882347350000146,10.043304238000019],[3.590817405999985,10.040895864999982],[3.5943695629999866,10.038165220999986],[3.5972743489999743,10.035115212999983],[3.600985131000016,10.030781704999981],[3.602598078000028,10.028695495000022],[3.601943972000015,10.024690394999993],[3.6016052400000262,10.016357872000015],[3.6020787520000113,10.010107189999985],[3.6020592720000195,9.999530538999977],[3.6004370210000047,9.996488684999974],[3.598070122000024,9.991776000000016],[3.595578470000021,9.985062490000018],[3.5940771859999927,9.977527925999993],[3.5920818879999956,9.970977337000022],[3.590196579999997,9.964262685999984],[3.5883113479999906,9.957548022000026],[3.586426194000012,9.950833344999978],[3.583441069999992,9.94510369599999],[3.5799599480000097,9.939211003000025],[3.5744970950000265,9.934086320999995],[3.5690344120000077,9.928961548000018],[3.56357189900001,9.923836685000026],[3.5595969920000243,9.918763850999994],[3.557944051999982,9.91627530300002],[3.557936464000022,9.911788199],[3.5584132239999917,9.90697974699998],[3.5642963849999774,9.900957036000023],[3.564445653000007,9.900804228000027],[3.5643054399999983,9.900087810999992],[3.56413097799998,9.899196404999998],[3.5635307590000025,9.896129598000016],[3.561712041000021,9.893254977000026],[3.559165235000023,9.891437558000007],[3.558443225000019,9.890922326999998],[3.5537186070000075,9.885714378999978],[3.5422776639999825,9.877100014000007],[3.5371035709999887,9.874050781999983],[3.531929574000003,9.87100146900002],[3.527842303,9.866961167],[3.5237551320000193,9.862920814999995],[3.519069112000011,9.860180280000009],[3.5148600960000067,9.857718711000018],[3.502773917000013,9.856072610000012],[3.5024040420000233,9.857885096000018],[3.50229736,9.858407864000014],[3.50225879300001,9.860273643000028],[3.500968406000027,9.861878135999973],[3.499836947999995,9.861719553],[3.4972496340000134,9.860601582000015],[3.495548004999989,9.85891910800001],[3.494336492000002,9.857721234999985],[3.4917515910000247,9.858205782000027],[3.4907347579999737,9.85845329099999],[3.4901967629999717,9.859194279000008],[3.48958492700001,9.860107276999997],[3.4873012639999956,9.863515011000004],[3.484039282000026,9.865318272000025],[3.479325521000021,9.866583993999996],[3.4746117249999884,9.867849649999982],[3.4668120480000084,9.867320978999999],[3.461277635999977,9.8654401],[3.4557432870000184,9.863559129999999],[3.4477577420000216,9.859612982999977],[3.443402906000017,9.858089952],[3.4390481099999874,9.856566864000001],[3.4357461970000145,9.854511118000005],[3.4341472639999893,9.853515634000019],[3.4292465080000056,9.850464332000001],[3.422926146000009,9.850329835000025],[3.421266371999991,9.850294514999973],[3.4135554650000017,9.847875970000018],[3.405844670000022,9.845457248000002],[3.399546144999988,9.842706168000007],[3.3932477249999806,9.839954970000008],[3.3894353539999997,9.839428838999993],[3.3884487529999774,9.839815343999987],[3.3824466489999736,9.839992267000014],[3.3789016370000127,9.839315942999974],[3.376499258000024,9.838014704999978],[3.3726667450000036,9.835807930999977],[3.3659765770000263,9.834057755999993],[3.3649476909999976,9.834115574000009],[3.363747681999996,9.834513716999993],[3.3622614199999816,9.834515312000008],[3.3604314930000214,9.833893639999985],[3.356083749999982,9.830836841999997],[3.350305334999973,9.826194064999981],[3.348645619000024,9.824268222],[3.346470791999991,9.821719286000018],[3.3457228500000156,9.817071236999993],[3.345622110000022,9.816495284999974],[3.3427184799999736,9.81307611699998],[3.342705867999996,9.81305185299999],[3.3397535589999734,9.807371745000012],[3.334131649000028,9.801185891999978],[3.328141658999982,9.78933247499998],[3.326203695999993,9.782599866999988],[3.3244901510000204,9.772668893999992],[3.32377655800002,9.769201178999992],[3.3234350370000243,9.767541558000005],[3.3232680809999806,9.761932591999994],[3.3258411740000042,9.749750313999982],[3.3276129070000025,9.74429976099998],[3.329709286000025,9.740451478000011],[3.332611722000024,9.734999806000019],[3.335029621999979,9.729708816000027],[3.3382561419999774,9.725378589999991],[3.3392352370000253,9.72419666899998],[3.3427736599999776,9.719925245000013],[3.3471316960000195,9.716555383000014],[3.352296803999991,9.712703841999996],[3.360042877000012,9.705644300000017],[3.3616549210000244,9.702597657000013],[3.361490993000018,9.700354188000006],[3.3600346669999794,9.697951800999988],[3.3579314219999787,9.694748801000003],[3.3503287990000103,9.68417942000002],[3.3451569100000142,9.680979440999977],[3.3417612800000143,9.677296824999985],[3.3382044109999924,9.673774614000024],[3.334486202999983,9.670412753999983],[3.326726752000013,9.66336869700001],[3.317352232000019,9.65600544099999],[3.3125046659999953,9.653445680999994],[3.3113748690000193,9.654248026999994],[3.3107309089999717,9.656492264000008],[3.3096841729999937,9.657532801000002],[3.3081491089999986,9.659058774000016],[3.304759737999973,9.661625988000026],[3.300400550000006,9.663392695000027],[3.29533961300001,9.663968738999984],[3.289988988999994,9.664139212999999],[3.284972362000019,9.66381157799998],[3.277613283999983,9.661660659000006],[3.272160413999984,9.659408516999974],[3.2673105470000223,9.658416801999977],[3.2621227050000243,9.65277955800002],[3.2594444449999855,9.646891542999981],[3.256766276999997,9.641003505000015],[3.2566359140000145,9.640716886000007],[3.2560285580000254,9.639381543000013],[3.2540882029999807,9.635115444000007],[3.2537486209999997,9.634368809000023],[3.2537426750000122,9.626404700000023],[3.254428168000004,9.621135873000014],[3.2554050090000146,9.61362769599998],[3.2574075079999716,9.608648631999984],[3.2548959260000174,9.603573363999999],[3.2498764420000157,9.598101665000002],[3.245310109000002,9.591539243],[3.240743951000013,9.584976757999982],[3.236177968999982,9.578414210000005],[3.2316121619999763,9.571851600000002],[3.227046530999985,9.565288927999973],[3.2224810739999725,9.558726192999984],[3.2179157929999747,9.55216339499998],[3.2153194360000157,9.54353715100001],[3.2127232099999787,9.534910883999999],[3.205199515000004,9.531596980000018],[3.200850138000021,9.525543407999976],[3.197362202000022,9.520688593999978],[3.1965009150000014,9.519489780000015],[3.1929880920000073,9.514431154000022],[3.1908129639999743,9.511298754999984],[3.1894753729999934,9.509372491000022],[3.1866136770000253,9.507373228000006],[3.186026487999982,9.506962999999985],[3.1821186220000186,9.504232853000019],[3.1779355699999883,9.50154226699999],[3.171635937000019,9.500024365000002],[3.167079548999993,9.49904333500001],[3.165347935999989,9.498670478999998],[3.162523185999987,9.498062246000018],[3.158826155999975,9.495360457000004],[3.158758356000021,9.495310909000011],[3.1549935869999786,9.492559530999984],[3.15300913599998,9.484301205999998],[3.1526100329999736,9.47761535699999],[3.152210944999979,9.470929505000015],[3.1506188820000034,9.453625156999976],[3.1480418759999793,9.448316755000008],[3.1454649489999724,9.443008331999977],[3.1434821560000046,9.437502983000002],[3.143480205000003,9.43278342299999],[3.1434782540000015,9.428063860999998],[3.1416938759999766,9.423148369999979],[3.139909548999981,9.418232869000008],[3.1406973960000073,9.407613524999988],[3.144142971000008,9.401386521000006],[3.146173358999988,9.398292004999973],[3.1473396509999816,9.390493160999995],[3.1505107340000222,9.382527548999974],[3.153681672999994,9.374561905999997],[3.1555165550000197,9.368007164000005],[3.1573513690000254,9.361452410000027],[3.156177762000027,9.352161251999974],[3.1549435630000175,9.349406511999973],[3.1541710409999837,9.347682227999996],[3.1539296110000237,9.347203165999986],[3.1539295769999853,9.347126447999983],[3.15392704300001,9.341356836999978],[3.154247336000026,9.335907652999992],[3.155211274999999,9.326291232000017],[3.155330477000007,9.32511619600001],[3.156329778999975,9.318395881000015],[3.157329042000015,9.311675561000015],[3.1577440880000154,9.305951029000028],[3.1581591199999934,9.300226494000015],[3.1584910249999893,9.295414573000016],[3.1588229210000236,9.290602650999972],[3.1588226960000156,9.290104884000016],[3.1576131119999786,9.285820892999993],[3.1564805660000275,9.281809746000022],[3.1524267190000046,9.277167206000001],[3.1517226899999855,9.274982260000002],[3.150813210000024,9.272159701000021],[3.144537394999986,9.266676449999977],[3.14147129600002,9.264433935],[3.13646872999999,9.260749730999976],[3.1314307119999967,9.25563119100002],[3.13024470900001,9.248137739000015],[3.1252304120000076,9.237022610999986],[3.1222222690000194,9.231216313000004],[3.12263791700002,9.225823633000005],[3.1230535519999876,9.22043094999998],[3.123550487999978,9.208733128000006],[3.1240493610000044,9.202676715999985],[3.123259221000012,9.198712101000012],[3.1212414039999885,9.188587482000003],[3.1212056690000054,9.188408174000017],[3.1201213929999767,9.18666234699998],[3.1181147969999756,9.183431460000008],[3.1150240110000027,9.178454719000001],[3.111181206000026,9.171155240000019],[3.107338557999981,9.16385571699999],[3.104415142999983,9.159127705999992],[3.1014918050000233,9.154399671000021],[3.098351025999989,9.147954355000024],[3.0952103609999995,9.141509009000004],[3.0920698080000193,9.135063634000005],[3.088929367999981,9.128618228999983],[3.0869238729999893,9.120322438000017],[3.0856704029999946,9.114764245999993],[3.0844169719999854,9.109206047999976],[3.0844158040000025,9.104228276000015],[3.081409810000025,9.099914893000005],[3.076420942000027,9.097454158000005],[3.0714217889999986,9.095692217000021],[3.0636815189999993,9.09425124400002],[3.0577150820000156,9.093130334000023],[3.0528771620000157,9.090085951999981],[3.044169275999991,9.085920115000022],[3.0399766979999754,9.084317890000023],[3.0336880649999785,9.083677454999986],[3.0290117810000083,9.081273823999993],[3.020143250999979,9.07967174700002],[3.0133709950000025,9.07887070800001],[3.00256770499999,9.079031197999996],[2.9941830789999813,9.080633861000024],[2.9881278789999897,9.079412011999977],[2.9806290070000045,9.077143154999987],[2.9763060459999906,9.07512077299998],[2.9750864869999987,9.074550234000014],[2.9710702360000028,9.076979731999984],[2.9675871950000214,9.079086683000014],[2.9620439110000234,9.084271333000004],[2.9592720859999986,9.087997885999982],[2.9577955269999734,9.089982979000013],[2.956500204000008,9.091724417000023],[2.95400730099999,9.092549983000026],[2.952587386999994,9.09302021100001],[2.9442731180000123,9.092046817999972],[2.9359588940000094,9.091073236],[2.9275905139999736,9.089451300999997],[2.927044905999992,9.08934554000001],[2.9192222099999867,9.087829175000024],[2.9108539810000025,9.08620685599999],[2.903518360000021,9.084422593],[2.896182811000017,9.082638181999982],[2.8893372470000145,9.078099149000025],[2.8844836320000127,9.074880727999982],[2.882491855000012,9.07355998600002],[2.862279526000009,9.068367739999985],[2.845652716000018,9.066416668999977],[2.8097892399999864,9.066723851000006],[2.8026162880000243,9.067260168000018],[2.795443315,9.067796344999977],[2.788270319999981,9.068332381000005],[2.782619189000002,9.068646128000012],[2.7809891840000205,9.06851554100001],[2.7800770470000202,9.067348389000017],[2.77923047500002,9.06559796800002],[2.7789056459999983,9.063653422000016],[2.77949318200001,9.062487180000005],[2.780118765999987,9.061753183999997],[2.7802109209999912,9.061645059],[2.781449998000028,9.061256932999981],[2.7832108410000274,9.060609865999993],[2.7835772849999785,9.060473523999974],[2.7837575249999986,9.059655695000004],[2.783798508000018,9.058652182999992],[2.7837993960000063,9.057166943000027],[2.7832347020000157,9.056042647000027],[2.782831207000015,9.055480429999989],[2.7825490660000014,9.054597151999985],[2.782872693999991,9.053674081999986],[2.7838019380000105,9.052911934000008],[2.7851347650000093,9.052551452999978],[2.786709609000013,9.052672789999974],[2.78824395700002,9.052994822000016],[2.7894956740000225,9.053236395999988],[2.790505173999975,9.05335739100002],[2.791312915999981,9.05319728400002],[2.792242217000023,9.052314701],[2.792404245,9.051431671999978],[2.792081723000024,9.050508241999978],[2.7894992440000124,9.04709473600002],[2.787158421000015,9.044845454999972],[2.7861493720000112,9.044001889000015],[2.785404758000027,9.043507795999972],[2.785301704999995,9.043439415000023],[2.784534619999988,9.043157964999978],[2.78312357599998,9.039303555999993],[2.7835420729999782,9.039182481000012],[2.784092883000028,9.039023127000007],[2.7845777929999826,9.038461433000009],[2.7850632020000035,9.037056759999984],[2.78498278699999,9.036454595999999],[2.7846602600000097,9.035591352999973],[2.7836512760000005,9.034707638999976],[2.7825936329999763,9.033959666999976],[2.782117468000024,9.033622920000028],[2.7810275890000185,9.03297999900002],[2.7797357970000007,9.032377108999981],[2.7787668589999726,9.032055389999982],[2.776828830999989,9.03169294899999],[2.7757402240000033,9.031274397999994],[2.775681727999995,9.031114147999972],[2.7761495309999873,9.029876315000024],[2.7773957200000154,9.028716308000014],[2.777958393000006,9.028695132999985],[2.7794197179999856,9.028640137000025],[2.781599364999977,9.028564045999985],[2.782922766000013,9.028487444000007],[2.788762288999976,9.02624670900002],[2.789696957999979,9.025318653],[2.789697629999978,9.024157881000008],[2.7893093580000254,9.022532586000011],[2.7890585089999718,9.021861831000024],[2.787984784999992,9.021014256],[2.7868740249999746,9.020166659999973],[2.784689362999984,9.018839721000006],[2.783615516999987,9.018213084000024],[2.783550909999974,9.018186871000012],[2.7826156599999763,9.01780742699998],[2.78168976500001,9.017549105],[2.780060170000013,9.01717990100002],[2.77909718799998,9.01703201700002],[2.778097290000005,9.016663182000002],[2.777838508000002,9.015852888999973],[2.7776907649999885,9.015153139999995],[2.777616969999997,9.014674386000024],[2.777728520999972,9.013971108000021],[2.777885156000025,9.013722794999978],[2.7800272729999733,9.010326915999997],[2.7832141939999815,9.007935239999995],[2.7843998170000077,9.007383573000027],[2.7858936549999953,9.006666852000023],[2.7872954110000023,9.00550690199998],[2.787919022999972,9.003959580000014],[2.7872972200000277,9.002411541000015],[2.784807347000026,9.000862423000001],[2.7820913780000183,8.998846921999984],[2.781215340000017,8.997296408000011],[2.7810214419999966,8.995649388000004],[2.7822888630000193,8.994487632000016],[2.785407551999981,8.993520708999995],[2.786524170000007,8.993424835999974],[2.787111717000016,8.993797039000015],[2.787777979999987,8.994533911000019],[2.7898521469999764,8.994571915999984],[2.7910003790000246,8.99453575199999],[2.792222890000005,8.994168179999974],[2.792408368999986,8.993652757000007],[2.7922237509999945,8.99265839100002],[2.791816854999979,8.991700745999992],[2.7913358669999866,8.99081669200001],[2.7905955240000253,8.990079794999986],[2.789780993000022,8.989526967000018],[2.7888181760000066,8.989194999999995],[2.7878689949999966,8.988894132999974],[2.7863740829999983,8.988420281000003],[2.78481870600001,8.988014306000025],[2.7837175220000177,8.987755897999989],[2.782683205000012,8.986834698999985],[2.7824894299999983,8.984993944999985],[2.7836402760000283,8.983442998999976],[2.783854643999973,8.983154104999983],[2.786018200000001,8.982123149000017],[2.7868592629999966,8.982123635999983],[2.78763705099999,8.98212408400002],[2.7886373489999983,8.981645934000028],[2.789215083999977,8.980832197999973],[2.790194884000016,8.978258998000001],[2.790195391999987,8.977375225999992],[2.7900847299999896,8.976601847999973],[2.7897893100000033,8.975091888999998],[2.7892350810000153,8.972771634000026],[2.788573308000025,8.97085395800002],[2.7884216279999805,8.970414419000008],[2.787940739000021,8.969419899999991],[2.7873484930000245,8.968830368999988],[2.785571398000002,8.967724632],[2.782609383000022,8.966213100999994],[2.780869012999972,8.965659700000003],[2.77698073800002,8.964810425999985],[2.7754251779999777,8.964883127999997],[2.7740921939999907,8.96436679499999],[2.773499825999977,8.964034998999978],[2.773222073999989,8.96375849399999],[2.773149473999979,8.962222575999988],[2.7735403390000215,8.960382171999981],[2.775392490999991,8.95883328399998],[2.7764187640000273,8.958153907999986],[2.777146970999979,8.957671845999982],[2.7809493429999748,8.953411573999972],[2.781244931999993,8.947889830000008],[2.783251842000027,8.94452401000001],[2.783400477999976,8.943677139999977],[2.7834753629999796,8.942314684999985],[2.783290925000017,8.94106254899998],[2.7828842079999845,8.939957590000006],[2.782366183000022,8.939220795999972],[2.7812555489999795,8.938594134000027],[2.777238206999982,8.934503725000013],[2.774741748999986,8.93196186199998],[2.77411258799998,8.931298653999988],[2.7738538379999795,8.930525190000026],[2.7737810969999828,8.928389332999984],[2.773813314999984,8.92800768699999],[2.7740787719999958,8.927042141000015],[2.7743409220000217,8.926088626000023],[2.7741480909999723,8.922794721999992],[2.77348876100001,8.922018561000016],[2.7725264189999734,8.921244659000024],[2.7714158399999747,8.920654775999992],[2.7713722249999933,8.920650134000027],[2.764454371999989,8.919913957999995],[2.763380540000014,8.919802789000016],[2.7607141240000033,8.920022039000003],[2.759380971999974,8.92005799499998],[2.7583443309999893,8.919689086999995],[2.757641047999982,8.919209914000021],[2.755792000999975,8.915415814000028],[2.7562010070000156,8.912912029999973],[2.7573520170000165,8.90827293000001],[2.757848609000007,8.907566959999997],[2.75813991199999,8.907296943000006],[2.7585710550000044,8.906897304999973],[2.7609100259999764,8.905445679000024],[2.7633463839999877,8.903994097000009],[2.764612549999981,8.904382408999993],[2.7650011029999746,8.906126411999992],[2.7662668479999866,8.907192855000005],[2.768019750999997,8.908162698000012],[2.7718182950000028,8.909424433000027],[2.7721113900000205,8.908068363999973],[2.7727960619999976,8.903612484999996],[2.7723461290000273,8.898527240000021],[2.7721188849999976,8.895958873999973],[2.770174727999972,8.889273229000025],[2.769299344999979,8.887141419999978],[2.7699821269999916,8.885688704000017],[2.771477257000015,8.884129394000013],[2.771931651999978,8.883655492999992],[2.772327632999975,8.88338914100001],[2.7725503269999763,8.882542317999992],[2.7727735060000214,8.880885369999987],[2.772663673000011,8.878859955999985],[2.772331539999982,8.877055354999982],[2.7711854020000146,8.874292841999988],[2.770741672999975,8.873371967000026],[2.769779399000015,8.872671712999988],[2.76918781400002,8.872431572999972],[2.7687799319999726,8.872266003999982],[2.7675952480000205,8.872007513000028],[2.766299091999997,8.872338113000012],[2.765410153000005,8.872816279000006],[2.7646323530000245,8.873184035999998],[2.763928819,8.873220418000017],[2.761948010000026,8.873035029999983],[2.7578012769999987,8.872627310999974],[2.7561724710000135,8.87207388500002],[2.7553951269999857,8.871741948000022],[2.754877049000015,8.871299720000025],[2.7544701699999905,8.870699210999987],[2.7546186550000016,8.870110120999982],[2.755211277000001,8.869815908000021],[2.7566184539999767,8.869559072000015],[2.758062779999989,8.86908127800001],[2.759210918000008,8.868603323000002],[2.762840573999995,8.866911716000004],[2.7638406180000175,8.86639681600002],[2.7640113570000153,8.866254000000026],[2.764544490999981,8.865808055999992],[2.765174397999999,8.86507196399998],[2.7664343310000277,8.863415668000016],[2.7666200169999797,8.86253199700002],[2.7665834769999833,8.861758666000014],[2.765066479999973,8.860100620000026],[2.7608171219999917,8.848968929000023],[2.7605574169999727,8.848288599],[2.760626794000018,8.847631050000018],[2.761153041,8.84264337899998],[2.7616350659999966,8.841538951000018],[2.762080258000026,8.840103095000018],[2.7627851859999737,8.837783600000023],[2.762711797999998,8.836752467999986],[2.7607896879999885,8.831964073999984],[2.7601611150000167,8.830711649000023],[2.759375411999997,8.829192174000013],[2.759111494000024,8.825037380000026],[2.759209831000021,8.823584290999975],[2.7596343609999963,8.823246946999973],[2.7600919989999966,8.823088939000002],[2.7607954989999826,8.822942092999995],[2.763387254999998,8.822575487999984],[2.764164404999974,8.82305470099999],[2.7650157639999975,8.823276177000025],[2.7659784200000104,8.823129470000026],[2.7669041859999766,8.822798636000016],[2.7674599879999846,8.822025672999985],[2.767168867999999,8.813960939000026],[2.7666150320000042,8.811603832000003],[2.765949101999979,8.810903751000012],[2.765061141999979,8.81005623599998],[2.7620214219999752,8.807226811000021],[2.7611023150000165,8.806371290000016],[2.7568823970000267,8.80581620800001],[2.755919604999974,8.806220665000012],[2.7545865129999925,8.80677215999998],[2.7520684859999847,8.80776477400002],[2.749624735999987,8.808389158000011],[2.748143755000001,8.808645954999974],[2.7467369990000066,8.808608187000004],[2.7442574300000047,8.807464943000014],[2.7434803809999835,8.806912054999998],[2.7421672670000135,8.805178555999987],[2.741789304000008,8.804488117000005],[2.7407200029999785,8.80158110299999],[2.739942854999981,8.79877114300001],[2.739653056999998,8.795380274000024],[2.7396536140000194,8.794583214],[2.7396546809999904,8.793055251999988],[2.7396403569999848,8.792511061000027],[2.7390860389999716,8.791148184999997],[2.7385337189999746,8.790916394000021],[2.7376797489999944,8.790558009999984],[2.735718210000016,8.789930610999988],[2.7332386580000048,8.78897144299998],[2.731573975999993,8.787386817000026],[2.730464342999994,8.786133991999975],[2.7301687780000066,8.785323634000008],[2.73042865299999,8.784292736999987],[2.7310954239999887,8.783667191000006],[2.7331960980000076,8.781950314000028],[2.7332903679999845,8.781911319000017],[2.734696251999992,8.781329771000003],[2.7350346110000032,8.78002418699998],[2.7354439060000004,8.778400404000024],[2.7351540569999884,8.776022115999979],[2.734572037000021,8.774571665999986],[2.7339324519999764,8.772077120999995],[2.7337588249999953,8.770278941000015],[2.733759733999989,8.769002887],[2.733917996999992,8.766236271000025],[2.733990265999978,8.766092743999991],[2.735000623000019,8.764085991000002],[2.736754645000019,8.762440296000022],[2.738898273000018,8.760601133000023],[2.7412380470000244,8.75672767499998],[2.742408112000021,8.754500322000013],[2.7433834280000156,8.752272840999979],[2.7453319929999793,8.750724117000004],[2.7475645650000047,8.749181222999994],[2.748368998999979,8.749064083000007],[2.749664628000005,8.748880815999996],[2.7508495690000245,8.748145105999981],[2.7517384259999744,8.747372376999976],[2.7522200799999723,8.746673024000017],[2.752442718999987,8.745826205000014],[2.751629434999984,8.74427903999998],[2.750630598999976,8.74346824700001],[2.749520878999988,8.742436415999975],[2.7488181339999755,8.74166263799998],[2.748411596999972,8.740741759999992],[2.7482274189999885,8.739415957999995],[2.7481174939999846,8.737758771000017],[2.7483790289999774,8.73411332500001],[2.7475696999999855,8.726740505999999],[2.7469092860000046,8.722146559999999],[2.745451710999987,8.717786154999999],[2.7451588110000102,8.716983040999992],[2.744674223000004,8.715654329000017],[2.744772759,8.713910625999972],[2.7451631509999856,8.712554598999986],[2.745747257000005,8.712177397000005],[2.7465094460000046,8.711685192999994],[2.752576524999995,8.711259051000013],[2.75738819999998,8.710820252000019],[2.758646660000011,8.710673763999978],[2.7597943009999995,8.710195763999991],[2.760423818999982,8.709643796000023],[2.7604620029999865,8.70780257299998],[2.7601293089999785,8.707176354000012],[2.7593154869999807,8.706549823999978],[2.758760568000014,8.706181216999994],[2.7548014579999744,8.704668877000017],[2.7516563159999805,8.70359892800002],[2.7497689080000214,8.703450393000026],[2.7489872369999944,8.703375800999993],[2.7482146009999724,8.703302071999985],[2.7470679460000156,8.702307038000015],[2.746735264999984,8.701717637999991],[2.7440060389999985,8.695987899999977],[2.741380687000003,8.69094852400002],[2.7390477679999776,8.686503861000006],[2.738456842000005,8.684772694000003],[2.738568348000001,8.684073114],[2.7393458930000065,8.683521281000026],[2.740382239999974,8.68333785499999],[2.7418626209999957,8.683265215999995],[2.742924589999973,8.68322189600002],[2.7436390359999905,8.683192753000014],[2.748894603999986,8.682533411999998],[2.750042004000022,8.682276397999999],[2.751041869000005,8.681282786999986],[2.7517826569999784,8.680325831000005],[2.7520796190000283,8.678963502999977],[2.7515996259999724,8.67726925400001],[2.7511932570000113,8.676201072000026],[2.750343182999984,8.674543398000026],[2.7498255579999977,8.673843396999985],[2.749196837999989,8.673216958000012],[2.744387685999982,8.670628679999993],[2.743647828999997,8.670230489999994],[2.740058590999979,8.669638865000024],[2.739392473999999,8.669638410999994],[2.7384307909999848,8.668938072999993],[2.7376910950000024,8.668311549999999],[2.736914526000021,8.667500877000009],[2.73621196900001,8.666690249999988],[2.734880823000026,8.665142692000018],[2.734839528000009,8.66508256200001],[2.7344876579999777,8.663043250999976],[2.7344895609999753,8.660330713999997],[2.735853729999974,8.658587872999988],[2.7380375700000172,8.657638901999974],[2.7383960390000084,8.65754341500002],[2.743990487000019,8.656053204999978],[2.7453598420000276,8.655796350999992],[2.7478022799999735,8.655650663000017],[2.7507995600000186,8.65587358800002],[2.751761354999985,8.656389749000027],[2.7528712760000076,8.656758717000002],[2.754129546999991,8.656612231999986],[2.755017964999979,8.656170898000028],[2.755277552999985,8.655324096000015],[2.755278148000002,8.65440348300001],[2.7548351039999943,8.652819732000012],[2.7526538810000147,8.649651403999997],[2.751102209999999,8.645820618000016],[2.750431192999997,8.640765321000003],[2.7503721479999967,8.639028431999975],[2.7510558100000253,8.63563818199998],[2.7523225140000136,8.63379832999999],[2.7532937700000275,8.632832994000012],[2.7539601749999747,8.632491893999998],[2.7549231039999995,8.631166818999986],[2.755219512999986,8.630577827000025],[2.7551832429999763,8.629436220000002],[2.7542615770000225,8.624169694999978],[2.7538922680000155,8.623064698000007],[2.7535227800000257,8.622254318999978],[2.7526720860000182,8.621701407999979],[2.750637876999974,8.620337584000026],[2.750364063999996,8.620054633999985],[2.7498153600000137,8.619487622999998],[2.7498009459999935,8.619458871999996],[2.7498020290000227,8.617811958000004],[2.750273419999985,8.617309958000021],[2.7511657609999816,8.616359676999991],[2.7530107179999845,8.615243641999996],[2.7537122740000086,8.615331388000016],[2.7551185130000135,8.615037690999998],[2.756117843000027,8.614559596999982],[2.756636377999996,8.613749779999978],[2.7565999189999957,8.612902786999996],[2.75611961300001,8.611797740999975],[2.7537537690000136,8.608371523000017],[2.752940329000012,8.607487203999995],[2.7520157050000194,8.606897417000027],[2.750396873999989,8.601343207000014],[2.7503210309999986,8.595664736000003],[2.752059175999989,8.589718989000005],[2.753230636000012,8.58439148399998],[2.7531353520000152,8.581194451999977],[2.755181649000008,8.57761130199998],[2.7571167059999766,8.575762783000016],[2.757677154000021,8.575227400000017],[2.758510913000009,8.575084865000008],[2.7593249720000017,8.574901238999985],[2.7602504179999983,8.574091667000005],[2.7618798080000033,8.571662219000018],[2.7620714469999825,8.571199791000026],[2.776226281999982,8.590375900000026],[2.802357196999992,8.610358238999993],[2.8407847880000077,8.610358238999993],[2.888435125000001,8.608820915000024],[2.9207143780000138,8.611895560999983],[2.942233800999986,8.638026238000009],[3.0144779679999942,8.710269928000002],[3.051368475000004,8.728715898000019],[3.103630065999994,8.750234604000013],[3.13129806500001,8.777902602999973],[3.163577318000023,8.808645248000005],[3.183559656,8.811718942000027],[3.1973936559999743,8.796348572],[3.2373583319999852,8.782514573000014],[3.281934499999977,8.804033279999999],[3.3388073439999744,8.825552940000023],[3.38799476600002,8.842461586000013],[3.4161314959999913,8.860165596000002],[3.5247972010000126,8.92853927599998],[3.6037743090000163,8.960129737999978],[3.6554512980000027,8.980800628999987],[3.6821796890000087,8.994165420999991],[3.7200098039999716,9.013080596999998],[3.743066311000007,9.046896935000007],[3.7522890569999845,9.086861610000028],[3.7538261409999905,9.12067794799998],[3.770734310000023,9.146808624000016],[3.795327901999997,9.165253639000014],[3.810251235999999,9.173461913999972],[3.8105998039999918,9.205241203000014],[3.8160774710000283,9.704633713000021],[3.8199408049999874,10.056839943],[3.8233191969999893,10.05430603000002],[3.8180456160000062,10.066830634999974],[3.7991170880000027,10.071198462999973],[3.7969329370000082,10.066102982000018],[3.794020891999992,10.062462806999974],[3.7845563899999775,10.062462806999974],[3.780188322000015,10.052269936000016],[3.7845563899999775,10.045718193000027],[3.788196565000021,10.038437842999997],[3.788196565000021,10.034069061000025],[3.783828497999991,10.031157494000013],[3.775092126000004,10.033341408000013],[3.7721800809999877,10.040621757999986],[3.7714519510000173,10.047174454000015],[3.766355754000017,10.053726196000014],[3.761987686999987,10.058822631999988],[3.7576193809999836,10.063190459999987],[3.7503390319999994,10.068286896000018],[3.7459709650000264,10.077023505999989],[3.7430589209999994,10.08430385600002],[3.735050440000009,10.087943076999977],[3.7343225490000123,10.079935073999991],[3.7365067019999856,10.074838638000017],[3.7365067019999856,10.068286896000018],[3.7306823740000254,10.068286896000018],[3.7153937830000245,10.089399338000021],[3.714665652000008,10.10177612299998]]]},"properties":{"fid":689,"cty_nm":"Nigeria","iso3cd":"NGA","adm1nm":"Kwara","adm2nm":"Baruten","adm1cd":"NGA024","adm2cd":"NGA024002"}}]}