{"type":"FeatureCollection","features":[{"type":"Feature","id":630,"geometry":{"type":"Polygon","coordinates":[[[7.321207046999973,4.783119202000023],[7.31202983899999,4.786455154000009],[7.298726081999973,4.791687964999994],[7.2858867649999866,4.797385216000009],[7.275788783999985,4.800727843999994],[7.266169070999979,4.805932998999992],[7.256552219000014,4.811603069],[7.240954875999989,4.817787169999974],[7.232273102000022,4.824849128999972],[7.22032499300002,4.827274799000008],[7.208372116000021,4.829234122999992],[7.195076942000014,4.835400105000019],[7.181752205000009,4.838303089000021],[7.180681229000015,4.821993828000018],[7.188416958000005,4.812142848999997],[7.197113037000008,4.806478976999983],[7.205812931000025,4.801281929000027],[7.207542896000007,4.789147854000021],[7.203258038000001,4.773797034999973],[7.197207928000012,4.766851901999985],[7.193439006999995,4.757557868999982],[7.195190906999983,4.747754096999984],[7.200164794999978,4.737924098999997],[7.202381134000007,4.728581904999999],[7.202754974000015,4.719254970999998],[7.206347941999979,4.709436892999975],[7.214109898000004,4.702382087999979],[7.224216937999984,4.699971199000004],[7.234645843999999,4.70234823200002],[7.246848106000016,4.7077169419999905],[7.257001876999993,4.710433959999989],[7.274508953000009,4.711693764000017],[7.285574913000005,4.7134709360000215],[7.2952470779999885,4.713860989000011],[7.304935931999978,4.716114998000023],[7.3169450760000245,4.720214843999997],[7.328457832000026,4.720590114999993],[7.344653129999983,4.729320049000023],[7.339686871000026,4.740081787000008],[7.328729152999983,4.749958992000018],[7.325122833000023,4.758378983],[7.323874950000004,4.772840976999987],[7.321207046999973,4.783119202000023]]]},"properties":{"fid":630,"cty_nm":"Nigeria","iso3cd":"NGA","adm1nm":"Rivers","adm2nm":"Tai","adm1cd":"NGA033","adm2cd":"NGA033023"}},{"type":"Feature","id":619,"geometry":{"type":"Polygon","coordinates":[[[7.242135048000023,5.195867061999991],[7.231534004000025,5.194551945000001],[7.22919368700002,5.194728374000022],[7.226599216000011,5.194924355000012],[7.224289417000023,5.195098400000006],[7.2222785949999775,5.195250034000026],[7.220254898000007,5.195402622000017],[7.217730999000025,5.195592879999992],[7.215114593999999,5.195929526999976],[7.212825297999984,5.196224212999994],[7.210087776000023,5.1965765950000105],[7.206140517999984,5.197731495000028],[7.200284004000025,5.199445248000018],[7.1982860570000184,5.199775696000017],[7.1960797309999975,5.200654507000024],[7.193909645000019,5.2015185359999805],[7.190780640000014,5.202972412000008],[7.188223838999988,5.204425334999996],[7.185384750000026,5.206168175000016],[7.182541846999982,5.2076215739999725],[7.179408550000005,5.208786010999972],[7.174276351999993,5.210244655999986],[7.1714143749999835,5.210251330999995],[7.168567656999983,5.21141529099998],[7.1654310229999965,5.212290763999988],[7.161118507000026,5.212475299999994],[7.1582798960000105,5.212596415999997],[7.155135631999997,5.212893009000027],[7.151132583999981,5.213191509000012],[7.148297309999975,5.213676928999973],[7.144279003000008,5.214365004999991],[7.141417026999989,5.214371680999989],[7.137703896000005,5.214959145000023],[7.135630131000028,5.21496391300002],[7.129712582000025,5.215579509999998],[7.127115249999974,5.215978145999998],[7.124798297999973,5.216333866000014],[7.122664928000006,5.216292381000017],[7.117270947000009,5.21814107900002],[7.115069865999999,5.218716620999999],[7.11227607699999,5.219484806000025],[7.110287189000019,5.220104218000017],[7.108289719000027,5.220434666000017],[7.104058742999996,5.221520424000005],[7.101769446999981,5.222882271000003],[7.099493979999977,5.223507880999989],[7.096863269999972,5.223843574999989],[7.094953060000023,5.225047587999995],[7.092122555000003,5.226262569000028],[7.089570045000016,5.227182388000017],[7.087322234999988,5.228674411999975],[7.08379602399998,5.228972435000003],[7.081119537000006,5.230340480999985],[7.076833724999972,5.232649803000015],[7.074863434000008,5.2338471410000125],[7.071746349000023,5.235067844000014],[7.070062636999978,5.236258984000017],[7.066473960999986,5.237781525000003],[7.064420700000028,5.239266396000005],[7.062163353000017,5.240469456000028],[7.05990028399998,5.240023135999991],[7.0578050610000105,5.24217653300002],[7.055966377000004,5.244066714999974],[7.053144932000009,5.2455706599999985],[7.04911613500002,5.246992588000012],[7.04713392299999,5.247860908999996],[7.04513215999998,5.248737812000002],[7.042693615000019,5.249077796999984],[7.039992331999997,5.249618053000006],[7.035687923000012,5.248759747000008],[7.0322380069999895,5.247610569000017],[7.028792381000017,5.246750355000017],[7.023335456999973,5.24531602899998],[7.021244525999975,5.244569302000002],[7.019309997999983,5.243878841000026],[7.014990329999989,5.241863250999984],[7.012022972000011,5.242380142000002],[7.008833407999987,5.241290569],[7.006873607999978,5.2406210899999905],[7.003732680999974,5.239980698000011],[7.00100755699998,5.239575863000027],[6.998440265999989,5.239194392999991],[6.993147372999999,5.237004757000022],[6.99074363699998,5.236010550999993],[6.9865031240000235,5.23425579100001],[6.98293113699998,5.2347369189999995],[6.980701447000001,5.235037326999986],[6.978500843000006,5.235333920000016],[6.975482940999996,5.235740184999997],[6.971787930000005,5.236238002999983],[6.973530768999979,5.225501059999999],[6.972976207999977,5.215249061999998],[6.966414928000006,5.202713012999993],[6.963055134000001,5.187821864999989],[6.963890075999984,5.178491115999975],[6.9633312230000115,5.167772769999999],[6.965517044000023,5.1551680559999795],[6.9672431949999805,5.14256715800002],[6.970809937000013,5.1299510000000055],[6.972530842000026,5.116884232000018],[6.974720955000009,5.104745864999984],[6.976016997999977,5.095410823999998],[6.979126930000007,5.083264827999983],[6.980856894999988,5.071131229000002],[6.982600212000023,5.060393809999994],[6.984330177000004,5.0482587810000155],[6.987880229999973,5.033779143999993],[6.993306159999975,5.023013115000026],[7.001498222000009,5.012691974999996],[7.0055508610000174,5.002870083000005],[7.010533810000027,4.993971825000017],[7.017805098999986,4.98365783700001],[7.026939868999989,4.975659846999974],[7.035152912000001,4.967669963999981],[7.035966873000007,4.956007956999997],[7.039434910000011,4.93480920799999],[7.053143024000008,4.921373844000016],[7.062798023000028,4.9198989870000105],[7.0751638410000055,4.912806988],[7.0866432189999955,4.909452914999974],[7.097636222999995,4.903306007000026],[7.104446887999984,4.892994880999993],[7.126119136999989,4.896553040000015],[7.131286144000001,4.9077010149999865],[7.143767834000016,4.913196087000017],[7.150316238000016,4.924333095999998],[7.159626006999986,4.935448169999972],[7.168517113000007,4.9447522159999835],[7.181393146999994,4.949262142000009],[7.199394225999981,4.954246997999974],[7.209084034,4.956501006999986],[7.217877864999991,4.961559771999987],[7.228350163000016,4.970958232999976],[7.218953133000014,4.978333949999978],[7.207005024000011,4.980760098000019],[7.192286014999979,4.982275008999977],[7.183078765999994,4.982347964999974],[7.1736116409999795,4.9841694830000165],[7.167912005999995,4.985266208999974],[7.162504195999986,4.99789619400002],[7.164929867000012,5.011396885000011],[7.176064014000019,5.020631789999982],[7.182157039999993,5.032238959999972],[7.185482979000028,5.043402194999999],[7.190628052000022,5.052217960000007],[7.19851017000002,5.058217049000007],[7.204145907999987,5.07029295000001],[7.206095219000019,5.081933021999987],[7.207106113000009,5.091714858999978],[7.209058761999984,5.1038208009999835],[7.2137699130000215,5.115437983999982],[7.215253829999995,5.126616001000002],[7.221358775999988,5.139620781000019],[7.224689006999995,5.151248931999987],[7.234924793000005,5.162823199999991],[7.2410430909999945,5.177227019999975],[7.243885993999982,5.186061859000006],[7.242690085999982,5.192757606999976],[7.242135048000023,5.195867061999991]]]},"properties":{"fid":619,"cty_nm":"Nigeria","iso3cd":"NGA","adm1nm":"Rivers","adm2nm":"Etche","adm1cd":"NGA033","adm2cd":"NGA033011"}},{"type":"Feature","id":620,"geometry":{"type":"Polygon","coordinates":[[[7.315354823999996,4.597617148999973],[7.32052278499998,4.608765124999991],[7.324765205000006,4.619453906999979],[7.328555107,4.63107919700002],[7.330491065999979,4.641320228999973],[7.338901996999994,4.654773234999993],[7.344056129000023,4.6645231250000165],[7.34786415100001,4.678011894000008],[7.348899840999991,4.690590858000007],[7.347191811000016,4.705057144000023],[7.345461844999988,4.717192173000001],[7.344653129999983,4.729320049000023],[7.328457832000026,4.720590114999993],[7.3169450760000245,4.720214843999997],[7.304935931999978,4.716114998000023],[7.2952470779999885,4.713860989000011],[7.285574913000005,4.7134709360000215],[7.274508953000009,4.711693764000017],[7.257001876999993,4.710433959999989],[7.246848106000016,4.7077169419999905],[7.234645843999999,4.70234823200002],[7.245337962999997,4.693743229000006],[7.252626895999981,4.685294150999994],[7.248405933000015,4.676936150000017],[7.241861819999997,4.666265011000007],[7.240745068000024,4.6418890950000105],[7.247939110000004,4.626122952000003],[7.252924919000009,4.617691993999983],[7.266215800999987,4.611060142999975],[7.275841236000019,4.606321811999976],[7.285482882999986,4.603447914000014],[7.2946639059999825,4.60057783100001],[7.315354823999996,4.597617148999973]]]},"properties":{"fid":620,"cty_nm":"Nigeria","iso3cd":"NGA","adm1nm":"Rivers","adm2nm":"Gokana","adm1cd":"NGA033","adm2cd":"NGA033012"}},{"type":"Feature","id":613,"geometry":{"type":"Polygon","coordinates":[[[6.669201851000025,4.90518188499999],[6.6497631070000125,4.914313793000019],[6.641110896999976,4.924639225000021],[6.629692078000005,4.934519767999973],[6.621951103000015,4.943904877000023],[6.616517067000018,4.953739165999991],[6.611083031000021,4.963572025000019],[6.606552124000018,4.971532821999972],[6.59650898000001,4.980937003999998],[6.582703114000026,4.981512070000008],[6.570669173999988,4.974615097000026],[6.5659489629999825,4.9620652199999995],[6.560778141000014,4.950449944000013],[6.549643039999978,4.941215037999996],[6.546145916,4.934891224000012],[6.5478000640000005,4.93268585200002],[6.565442561999987,4.926621436999994],[6.570404053000004,4.918351649999977],[6.565993785999979,4.913940906999983],[6.558826447000001,4.915595054999983],[6.563237189999995,4.907876492000014],[6.556588173000023,4.8954720500000235],[6.543207169000027,4.892314911000028],[6.530840873999978,4.89940595600001],[6.5226488110000105,4.909727096999973],[6.5103259090000165,4.921480179000014],[6.503480910999997,4.928061007999986],[6.495718956000019,4.935114860999988],[6.488412857000014,4.941699981999989],[6.480195045000016,4.949223995000011],[6.469184874999996,4.953506946999994],[6.454968929000017,4.9596810340000275],[6.440402031000019,4.9548158650000005],[6.440640926000015,4.943194865999999],[6.433986187000016,4.930301188999977],[6.425559997999983,4.92069101300001],[6.420719147,4.90683698700002],[6.414566040000011,4.896256923999999],[6.406606196999974,4.887104034000004],[6.400884151000014,4.875123977999976],[6.398394107999991,4.864480018999984],[6.398606776999998,4.851465225000027],[6.399279117999981,4.838441848999992],[6.402275084999985,4.827237129000025],[6.408864974999972,4.812250136999978],[6.412812233000011,4.802886962999992],[6.422863959999972,4.777152060999981],[6.429982184999972,4.765873908999993],[6.444660187000011,4.77556705500001],[6.444090843000026,4.760978222000006],[6.441421986000023,4.7453298570000015],[6.445941925,4.730044841999984],[6.459428786999979,4.723997116000021],[6.4610600469999895,4.713280200999975],[6.478478908999989,4.713901996999994],[6.4896440510000275,4.722999096000024],[6.498985767000022,4.732592106000027],[6.510600090000025,4.741216183000006],[6.517581940000014,4.7471342090000235],[6.527311801999986,4.753003120000017],[6.537438869000027,4.755611896999994],[6.5526118280000105,4.758596897000018],[6.5636019710000255,4.7584028239999725],[6.579172133999975,4.758128166000006],[6.588737010999978,4.755170822000025],[6.598309993999976,4.752677917000028],[6.6072411540000076,4.746353149000015],[6.620207787000027,4.754642009999998],[6.629915238000024,4.758759974999975],[6.638588905000006,4.750765800000011],[6.649202823999985,4.753479003999985],[6.660247803000004,4.752925872999981],[6.6708059320000075,4.749577998999996],[6.683222770999976,4.7480821610000135],[6.6924099930000125,4.7456779479999796],[6.702562809000028,4.748394012000006],[6.715075016000014,4.757153033999998],[6.727970122999977,4.757516860999999],[6.740396023000017,4.756951808999986],[6.7624568940000245,4.760527133999972],[6.764038086000028,4.774480820000008],[6.7605452540000215,4.779283523999993],[6.757217883999999,4.783858775999988],[6.745410918999994,4.790266513999995],[6.742139339000005,4.793070793000027],[6.742170810999994,4.799829005999982],[6.7404198649999785,4.80963277799998],[6.737761020999983,4.820843219999972],[6.726285933999975,4.824663161999979],[6.720369816000016,4.832170010000027],[6.721845149999979,4.842413901999976],[6.720118999000022,4.855014800999982],[6.710920810999994,4.856019973999992],[6.702690125000004,4.862145901000019],[6.702170372000012,4.868181229000015],[6.693087101000003,4.869215011999984],[6.682873726000025,4.870937824000009],[6.6768093109999995,4.877553939999984],[6.677111148999984,4.884261131000017],[6.687284470000009,4.888580321999996],[6.69390010799998,4.892439364999973],[6.69831085200002,4.901260852999997],[6.690041065000003,4.902914523999982],[6.677360534999991,4.897401333000005],[6.669201851000025,4.90518188499999]]]},"properties":{"fid":613,"cty_nm":"Nigeria","iso3cd":"NGA","adm1nm":"Rivers","adm2nm":"Abua/Odual","adm1cd":"NGA033","adm2cd":"NGA033001"}},{"type":"Feature","id":614,"geometry":{"type":"Polygon","coordinates":[[[6.669201851000025,4.90518188499999],[6.685242175999974,4.917295932999991],[6.6779398919999835,4.9243469240000195],[6.667884827000023,4.932353019999994],[6.676258087000008,4.941609858999982],[6.679565906999983,4.9509081840000135],[6.68106317500002,4.963482856999974],[6.679333209999982,4.975617886000009],[6.672953129000007,4.982662200999982],[6.668887138000002,4.991086005999989],[6.678205013000024,5.003132820000019],[6.684774876000006,5.01660108599998],[6.689030170000024,5.02868795400002],[6.690530776999992,5.041729927000006],[6.69065999999998,5.055715083999985],[6.696355820000008,5.074317931999985],[6.698338985000021,5.089686871000026],[6.697516918000019,5.100416182999993],[6.696308136000027,5.119072914000014],[6.701035976000014,5.132555007999997],[6.705283165000026,5.143711090000011],[6.7127771379999785,5.157638072999987],[6.718430995999995,5.1715788839999846],[6.717604160000008,5.181841850000012],[6.715847968999981,5.191180228999997],[6.715517044000023,5.205167770000003],[6.701193810000007,5.199687003999998],[6.690148829999998,5.200241088999974],[6.67818403199999,5.200801849000015],[6.667100905999973,5.1971597670000165],[6.653762816999972,5.198665141999982],[6.6395430559999795,5.20437192899999],[6.633019923999996,5.196032047000017],[6.626481055999989,5.185826777999978],[6.61763477300002,5.1751751900000045],[6.604710102000013,5.171546936000027],[6.592765808000024,5.174438952999992],[6.595860003999974,5.160429001000011],[6.595314025999983,5.151109218999977],[6.594264984000006,5.137132167999994],[6.593705177000004,5.1264128679999885],[6.5921959880000145,5.1124401089999765],[6.5915927890000034,5.097060204000002],[6.594188212999995,5.078856944999984],[6.595406055000012,5.061131954000018],[6.595260143000019,5.045281886999987],[6.591908932000024,5.031322002000024],[6.587197780999986,5.019704819000026],[6.580181121999999,5.007638930999974],[6.574122906000014,4.9997620579999875],[6.563899993999996,4.9895868300000075],[6.552803992999998,4.984547137999982],[6.54030084599998,4.976719855999988],[6.531015873000001,4.968401909000022],[6.525857925000025,4.958187103],[6.526670932999991,4.946525097000006],[6.536756991999994,4.941782950999993],[6.549643039999978,4.941215037999996],[6.560778141000014,4.950449944000013],[6.5659489629999825,4.9620652199999995],[6.570669173999988,4.974615097000026],[6.582703114000026,4.981512070000008],[6.59650898000001,4.980937003999998],[6.606552124000018,4.971532821999972],[6.611083031000021,4.963572025000019],[6.616517067000018,4.953739165999991],[6.621951103000015,4.943904877000023],[6.629692078000005,4.934519767999973],[6.641110896999976,4.924639225000021],[6.6497631070000125,4.914313793000019],[6.669201851000025,4.90518188499999]]]},"properties":{"fid":614,"cty_nm":"Nigeria","iso3cd":"NGA","adm1nm":"Rivers","adm2nm":"Ahoada East","adm1cd":"NGA033","adm2cd":"NGA033002"}},{"type":"Feature","id":615,"geometry":{"type":"Polygon","coordinates":[[[6.592765808000024,5.174438952999992],[6.579926967999995,5.180136204000007],[6.571222782000007,5.1848669049999785],[6.563921928000013,5.191916943000024],[6.55338096600002,5.189809798999988],[6.544492245000015,5.1862940789999925],[6.534568309999997,5.186845302999984],[6.52629852299998,5.174164771999983],[6.5113611219999825,5.171964168999978],[6.49333476999999,5.163454055999978],[6.485816001999979,5.153363227999989],[6.479144096000027,5.139541149000024],[6.472980975999974,5.128497123999978],[6.46433687199999,5.107274055000005],[6.46049880999999,5.098048210000002],[6.451053143000024,5.082880020000005],[6.4439039229999935,5.0681371690000105],[6.439036846000022,5.052887917000021],[6.429607868000005,5.038650035999979],[6.425769806000005,5.0294241909999755],[6.417273997999985,5.016098021999994],[6.411561011999993,5.004581927999993],[6.410391807999986,4.991127014000028],[6.421666145000017,4.981634139999983],[6.430675983000015,4.973575115000017],[6.437415122999994,4.966485976999991],[6.440402031000019,4.9548158650000005],[6.454968929000017,4.9596810340000275],[6.469184874999996,4.953506946999994],[6.480195045000016,4.949223995000011],[6.488412857000014,4.941699981999989],[6.495718956000019,4.935114860999988],[6.503480910999997,4.928061007999986],[6.5103259090000165,4.921480179000014],[6.5226488110000105,4.909727096999973],[6.530840873999978,4.89940595600001],[6.543207169000027,4.892314911000028],[6.556588173000023,4.8954720500000235],[6.563237189999995,4.907876492000014],[6.558826447000001,4.915595054999983],[6.565993785999979,4.913940906999983],[6.570404053000004,4.918351649999977],[6.565442561999987,4.926621436999994],[6.5478000640000005,4.93268585200002],[6.546145916,4.934891224000012],[6.549643039999978,4.941215037999996],[6.536756991999994,4.941782950999993],[6.526670932999991,4.946525097000006],[6.525857925000025,4.958187103],[6.531015873000001,4.968401909000022],[6.54030084599998,4.976719855999988],[6.552803992999998,4.984547137999982],[6.563899993999996,4.9895868300000075],[6.574122906000014,4.9997620579999875],[6.580181121999999,5.007638930999974],[6.587197780999986,5.019704819000026],[6.591908932000024,5.031322002000024],[6.595260143000019,5.045281886999987],[6.595406055000012,5.061131954000018],[6.594188212999995,5.078856944999984],[6.5915927890000034,5.097060204000002],[6.5921959880000145,5.1124401089999765],[6.593705177000004,5.1264128679999885],[6.594264984000006,5.137132167999994],[6.595314025999983,5.151109218999977],[6.595860003999974,5.160429001000011],[6.592765808000024,5.174438952999992]]]},"properties":{"fid":615,"cty_nm":"Nigeria","iso3cd":"NGA","adm1nm":"Rivers","adm2nm":"Ahoada West","adm1cd":"NGA033","adm2cd":"NGA033003"}},{"type":"Feature","id":616,"geometry":{"type":"Polygon","coordinates":[[[6.887269020000019,4.797744750999982],[6.883296013000006,4.80218505900001],[6.878855704999978,4.80218505900001],[6.864366055000005,4.8056907650000085],[6.854083060999983,4.807093142999975],[6.8454360960000145,4.814104079999993],[6.840762138000002,4.819245814999988],[6.830245494999986,4.824153422999984],[6.82510375999999,4.824153422999984],[6.823000431000025,4.818544388000021],[6.823229313000013,4.810469626999975],[6.822533131,4.800315856999987],[6.819027901000027,4.7949404720000075],[6.812717437999993,4.790967464000005],[6.805706500999975,4.7914347650000195],[6.803836822999983,4.7949404720000075],[6.80360317200001,4.799147129000005],[6.801499843999977,4.802419186000009],[6.794255256999975,4.796810149999999],[6.790055752000001,4.797391414999993],[6.789521217000015,4.791995048999979],[6.795415877999972,4.782156944000008],[6.793492793999974,4.7733149530000105],[6.7906489370000145,4.76448011399998],[6.796057223999981,4.751849173999972],[6.804233074000024,4.739664077999976],[6.811021804999996,4.727022170999987],[6.821998119,4.719009875999973],[6.83165311800002,4.7175350190000245],[6.838016987000003,4.70862579300001],[6.849543095000001,4.710400105000019],[6.8606390950000105,4.715439795999998],[6.865133762000028,4.7127895360000025],[6.870254993000003,4.709770203000005],[6.880817890000003,4.70688915300002],[6.888601779999988,4.702165127000001],[6.896358967000026,4.694643973999973],[6.904569148999997,4.686188221000009],[6.9151701929999945,4.687501907000012],[6.925823212000012,4.694410801000004],[6.929156780000028,4.706504821999999],[6.924643993000018,4.716331004999972],[6.918272017999982,4.724308013999973],[6.912827968999977,4.733208178999973],[6.9046020509999835,4.739799975999972],[6.893136024,4.744553089000021],[6.881657124000014,4.747908114999973],[6.875279902999978,4.755416869999976],[6.86693716000002,4.764091491999977],[6.863431454000022,4.774140835000026],[6.867170810999994,4.7823204989999795],[6.874882698000022,4.7881631849999735],[6.881625175000011,4.794528007999986],[6.887269020000019,4.797744750999982]]]},"properties":{"fid":616,"cty_nm":"Nigeria","iso3cd":"NGA","adm1nm":"Rivers","adm2nm":"Asari-Toru","adm1cd":"NGA033","adm2cd":"NGA033006"}},{"type":"Feature","id":617,"geometry":{"type":"Polygon","coordinates":[[[7.181752205000009,4.838303089000021],[7.171194076999996,4.841650008999977],[7.162012100000027,4.844520091999982],[7.152400016999991,4.85065698599999],[7.138498782999989,4.840977192000025],[7.128375053000013,4.841523170000016],[7.1173300739999945,4.842076777999978],[7.103980063999984,4.842183112999976],[7.093821048999985,4.839000225000007],[7.084094047999997,4.8325500490000195],[7.078478813000004,4.82280397400001],[7.076556206000021,4.813961983000013],[7.076466084000003,4.804172993000009],[7.083724022000013,4.792459964999978],[7.093306064999979,4.783060073999991],[7.099184035999997,4.771358012999997],[7.103244781000001,4.762467861000005],[7.106851101000018,4.754047871000012],[7.11184596999999,4.746550082999988],[7.117301940999994,4.739047050000011],[7.136040211000022,4.72397995],[7.145238876000008,4.72297477699999],[7.155385017000015,4.724759102000007],[7.16507005699998,4.726546763999977],[7.1756172180000135,4.735705853000013],[7.183183192999991,4.743652821000012],[7.195190906999983,4.747754096999984],[7.193439006999995,4.757557868999982],[7.197207928000012,4.766851901999985],[7.203258038000001,4.773797034999973],[7.207542896000007,4.789147854000021],[7.205812931000025,4.801281929000027],[7.197113037000008,4.806478976999983],[7.188416958000005,4.812142848999997],[7.180681229000015,4.821993828000018],[7.181752205000009,4.838303089000021]]]},"properties":{"fid":617,"cty_nm":"Nigeria","iso3cd":"NGA","adm1nm":"Rivers","adm2nm":"Eleme","adm1cd":"NGA033","adm2cd":"NGA033009"}},{"type":"Feature","id":618,"geometry":{"type":"Polygon","coordinates":[[[6.848985195000012,5.249797821000016],[6.836094855999988,5.249899863999985],[6.8338093759999765,5.250541209999994],[6.830335617000003,5.251515864999988],[6.8270926480000185,5.252425671000026],[6.824282169000014,5.254179478000026],[6.818212985999992,5.257966995000004],[6.811363219999976,5.264081954999995],[6.803584098999977,5.269271850999985],[6.794449805999989,5.277269839999974],[6.778754234000019,5.2727317810000045],[6.76818704599998,5.275146961000019],[6.756681919000016,5.275703906999979],[6.7405428889999826,5.273035048999986],[6.731263161000015,5.265182971999991],[6.727502823000009,5.256822108999984],[6.720468998000001,5.242890835000026],[6.717160224999986,5.233592987000009],[6.710107803000028,5.2177991870000255],[6.715517044000023,5.205167770000003],[6.715847968999981,5.191180228999997],[6.717604160000008,5.181841850000012],[6.718430995999995,5.1715788839999846],[6.7127771379999785,5.157638072999987],[6.705283165000026,5.143711090000011],[6.701035976000014,5.132555007999997],[6.696308136000027,5.119072914000014],[6.697516918000019,5.100416182999993],[6.698338985000021,5.089686871000026],[6.696355820000008,5.074317931999985],[6.69065999999998,5.055715083999985],[6.690530776999992,5.041729927000006],[6.689030170000024,5.02868795400002],[6.684774876000006,5.01660108599998],[6.678205013000024,5.003132820000019],[6.668887138000002,4.991086005999989],[6.672953129000007,4.982662200999982],[6.679333209999982,4.975617886000009],[6.68106317500002,4.963482856999974],[6.679565906999983,4.9509081840000135],[6.676258087000008,4.941609858999982],[6.667884827000023,4.932353019999994],[6.6779398919999835,4.9243469240000195],[6.685242175999974,4.917295932999991],[6.669201851000025,4.90518188499999],[6.677360534999991,4.897401333000005],[6.690041065000003,4.902914523999982],[6.69831085200002,4.901260852999997],[6.69390010799998,4.892439364999973],[6.687284470000009,4.888580321999996],[6.677111148999984,4.884261131000017],[6.6768093109999995,4.877553939999984],[6.682873726000025,4.870937824000009],[6.693087101000003,4.869215011999984],[6.702170372000012,4.868181229000015],[6.702690125000004,4.862145901000019],[6.710920810999994,4.856019973999992],[6.720118999000022,4.855014800999982],[6.721845149999979,4.842413901999976],[6.720369816000016,4.832170010000027],[6.726285933999975,4.824663161999979],[6.737761020999983,4.820843219999972],[6.747280597999975,4.812701702000027],[6.753824233999978,4.805457115000024],[6.765509604999977,4.804756165000015],[6.775325297999984,4.8042883869999855],[6.783532619000027,4.802808761999984],[6.787945271000012,4.798212528000022],[6.790055752000001,4.797391414999993],[6.794255256999975,4.796810149999999],[6.801499843999977,4.802419186000009],[6.80360317200001,4.799147129000005],[6.803836822999983,4.7949404720000075],[6.805706500999975,4.7914347650000195],[6.812717437999993,4.790967464000005],[6.819027901000027,4.7949404720000075],[6.822533131,4.800315856999987],[6.823229313000013,4.810469626999975],[6.823000431000025,4.818544388000021],[6.82510375999999,4.824153422999984],[6.830245494999986,4.824153422999984],[6.840762138000002,4.819245814999988],[6.8454360960000145,4.814104079999993],[6.854083060999983,4.807093142999975],[6.864366055000005,4.8056907650000085],[6.878855704999978,4.80218505900001],[6.883296013000006,4.80218505900001],[6.887269020000019,4.797744750999982],[6.8933453559999975,4.791668415000004],[6.906433105000019,4.7935380939999845],[6.912041664000014,4.791902064999988],[6.918585300000018,4.784891129000016],[6.925128937000011,4.788864135999972],[6.924427986000012,4.794706820999977],[6.9199876789999735,4.800783157000012],[6.921156406000023,4.80685949299999],[6.928400993000025,4.8091964719999964],[6.930737971999974,4.8169083600000135],[6.921857357000022,4.824620723999999],[6.921011448000002,4.829784393000011],[6.925830363999978,4.839577674999987],[6.9178843500000085,4.848225117000027],[6.908068657000001,4.84915971800001],[6.9035072330000276,4.858153343000026],[6.903628348999973,4.86879062700001],[6.899845122999977,4.876541137999993],[6.895215033999989,4.88164472599999],[6.893246174000012,4.885918617000016],[6.898720740999977,4.889122962999977],[6.900824069999999,4.894031047999988],[6.8982534410000085,4.8984713550000265],[6.89875602699999,4.904881000999978],[6.888145924000014,4.902635098000019],[6.875255107999976,4.902737140999989],[6.86107778500002,4.913105011000027],[6.854743957999972,4.925277232999974],[6.851612090999993,4.935091972000009],[6.8489909169999805,4.950498104000019],[6.847709178999992,4.961229801000002],[6.847825049999983,4.973816871999986],[6.849748135000027,4.982658862999983],[6.84942102399998,4.9971141820000184],[6.844025134999981,5.011143208000021],[6.841343880000011,5.0200219149999725],[6.836874007999995,5.034510135999994],[6.830029011000022,5.041090011999984],[6.820871829999987,5.0467581749999795],[6.810787200999982,5.051498890000005],[6.802535057,5.0552949909999825],[6.793383120999977,5.061428069999977],[6.783331870999973,5.069899082000006],[6.7761120800000185,5.085806847000015],[6.775788783999985,5.100728034999975],[6.781877040999973,5.111867904999997],[6.7925820350000095,5.124371052000015],[6.803746223000019,5.136869907000005],[6.8125658039999735,5.144724845999974],[6.82370090500001,5.153961181999989],[6.829332829000009,5.165572166000004],[6.8322367669999835,5.180932998999992],[6.832390784999973,5.197714806000022],[6.832520008000017,5.211699963000001],[6.831688880999991,5.221497059000001],[6.834993838999992,5.23032903699999],[6.843806266999991,5.242591858000026],[6.848985195000012,5.249797821000016]]]},"properties":{"fid":618,"cty_nm":"Nigeria","iso3cd":"NGA","adm1nm":"Rivers","adm2nm":"Emohua","adm1cd":"NGA033","adm2cd":"NGA033010"}},{"type":"Feature","id":621,"geometry":{"type":"Polygon","coordinates":[[[6.971787930000005,5.236238002999983],[6.967782973999988,5.234714984999982],[6.965338707000001,5.23378562900001],[6.963143349000006,5.232950687000027],[6.959775924999974,5.231669903000011],[6.956932068000015,5.231139659999997],[6.954387665000013,5.2306652070000155],[6.951506615000028,5.2301278109999885],[6.947784900999977,5.229434013000002],[6.944733620000022,5.228858471000024],[6.941577911000024,5.228263378000008],[6.9385447500000055,5.227691649999997],[6.934500216999993,5.2269291879999855],[6.931180954000013,5.226303100999985],[6.928905009999994,5.226479530000006],[6.926602839999987,5.226238250999984],[6.923666953999998,5.225111960999982],[6.921226500999978,5.224175452999987],[6.918042660000026,5.222954273000028],[6.9039549830000055,5.219525814000008],[6.8978099820000125,5.22165966],[6.894636631000026,5.222761631000026],[6.891583443000002,5.223822116999997],[6.887593745999993,5.225611210000011],[6.881956100000025,5.230422019999992],[6.875578879999978,5.237932204999993],[6.866418839000005,5.24313306800002],[6.848985195000012,5.249797821000016],[6.843806266999991,5.242591858000026],[6.834993838999992,5.23032903699999],[6.831688880999991,5.221497059000001],[6.832520008000017,5.211699963000001],[6.832390784999973,5.197714806000022],[6.8322367669999835,5.180932998999992],[6.829332829000009,5.165572166000004],[6.82370090500001,5.153961181999989],[6.8125658039999735,5.144724845999974],[6.803746223000019,5.136869907000005],[6.7925820350000095,5.124371052000015],[6.781877040999973,5.111867904999997],[6.775788783999985,5.100728034999975],[6.7761120800000185,5.085806847000015],[6.783331870999973,5.069899082000006],[6.793383120999977,5.061428069999977],[6.802535057,5.0552949909999825],[6.810787200999982,5.051498890000005],[6.820871829999987,5.0467581749999795],[6.830029011000022,5.041090011999984],[6.836874007999995,5.034510135999994],[6.841343880000011,5.0200219149999725],[6.844025134999981,5.011143208000021],[6.84942102399998,4.9971141820000184],[6.849748135000027,4.982658862999983],[6.847825049999983,4.973816871999986],[6.847709178999992,4.961229801000002],[6.8489909169999805,4.950498104000019],[6.851612090999993,4.935091972000009],[6.854743957999972,4.925277232999974],[6.86107778500002,4.913105011000027],[6.875255107999976,4.902737140999989],[6.888145924000014,4.902635098000019],[6.89875602699999,4.904881000999978],[6.910264969000025,4.904789924999989],[6.919940947999976,4.905645847000017],[6.931893826000021,4.903686999999991],[6.941996098000004,4.90080881099999],[6.9530448909999905,4.900722026999972],[6.9636287690000245,4.900172234000024],[6.975534916000015,4.893084048999981],[6.98425579100001,4.89021778099999],[6.994870186000014,4.892930983999975],[6.985292911999977,4.902797222000004],[6.976161956999988,4.91126108200001],[6.980868815999997,4.922411919000012],[6.992877007000004,4.926513194999984],[7.006270884999992,4.931068896999989],[7.015044212000021,4.933796883000014],[7.0252280240000005,4.939775944000019],[7.039434910000011,4.93480920799999],[7.035966873000007,4.956007956999997],[7.035152912000001,4.967669963999981],[7.026939868999989,4.975659846999974],[7.017805098999986,4.98365783700001],[7.010533810000027,4.993971825000017],[7.0055508610000174,5.002870083000005],[7.001498222000009,5.012691974999996],[6.993306159999975,5.023013115000026],[6.987880229999973,5.033779143999993],[6.984330177000004,5.0482587810000155],[6.982600212000023,5.060393809999994],[6.980856894999988,5.071131229000002],[6.979126930000007,5.083264827999983],[6.976016997999977,5.095410823999998],[6.974720955000009,5.104745864999984],[6.972530842000026,5.116884232000018],[6.970809937000013,5.1299510000000055],[6.9672431949999805,5.14256715800002],[6.965517044000023,5.1551680559999795],[6.9633312230000115,5.167772769999999],[6.963890075999984,5.178491115999975],[6.963055134000001,5.187821864999989],[6.966414928000006,5.202713012999993],[6.972976207999977,5.215249061999998],[6.973530768999979,5.225501059999999],[6.971787930000005,5.236238002999983]]]},"properties":{"fid":621,"cty_nm":"Nigeria","iso3cd":"NGA","adm1nm":"Rivers","adm2nm":"Ikwerre","adm1cd":"NGA033","adm2cd":"NGA033013"}},{"type":"Feature","id":622,"geometry":{"type":"Polygon","coordinates":[[[7.516347139000004,4.6632713380000155],[7.517499923000003,4.679721832999974],[7.521944045999987,4.689166069000009],[7.527777672000013,4.696944235999979],[7.535064207999994,4.700366528000018],[7.535011935999989,4.700249324000026],[7.536983967000026,4.701867103999973],[7.537997245999975,4.705980301000011],[7.540467739000007,4.708141803999979],[7.542005539000002,4.711906433000024],[7.545165538999981,4.719104766999976],[7.547098160000019,4.726191044000018],[7.545487404000028,4.732310772000005],[7.543748855999979,4.734041214000001],[7.541322230999981,4.736161231999972],[7.53646898300002,4.7393965719999755],[7.530993462000026,4.743906020999987],[7.526484013000015,4.748737334999987],[7.523907184999985,4.753246783999998],[7.523907184999985,4.756148815000017],[7.524229526999989,4.763231754000003],[7.525195599000028,4.7693514819999905],[7.525195599000028,4.779658317999974],[7.521463394000023,4.788544177999995],[7.516999245000022,4.7930083269999955],[7.510680198999978,4.800349712000013],[7.506598472999997,4.804257393],[7.5015621190000275,4.807817935999992],[7.4889669419999905,4.801836014000003],[7.473779202000003,4.802422046999993],[7.4539661410000235,4.800714015999972],[7.441062927000019,4.799417973000004],[7.430521010999996,4.804629803000012],[7.418578147999995,4.807521819999977],[7.407067776000019,4.807612896000023],[7.397869109999988,4.8086180689999765],[7.38266420399998,4.807340145000012],[7.377974987000016,4.798052788000007],[7.370932101999983,4.783191203999991],[7.360764979999999,4.779076099000008],[7.346488953000005,4.77872180899999],[7.3359131810000235,4.78020477299998],[7.321207046999973,4.783119202000023],[7.323874950000004,4.772840976999987],[7.325122833000023,4.758378983],[7.328729152999983,4.749958992000018],[7.339686871000026,4.740081787000008],[7.344653129999983,4.729320049000023],[7.345461844999988,4.717192173000001],[7.347191811000016,4.705057144000023],[7.348899840999991,4.690590858000007],[7.34786415100001,4.678011894000008],[7.344056129000023,4.6645231250000165],[7.338901996999994,4.654773234999993],[7.330491065999979,4.641320228999973],[7.328555107,4.63107919700002],[7.324765205000006,4.619453906999979],[7.32052278499998,4.608765124999991],[7.315354823999996,4.597617148999973],[7.321276188000013,4.590577126000028],[7.332704067000009,4.581628798999986],[7.343705177000004,4.5764141079999945],[7.352860927999984,4.570745944999999],[7.362039089000007,4.567409992000023],[7.3721799850000025,4.568727969999998],[7.385112762000006,4.573287963999974],[7.395224094000014,4.571342945000026],[7.407610893000026,4.566583157000025],[7.420063018999997,4.568815230999974],[7.422804831999997,4.5695228580000276],[7.428831100000025,4.571076870000013],[7.445114612999987,4.573476791000019],[7.457040310000025,4.571820258999992],[7.46267175700001,4.566851616000008],[7.473603249000007,4.56188249600001],[7.4835338589999765,4.561786175000009],[7.495135784000013,4.560226440000008],[7.497454643000026,4.557576180000012],[7.497123240999997,4.550619601999983],[7.497785567999983,4.546975612999972],[7.5004358290000255,4.540681839000001],[7.507050991000028,4.535921573999985],[7.510241507999979,4.532731533000003],[7.517829418000019,4.531959534000009],[7.5208415989999935,4.535381316999974],[7.5254874230000155,4.539330482000025],[7.526333395999984,4.5406899820000035],[7.522887885999978,4.546429788000012],[7.521420911999996,4.550237686999992],[7.521287685999994,4.55467151900001],[7.526958676999982,4.56559792500002],[7.542901486999995,4.575457245999985],[7.543707574999985,4.579796084000009],[7.537597539999979,4.585372334999988],[7.532307383999978,4.591298665000011],[7.529443741000023,4.59611034400001],[7.527729765000004,4.599277273999974],[7.5259323509999945,4.602819834000002],[7.524896034999983,4.613096471999995],[7.5235888610000075,4.617812404000006],[7.519175146000009,4.626661262000027],[7.517632615000025,4.6335995430000025],[7.519544312999983,4.642011328000024],[7.523182392000024,4.652238877000002],[7.524138810000011,4.654927605000012],[7.521498811000015,4.662054839999996],[7.52091783100002,4.662192031000018],[7.516347139000004,4.6632713380000155]]]},"properties":{"fid":622,"cty_nm":"Nigeria","iso3cd":"NGA","adm1nm":"Rivers","adm2nm":"Khana","adm1cd":"NGA033","adm2cd":"NGA033014"}},{"type":"Feature","id":623,"geometry":{"type":"Polygon","coordinates":[[[7.039434910000011,4.93480920799999],[7.0252280240000005,4.939775944000019],[7.015044212000021,4.933796883000014],[7.006270884999992,4.931068896999989],[6.992877007000004,4.926513194999984],[6.980868815999997,4.922411919000012],[6.976161956999988,4.91126108200001],[6.985292911999977,4.902797222000004],[6.994870186000014,4.892930983999975],[6.98425579100001,4.89021778099999],[6.975534916000015,4.893084048999981],[6.9636287690000245,4.900172234000024],[6.9530448909999905,4.900722026999972],[6.941996098000004,4.90080881099999],[6.931893826000021,4.903686999999991],[6.919940947999976,4.905645847000017],[6.910264969000025,4.904789924999989],[6.89875602699999,4.904881000999978],[6.8982534410000085,4.8984713550000265],[6.900824069999999,4.894031047999988],[6.898720740999977,4.889122962999977],[6.893246174000012,4.885918617000016],[6.895215033999989,4.88164472599999],[6.899845122999977,4.876541137999993],[6.903628348999973,4.86879062700001],[6.9035072330000276,4.858153343000026],[6.908068657000001,4.84915971800001],[6.9178843500000085,4.848225117000027],[6.925830363999978,4.839577674999987],[6.921011448000002,4.829784393000011],[6.921857357000022,4.824620723999999],[6.930737971999974,4.8169083600000135],[6.928400993000025,4.8091964719999964],[6.921156406000023,4.80685949299999],[6.9199876789999735,4.800783157000012],[6.924427986000012,4.794706820999977],[6.929569721000007,4.79400539400001],[6.940553664999982,4.79400539400001],[6.941020965999996,4.798446178000006],[6.944654942,4.797827720999976],[6.952004910000028,4.796576500000015],[6.958489895000014,4.792054176000022],[6.96863079100001,4.7933721539999965],[6.980597019000015,4.792810916999997],[6.982536793000008,4.803517817999989],[6.982293129000027,4.814945697999974],[6.987340926999991,4.822984695000002],[6.998558998000021,4.820180416000028],[7.004728794000016,4.819058895000012],[7.00977659199998,4.82055425599998],[7.021555423999985,4.821489333999978],[7.0370540619999815,4.824065207999979],[7.046982287999981,4.823732853000024],[7.0561432839999725,4.8224239350000175],[7.065491676000022,4.819245814999988],[7.076556206000021,4.813961983000013],[7.078478813000004,4.82280397400001],[7.084094047999997,4.8325500490000195],[7.093821048999985,4.839000225000007],[7.103980063999984,4.842183112999976],[7.1173300739999945,4.842076777999978],[7.128375053000013,4.841523170000016],[7.138498782999989,4.840977192000025],[7.152400016999991,4.85065698599999],[7.146018981999987,4.8576998710000225],[7.137341021999987,4.8652281760000164],[7.125968933000024,4.880237103000013],[7.126119136999989,4.896553040000015],[7.104446887999984,4.892994880999993],[7.097636222999995,4.903306007000026],[7.0866432189999955,4.909452914999974],[7.0751638410000055,4.912806988],[7.062798023000028,4.9198989870000105],[7.053143024000008,4.921373844000016],[7.039434910000011,4.93480920799999]]]},"properties":{"fid":623,"cty_nm":"Nigeria","iso3cd":"NGA","adm1nm":"Rivers","adm2nm":"Obia/Akpor","adm1cd":"NGA033","adm2cd":"NGA033015"}},{"type":"Feature","id":624,"geometry":{"type":"Polygon","coordinates":[[[6.668275832999996,5.7218294140000125],[6.664922713999999,5.722358703999987],[6.650887489000013,5.725108623999972],[6.633620262000022,5.730035782000016],[6.618292809000025,5.716906070999983],[6.613452911000024,5.702041149000024],[6.614049435000027,5.690699576999975],[6.606566906000012,5.680008887999975],[6.606450080999991,5.670234203000007],[6.608761311000023,5.666173458000003],[6.612325191000025,5.659912109000004],[6.617293834999998,5.651000022999995],[6.621345996999992,5.642564773999993],[6.617601395000008,5.6315193180000165],[6.613107204000016,5.626679420000016],[6.608144760000016,5.621254921000002],[6.6037735940000175,5.6149258610000174],[6.602045058999977,5.607666015999996],[6.601007938000009,5.596949576999975],[6.5961680409999985,5.587615490000019],[6.59340238599998,5.580010414000014],[6.591673850999996,5.574479102999987],[6.587871552000024,5.567911148000007],[6.584760189000008,5.561688423000021],[6.579228877999981,5.55926847500001],[6.5688581470000145,5.553391456999975],[6.555376052999975,5.552354813000022],[6.542584895999994,5.549243450000006],[6.530831336999995,5.53195857999998],[6.533251285999995,5.509833813],[6.536935805999974,5.491936206999981],[6.537696837999988,5.478425026000025],[6.538163661999988,5.475804329000027],[6.536655902999996,5.469583988000011],[6.5348367689999804,5.458974361000003],[6.524530411000001,5.438663959999985],[6.517558097999995,5.434420108999973],[6.5124044419999905,5.428660392999973],[6.5088205339999945,5.425673962000019],[6.505941391000022,5.425829410999995],[6.499718665999978,5.426520824000022],[6.494187355000008,5.425137996999979],[6.489347935000012,5.422718524999993],[6.483125210000026,5.4206442830000015],[6.476556777999974,5.404050826999992],[6.4854769710000255,5.379205227],[6.500597954,5.379403114000013],[6.518475056,5.380016803999979],[6.528549193999993,5.3798389429999816],[6.540015220999976,5.380566120000026],[6.552827835000016,5.379875183000024],[6.561977862999981,5.379249096000024],[6.569632053000021,5.372142791999977],[6.569458008000026,5.3628530500000124],[6.568703174999996,5.34706687900001],[6.567076206000024,5.333620070999984],[6.5631599430000165,5.320212841],[6.555650233999984,5.31058692900001],[6.5486240390000034,5.302347182999995],[6.54117488899999,5.295972823999989],[6.530881882000017,5.2845377919999805],[6.5325131420000275,5.2738208769999915],[6.537384986999996,5.264905929999998],[6.547786235999979,5.257751942000027],[6.566636086000017,5.236972809000008],[6.5527620319999755,5.226540564999993],[6.549230098999999,5.212652205999973],[6.558826447000001,5.198422908999987],[6.55338096600002,5.189809798999988],[6.563921928000013,5.191916943000024],[6.571222782000007,5.1848669049999785],[6.579926967999995,5.180136204000007],[6.592765808000024,5.174438952999992],[6.604710102000013,5.171546936000027],[6.61763477300002,5.1751751900000045],[6.626481055999989,5.185826777999978],[6.633019923999996,5.196032047000017],[6.6395430559999795,5.20437192899999],[6.653762816999972,5.198665141999982],[6.667100905999973,5.1971597670000165],[6.67818403199999,5.200801849000015],[6.690148829999998,5.200241088999974],[6.701193810000007,5.199687003999998],[6.715517044000023,5.205167770000003],[6.710107803000028,5.2177991870000255],[6.717160224999986,5.233592987000009],[6.720468998000001,5.242890835000026],[6.727502823000009,5.256822108999984],[6.731263161000015,5.265182971999991],[6.7405428889999826,5.273035048999986],[6.756681919000016,5.275703906999979],[6.76818704599998,5.275146961000019],[6.778754234000019,5.2727317810000045],[6.794449805999989,5.277269839999974],[6.78623199499998,5.284793853999986],[6.7775659559999895,5.293721199000004],[6.7707247729999835,5.300767898999993],[6.765624046000028,5.308510302999991],[6.7636947629999895,5.312908649000008],[6.7557950020000135,5.323452949999989],[6.757574080999973,5.34277391400002],[6.7604699130000085,5.353443146000018],[6.759709835000024,5.366953850000016],[6.758449078000012,5.377213000999973],[6.758138180000003,5.389788151000005],[6.760583877999977,5.4013929370000255],[6.762536049000005,5.410212994000005],[6.758967875999986,5.4205031390000045],[6.754459858000018,5.42940902700002],[6.75331926299998,5.433492183999988],[6.7490348819999895,5.4387931819999835],[6.744081973999982,5.4491019249999795],[6.743738173999986,5.458882808999988],[6.751193999999998,5.46483516699999],[6.74994897800002,5.476490021000018],[6.744967937000013,5.4844717980000155],[6.741359710999973,5.494053840999982],[6.738784790000011,5.493746281000028],[6.733294963999981,5.4939441679999845],[6.729844092999997,5.493106841999975],[6.726963043000012,5.491978645000017],[6.722477912999977,5.491322040999989],[6.719904423000003,5.490441321999981],[6.715590476999978,5.489103794000016],[6.712041854999995,5.489194870000006],[6.652729511000018,5.490715980999994],[6.645450115000017,5.492535590999978],[6.6390800479999825,5.493445872999985],[6.6584362980000265,5.624850272999993],[6.6688680650000265,5.689925194000011],[6.673841476000007,5.72095108000002],[6.668275832999996,5.7218294140000125]]]},"properties":{"fid":624,"cty_nm":"Nigeria","iso3cd":"NGA","adm1nm":"Rivers","adm2nm":"Ogba/Egbema/Ndoni","adm1cd":"NGA033","adm2cd":"NGA033016"}},{"type":"Feature","id":625,"geometry":{"type":"Polygon","coordinates":[[[7.234645843999999,4.70234823200002],[7.224216937999984,4.699971199000004],[7.214109898000004,4.702382087999979],[7.206347941999979,4.709436892999975],[7.202754974000015,4.719254970999998],[7.202381134000007,4.728581904999999],[7.200164794999978,4.737924098999997],[7.195190906999983,4.747754096999984],[7.183183192999991,4.743652821000012],[7.1756172180000135,4.735705853000013],[7.178536892000011,4.73286914800002],[7.182168961000002,4.729993820000004],[7.184436797999979,4.7280797959999745],[7.186725140000021,4.727099894999981],[7.188550948999989,4.726129055000001],[7.192001343000015,4.727563857999996],[7.194344521000005,4.728866100000005],[7.198510646999978,4.727043152000022],[7.197729588000016,4.724439620999988],[7.194921969999996,4.721796988999984],[7.193042755000022,4.718971728999975],[7.194794177999995,4.715727806000018],[7.199291705999997,4.7158470150000085],[7.201375008000014,4.713764190999996],[7.199291705999997,4.711421013000006],[7.196167468999988,4.709598063999977],[7.193042755000022,4.705953120999993],[7.194536208999978,4.703588963000016],[7.1893978119999815,4.700745583000014],[7.183409213999994,4.700224875999993],[7.180544853000015,4.697100163000016],[7.174556255000027,4.695017338000014],[7.171432018000019,4.695277691000001],[7.168046951000008,4.6955380439999885],[7.163360119000004,4.696579455999995],[7.161537646999989,4.693455218999986],[7.160235881999995,4.690070151999976],[7.160235881999995,4.687466620999999],[7.160235881999995,4.684602261000009],[7.1599755290000076,4.681738376999988],[7.158934116000012,4.678874016000009],[7.158417224999994,4.676757812000005],[7.156590461999997,4.671323298999994],[7.154507636999995,4.6648139949999745],[7.15398693100002,4.661428928000021],[7.153035452999973,4.659526668000012],[7.1684104430000275,4.631669273999989],[7.190276745999995,4.609984379000025],[7.190283755999985,4.609964807999972],[7.198584079999989,4.616258144000028],[7.206961154999988,4.625981808000006],[7.21529102300002,4.630578040999978],[7.223616122999999,4.634707928000012],[7.240745068000024,4.6418890950000105],[7.241861819999997,4.666265011000007],[7.248405933000015,4.676936150000017],[7.252626895999981,4.685294150999994],[7.245337962999997,4.693743229000006],[7.234645843999999,4.70234823200002]]]},"properties":{"fid":625,"cty_nm":"Nigeria","iso3cd":"NGA","adm1nm":"Rivers","adm2nm":"Ogu/Bolo","adm1cd":"NGA033","adm2cd":"NGA033017"}},{"type":"Feature","id":626,"geometry":{"type":"Polygon","coordinates":[[[7.1756172180000135,4.735705853000013],[7.16507005699998,4.726546763999977],[7.155385017000015,4.724759102000007],[7.145238876000008,4.72297477699999],[7.136040211000022,4.72397995],[7.117301940999994,4.739047050000011],[7.11184596999999,4.746550082999988],[7.106851101000018,4.754047871000012],[7.103244781000001,4.762467861000005],[7.099184035999997,4.771358012999997],[7.093306064999979,4.783060073999991],[7.083724022000013,4.792459964999978],[7.076466084000003,4.804172993000009],[7.075774669999987,4.801110268000002],[7.077083587999994,4.797931671000015],[7.076148509999996,4.795688152000025],[7.06586551700002,4.793444632999979],[7.063376903999995,4.788491726000018],[7.069231032999994,4.779609680000021],[7.071187973000008,4.776774882999973],[7.067870140000025,4.770674229000008],[7.066501141000003,4.765318394000019],[7.068226814000013,4.7594819070000085],[7.075354098999981,4.748394012000006],[7.078217983000002,4.736937522999995],[7.077436923999983,4.728605747000017],[7.066501141000003,4.727303505000009],[7.055825710000022,4.726001740000015],[7.044874191000019,4.7233037949999925],[7.031464577000008,4.712442875000022],[7.025621891000014,4.713144301999989],[7.019545554999979,4.724361896999994],[7.011833190999994,4.7318406109999955],[7.0055232049999745,4.737215519000017],[7.002087115999984,4.74364233],[6.992082118999974,4.7489519119999954],[6.982152939000002,4.74025392499999],[6.988261222999995,4.725151062000009],[6.9978427890000034,4.715751171000022],[7.0074291230000085,4.706818103999979],[7.017470837000019,4.69741392100002],[7.026144981000016,4.689420223000013],[7.033876895999981,4.679101944000024],[7.041128158999982,4.666457175999994],[7.047005177000017,4.654756068999973],[7.052904129000012,4.645384788999991],[7.059288978999973,4.638806820000013],[7.072127819000002,4.633110999999985],[7.080376148000028,4.628849983000009],[7.088624001000028,4.624588965999976],[7.100042819999999,4.614707946999999],[7.113763808999977,4.6048088069999835],[7.122467995000022,4.600078106000012],[7.133479118000025,4.595795155000019],[7.145456791000015,4.596632004000014],[7.1592850690000205,4.598388194999984],[7.169895171999997,4.600635051999973],[7.170825552999986,4.600987671999974],[7.169721603000028,4.604443549999985],[7.157298076000018,4.629369386000008],[7.150220918000002,4.640579460000026],[7.145461727999987,4.645001048999973],[7.129156405000003,4.656489598000007],[7.104802322000012,4.666491962999999],[7.095793137999976,4.668422442999997],[7.092124762000026,4.676237979000007],[7.08353811500001,4.684146329999976],[7.07870822000001,4.7026662439999996],[7.08136870200002,4.713988556000004],[7.081893261000005,4.7188643339999885],[7.081787626999983,4.721914411],[7.085702706999996,4.723166615000025],[7.088006854000014,4.718719087000011],[7.089010057999985,4.711588528999982],[7.088694933999989,4.7062466930000255],[7.088784476000001,4.701060311999981],[7.0913529090000225,4.692871989000025],[7.096840159999999,4.686089101999983],[7.102399169000023,4.678520317999983],[7.108230538999976,4.673954391999985],[7.123408985000026,4.66972172200002],[7.144192373999999,4.66494652199998],[7.152780441999994,4.659988713000018],[7.153035452999973,4.659526668000012],[7.15398693100002,4.661428928000021],[7.154507636999995,4.6648139949999745],[7.156590461999997,4.671323298999994],[7.158417224999994,4.676757812000005],[7.158934116000012,4.678874016000009],[7.1599755290000076,4.681738376999988],[7.160235881999995,4.684602261000009],[7.160235881999995,4.687466620999999],[7.160235881999995,4.690070151999976],[7.161537646999989,4.693455218999986],[7.163360119000004,4.696579455999995],[7.168046951000008,4.6955380439999885],[7.171432018000019,4.695277691000001],[7.174556255000027,4.695017338000014],[7.180544853000015,4.697100163000016],[7.183409213999994,4.700224875999993],[7.1893978119999815,4.700745583000014],[7.194536208999978,4.703588963000016],[7.193042755000022,4.705953120999993],[7.196167468999988,4.709598063999977],[7.199291705999997,4.711421013000006],[7.201375008000014,4.713764190999996],[7.199291705999997,4.7158470150000085],[7.194794177999995,4.715727806000018],[7.193042755000022,4.718971728999975],[7.194921969999996,4.721796988999984],[7.197729588000016,4.724439620999988],[7.198510646999978,4.727043152000022],[7.194344521000005,4.728866100000005],[7.192001343000015,4.727563857999996],[7.188550948999989,4.726129055000001],[7.186725140000021,4.727099894999981],[7.184436797999979,4.7280797959999745],[7.182168961000002,4.729993820000004],[7.178536892000011,4.73286914800002],[7.1756172180000135,4.735705853000013]]]},"properties":{"fid":626,"cty_nm":"Nigeria","iso3cd":"NGA","adm1nm":"Rivers","adm2nm":"Okrika","adm1cd":"NGA033","adm2cd":"NGA033018"}},{"type":"Feature","id":627,"geometry":{"type":"Polygon","coordinates":[[[7.271354197999983,5.103509902999974],[7.278698921,5.116788864],[7.278979300999993,5.119540690999997],[7.280218123999987,5.131694793999998],[7.287724971999978,5.1470198630000255],[7.291069031000006,5.16004800799999],[7.292564868999989,5.172623158000022],[7.290813922999973,5.182426928999973],[7.286756991999994,5.191782950999993],[7.281322002000024,5.201615810000021],[7.2749500269999885,5.2095918659999825],[7.263917445999994,5.215610503999983],[7.260108947999981,5.213327407999998],[7.256109238000022,5.2134709360000215],[7.2525606159999825,5.204720020000025],[7.251398086999984,5.201854228999991],[7.242135048000023,5.195867061999991],[7.242690085999982,5.192757606999976],[7.243885993999982,5.186061859000006],[7.2410430909999945,5.177227019999975],[7.234924793000005,5.162823199999991],[7.224689006999995,5.151248931999987],[7.221358775999988,5.139620781000019],[7.215253829999995,5.126616001000002],[7.2137699130000215,5.115437983999982],[7.209058761999984,5.1038208009999835],[7.207106113000009,5.091714858999978],[7.206095219000019,5.081933021999987],[7.204145907999987,5.07029295000001],[7.19851017000002,5.058217049000007],[7.190628052000022,5.052217960000007],[7.185482979000028,5.043402194999999],[7.182157039999993,5.032238959999972],[7.176064014000019,5.020631789999982],[7.164929867000012,5.011396885000011],[7.162504195999986,4.99789619400002],[7.167912005999995,4.985266208999974],[7.1736116409999795,4.9841694830000165],[7.183078765999994,4.982347964999974],[7.192286014999979,4.982275008999977],[7.207005024000011,4.980760098000019],[7.218953133000014,4.978333949999978],[7.228350163000016,4.970958232999976],[7.23509216299999,4.9810042380000255],[7.241197108999984,4.994009017999986],[7.245464802000015,5.007494925999993],[7.248316765000027,5.0172619819999795],[7.2516860960000145,5.033086776999994],[7.2513761519999775,5.049406051999995],[7.2528939250000235,5.064311981000003],[7.255775927999991,5.077342987000009],[7.256930828000009,5.079692363999982],[7.264222145000019,5.094525814000008],[7.271354197999983,5.103509902999974]]]},"properties":{"fid":627,"cty_nm":"Nigeria","iso3cd":"NGA","adm1nm":"Rivers","adm2nm":"Omumma","adm1cd":"NGA033","adm2cd":"NGA033019"}},{"type":"Feature","id":628,"geometry":{"type":"Polygon","coordinates":[[[7.326064587000019,4.876126766000027],[7.319794177999995,4.879632949999973],[7.307785987999978,4.875533103999999],[7.294890881000015,4.875168799999983],[7.2815279960000225,4.873876095000014],[7.271389961000011,4.8730239870000105],[7.257046222999975,4.865211964000025],[7.2408561710000185,4.856948853000006],[7.2307357789999855,4.8579621320000115],[7.215075016000014,4.857152939000002],[7.2054200169999945,4.8586277960000075],[7.19119596500002,4.863869190000003],[7.18528795200001,4.872307777000003],[7.173842906999994,4.879391193000004],[7.1646528239999725,4.881329059999985],[7.155928135000011,4.88372898099999],[7.147241115999975,4.890325069000028],[7.143746852999982,4.8956131940000205],[7.140429019999999,4.900634765999996],[7.143767834000016,4.913196087000017],[7.131286144000001,4.9077010149999865],[7.126119136999989,4.896553040000015],[7.125968933000024,4.880237103000013],[7.137341021999987,4.8652281760000164],[7.146018981999987,4.8576998710000225],[7.152400016999991,4.85065698599999],[7.162012100000027,4.844520091999982],[7.171194076999996,4.841650008999977],[7.181752205000009,4.838303089000021],[7.195076942000014,4.835400105000019],[7.208372116000021,4.829234122999992],[7.22032499300002,4.827274799000008],[7.232273102000022,4.824849128999972],[7.240954875999989,4.817787169999974],[7.256552219000014,4.811603069],[7.266169070999979,4.805932998999992],[7.275788783999985,4.800727843999994],[7.2858867649999866,4.797385216000009],[7.298726081999973,4.791687964999994],[7.31202983899999,4.786455154000009],[7.321207046999973,4.783119202000023],[7.3359131810000235,4.78020477299998],[7.346488953000005,4.77872180899999],[7.360764979999999,4.779076099000008],[7.370932101999983,4.783191203999991],[7.377974987000016,4.798052788000007],[7.38266420399998,4.807340145000012],[7.397869109999988,4.8086180689999765],[7.407067776000019,4.807612896000023],[7.418578147999995,4.807521819999977],[7.430521010999996,4.804629803000012],[7.441062927000019,4.799417973000004],[7.4539661410000235,4.800714015999972],[7.473779202000003,4.802422046999993],[7.4889669419999905,4.801836014000003],[7.5015621190000275,4.807817935999992],[7.498609542999986,4.810249328999987],[7.49628210100002,4.8127179150000075],[7.494010924999998,4.81406307200001],[7.492273807999993,4.8157801629999994],[7.490066528,4.819096087999981],[7.488712310999972,4.821804523000026],[7.4872779849999915,4.824673652999991],[7.486754894000001,4.827636718999997],[7.478563308999981,4.833039761000009],[7.474380015999998,4.836699963000001],[7.4715914729999895,4.842277050000007],[7.466188430999978,4.845414639000012],[7.460362911000004,4.845418929999994],[7.455207825000002,4.845066071000019],[7.446667671,4.845414639000012],[7.4365010259999735,4.854000091999978],[7.42921209299999,4.862449169000001],[7.416359901000021,4.8667469019999885],[7.406683922000013,4.865890980000017],[7.392834187000005,4.861804962000008],[7.373507023000002,4.86289119700001],[7.362020015999974,4.865313053000023],[7.360141277000025,4.866603850999979],[7.352412223999977,4.8719148640000185],[7.340910912000027,4.872939110000004],[7.334217072000001,4.873313427000028],[7.330787181999995,4.8734860420000246],[7.326064587000019,4.876126766000027]]]},"properties":{"fid":628,"cty_nm":"Nigeria","iso3cd":"NGA","adm1nm":"Rivers","adm2nm":"Oyigbo","adm1cd":"NGA033","adm2cd":"NGA033021"}},{"type":"Feature","id":629,"geometry":{"type":"Polygon","coordinates":[[[7.076556206000021,4.813961983000013],[7.065491676000022,4.819245814999988],[7.0561432839999725,4.8224239350000175],[7.046982287999981,4.823732853000024],[7.0370540619999815,4.824065207999979],[7.021555423999985,4.821489333999978],[7.00977659199998,4.82055425599998],[7.004728794000016,4.819058895000012],[6.998558998000021,4.820180416000028],[6.987340926999991,4.822984695000002],[6.982293129000027,4.814945697999974],[6.982536793000008,4.803517817999989],[6.980597019000015,4.792810916999997],[6.96863079100001,4.7933721539999965],[6.958489895000014,4.792054176000022],[6.952004910000028,4.796576500000015],[6.944654942,4.797827720999976],[6.941020965999996,4.798446178000006],[6.940553664999982,4.79400539400001],[6.944293022000011,4.785826206000024],[6.94499397300001,4.77998352100002],[6.949200630000007,4.772738457000003],[6.954809666000017,4.773673534000011],[6.958081245000017,4.775075436000009],[6.96462488200001,4.771102428000006],[6.966072082999972,4.765419959999974],[6.963653564000026,4.75880909],[6.963923931000011,4.754275799000027],[6.976310253000008,4.755911826999977],[6.984723567999993,4.763156890999994],[6.992669582000019,4.768298148999975],[7.002859116000025,4.773252963999994],[7.008841990999997,4.7725048070000184],[7.008177756999999,4.768442631000028],[7.002769469999976,4.757153033999998],[7.002251624999985,4.754977225999994],[7.001783848000002,4.747732161999977],[7.002087115999984,4.74364233],[7.0055232049999745,4.737215519000017],[7.011833190999994,4.7318406109999955],[7.019545554999979,4.724361896999994],[7.025621891000014,4.713144301999989],[7.031464577000008,4.712442875000022],[7.044874191000019,4.7233037949999925],[7.055825710000022,4.726001740000015],[7.066501141000003,4.727303505000009],[7.077436923999983,4.728605747000017],[7.078217983000002,4.736937522999995],[7.075354098999981,4.748394012000006],[7.068226814000013,4.7594819070000085],[7.066501141000003,4.765318394000019],[7.067870140000025,4.770674229000008],[7.071187973000008,4.776774882999973],[7.069231032999994,4.779609680000021],[7.063376903999995,4.788491726000018],[7.06586551700002,4.793444632999979],[7.076148509999996,4.795688152000025],[7.077083587999994,4.797931671000015],[7.075774669999987,4.801110268000002],[7.076466084000003,4.804172993000009],[7.076556206000021,4.813961983000013]]]},"properties":{"fid":629,"cty_nm":"Nigeria","iso3cd":"NGA","adm1nm":"Rivers","adm2nm":"Port-Harcourt","adm1cd":"NGA033","adm2cd":"NGA033022"}},{"type":"Feature","id":753,"geometry":{"type":"MultiPolygon","coordinates":[[[[7.307064533000016,4.541323662000025],[7.305509567000001,4.543703556000025],[7.3052687640000045,4.546113491000028],[7.304545878999988,4.549728870000024],[7.3033404349999955,4.554307938000022],[7.301412582000012,4.559128283999996],[7.300402641000005,4.565188884999998],[7.301790236999977,4.5744152070000155],[7.308760166000013,4.581352234000008],[7.321276188000013,4.590577126000028],[7.315354823999996,4.597617148999973],[7.2946639059999825,4.60057783100001],[7.285482882999986,4.603447914000014],[7.275841236000019,4.606321811999976],[7.266215800999987,4.611060142999975],[7.252924919000009,4.617691993999983],[7.247939110000004,4.626122952000003],[7.240745068000024,4.6418890950000105],[7.223616122999999,4.634707928000012],[7.21529102300002,4.630578040999978],[7.206961154999988,4.625981808000006],[7.198584079999989,4.616258144000028],[7.190283755999985,4.609964807999972],[7.206548123999994,4.564556137000011],[7.216747768999994,4.544842323000012],[7.217447516999982,4.520663661000015],[7.192071895000026,4.478555917999984],[7.181391831999974,4.465552428000024],[7.1701914779999925,4.45191545900002],[7.166669082999988,4.447626774000014],[7.158920699000021,4.438192744999981],[7.148458738999977,4.425454805000015],[7.139202791000002,4.414185244000009],[7.137287989000015,4.411853881000013],[7.136452818000009,4.410837019999974],[7.133496949000005,4.403874260999999],[7.13388824499998,4.394443512000009],[7.134999274999984,4.3888883590000205],[7.138054848000024,4.385277748000021],[7.1389125580000155,4.384874007000008],[7.142777443,4.3830547329999945],[7.148332595999989,4.3813886649999745],[7.166666030999977,4.378333091999991],[7.18027687,4.377777100000003],[7.203610420000018,4.380555152999989],[7.214444161000017,4.3827772139999865],[7.219131086999994,4.383979779000015],[7.253826722999975,4.392881933000012],[7.278503410999974,4.399213439999983],[7.2988882070000045,4.404443741000023],[7.3080549239999755,4.4088888169999905],[7.320928935999973,4.4140333990000045],[7.328556613999979,4.41678048],[7.327239596000027,4.4209537969999815],[7.323135695000019,4.43350375],[7.3225003910000055,4.444319905999976],[7.325627957999984,4.444146924999984],[7.3242404800000145,4.450499293000007],[7.323291778999987,4.459558963999996],[7.32525777799998,4.473062991999996],[7.329027176000011,4.482357979000028],[7.33096313499999,4.492599009999992],[7.331525802999977,4.503783225999996],[7.333048819999988,4.519155979000004],[7.330939292999972,4.526523112999996],[7.3308162690000245,4.529724597999973],[7.330574989000013,4.5326170920000095],[7.330092906999994,4.535509108999975],[7.327923774999988,4.538160323999989],[7.32189846,4.539606094000021],[7.318230152000012,4.537289618999978],[7.315150260999985,4.535509108999975],[7.312016964000009,4.534786224000015],[7.307064533000016,4.541323662000025]]],[[[7.122467995000022,4.600078106000012],[7.113763808999977,4.6048088069999835],[7.100042819999999,4.614707946999999],[7.088624001000028,4.624588965999976],[7.080376148000028,4.628849983000009],[7.072127819000002,4.633110999999985],[7.059288978999973,4.638806820000013],[7.058175086999995,4.617836952000005],[7.05900096900001,4.607573985999977],[7.0529308320000155,4.5982990260000065],[7.059307097999977,4.5907888410000055],[7.060085773000026,4.575397968000004],[7.051704884000003,4.565207957999974],[7.049747943999989,4.552636146999987],[7.051495074999991,4.5423660280000036],[7.055504799000005,4.52788209900001],[7.063216209000018,4.515233039999998],[7.072209358000009,4.504900454999984],[7.061624049999978,4.492402077000008],[7.058772087000023,4.482635021000021],[7.058677197000009,4.472379208000007],[7.06502819100001,4.462071895999998],[7.072338103999982,4.455954075000022],[7.077411758999972,4.4522289320000255],[7.089378649000025,4.441248991000009],[7.1584003660000235,4.461604842999975],[7.163038976999985,4.462972859999979],[7.173888206000015,4.487777709999989],[7.178888320999988,4.503888130000007],[7.176110268000002,4.584444045999987],[7.171173625999984,4.599898041000017],[7.170825552999986,4.600987671999974],[7.169895171999997,4.600635051999973],[7.1592850690000205,4.598388194999984],[7.145456791000015,4.596632004000014],[7.133479118000025,4.595795155000019],[7.122467995000022,4.600078106000012]]]]},"properties":{"fid":753,"cty_nm":"Nigeria","iso3cd":"NGA","adm1nm":"Rivers","adm2nm":"Bonny","adm1cd":"NGA033","adm2cd":"NGA033007"}},{"type":"Feature","id":754,"geometry":{"type":"Polygon","coordinates":[[[7.510241507999979,4.532731533000003],[7.507050991000028,4.535921573999985],[7.5004358290000255,4.540681839000001],[7.497785567999983,4.546975612999972],[7.497123240999997,4.550619601999983],[7.497454643000026,4.557576180000012],[7.495135784000013,4.560226440000008],[7.4835338589999765,4.561786175000009],[7.473603249000007,4.56188249600001],[7.46267175700001,4.566851616000008],[7.457040310000025,4.571820258999992],[7.445114612999987,4.573476791000019],[7.428831100000025,4.571076870000013],[7.422804831999997,4.5695228580000276],[7.422641753999983,4.563707829000009],[7.424088000999973,4.557923317000018],[7.425292968999997,4.554067135000025],[7.426980018999984,4.5465955729999905],[7.428426265999974,4.5417752270000165],[7.42914915099999,4.538883209000005],[7.429631233000009,4.536714076999999],[7.430113316000018,4.533099173999972],[7.430354118000025,4.530688763000001],[7.430113316000018,4.528278827999998],[7.430113316000018,4.526109695000002],[7.43059539799998,4.52225351300001],[7.435174464999989,4.517433166999979],[7.440235615000006,4.515264033999983],[7.443610191000005,4.513336181999989],[7.447225093999975,4.512854098999981],[7.451706886000011,4.513057709000009],[7.459275723000019,4.513336181999989],[7.467952250999986,4.5130949019999775],[7.473977565999974,4.514299870000002],[7.4790387150000015,4.515264033999983],[7.481689930000016,4.514299870000002],[7.482172011999978,4.511889934999999],[7.482172011999978,4.508274555000014],[7.480002879999972,4.505864620000011],[7.477351665000015,4.503454207999994],[7.47470045099999,4.4993572239999935],[7.474218844999996,4.495741844000008],[7.477110863000007,4.492367743999978],[7.482172011999978,4.488993644999994],[7.492053509000016,4.485137463000001],[7.498078823000014,4.480799198],[7.501432419000025,4.47278738],[7.505650996999975,4.463707924000005],[7.506872176999991,4.45922374700001],[7.507498263999992,4.456924915000002],[7.508485633000021,4.4535794930000066],[7.509154217999992,4.450521438999999],[7.518572896000023,4.451325472000008],[7.586720660000026,4.449421902999973],[7.589537646999986,4.453647693999983],[7.590787974000023,4.461199146000013],[7.588549770999975,4.462305071000003],[7.585296845000016,4.461396980000018],[7.583302377999985,4.461294703000021],[7.582057383999995,4.466141766000021],[7.582086474999983,4.467320809],[7.582152095000026,4.469980446000022],[7.581654521000019,4.4757417530000225],[7.583198130000028,4.478082035999989],[7.585985386999994,4.482307830000025],[7.588583879999987,4.4877480729999775],[7.5894350990000135,4.489530197000022],[7.583170026000005,4.493258420000018],[7.578032721,4.496075003999977],[7.576618918999998,4.497021161000021],[7.570971369999995,4.498233244999994],[7.55707780900002,4.5028795470000205],[7.550027589000024,4.509595040000022],[7.542669707000016,4.514729456999987],[7.541130850999991,4.516430648999972],[7.538965222999991,4.518823816000008],[7.5325586120000025,4.525903557999982],[7.527694156999985,4.538423116999979],[7.526333395999984,4.5406899820000035],[7.5254874230000155,4.539330482000025],[7.5208415989999935,4.535381316999974],[7.517829418000019,4.531959534000009],[7.510241507999979,4.532731533000003]]]},"properties":{"fid":754,"cty_nm":"Nigeria","iso3cd":"NGA","adm1nm":"Rivers","adm2nm":"Opobo/Nkoro","adm1cd":"NGA033","adm2cd":"NGA033020"}},{"type":"Feature","id":752,"geometry":{"type":"Polygon","coordinates":[[[7.352860927999984,4.570745944999999],[7.343705177000004,4.5764141079999945],[7.332704067000009,4.581628798999986],[7.321276188000013,4.590577126000028],[7.308760166000013,4.581352234000008],[7.301790236999977,4.5744152070000155],[7.300402641000005,4.565188884999998],[7.301412582000012,4.559128283999996],[7.3033404349999955,4.554307938000022],[7.304545878999988,4.549728870000024],[7.3052687640000045,4.546113491000028],[7.305509567000001,4.543703556000025],[7.307064533000016,4.541323662000025],[7.312016964000009,4.534786224000015],[7.315150260999985,4.535509108999975],[7.318230152000012,4.537289618999978],[7.32189846,4.539606094000021],[7.327923774999988,4.538160323999989],[7.330092906999994,4.535509108999975],[7.330574989000013,4.5326170920000095],[7.3308162690000245,4.529724597999973],[7.330939292999972,4.526523112999996],[7.333048819999988,4.519155979000004],[7.331525802999977,4.503783225999996],[7.33096313499999,4.492599009999992],[7.329027176000011,4.482357979000028],[7.32525777799998,4.473062991999996],[7.323291778999987,4.459558963999996],[7.3242404800000145,4.450499293000007],[7.325627957999984,4.444146924999984],[7.33342266599999,4.443715811000004],[7.339921479999987,4.442585910999981],[7.349631111000008,4.442893088000005],[7.3673309789999735,4.442022033000001],[7.39065307300001,4.436477635000017],[7.40667202100002,4.43362494500002],[7.418445177000024,4.431528356000001],[7.428171685999985,4.434343925000007],[7.430027637000023,4.434881173999997],[7.445567241999981,4.439379480000014],[7.447379422999973,4.439904059000014],[7.4655201339999735,4.4438777390000155],[7.4873543680000125,4.448660475999986],[7.509154217999992,4.450521438999999],[7.508485633000021,4.4535794930000066],[7.507498263999992,4.456924915000002],[7.506872176999991,4.45922374700001],[7.505650996999975,4.463707924000005],[7.501432419000025,4.47278738],[7.498078823000014,4.480799198],[7.492053509000016,4.485137463000001],[7.482172011999978,4.488993644999994],[7.477110863000007,4.492367743999978],[7.474218844999996,4.495741844000008],[7.47470045099999,4.4993572239999935],[7.477351665000015,4.503454207999994],[7.480002879999972,4.505864620000011],[7.482172011999978,4.508274555000014],[7.482172011999978,4.511889934999999],[7.481689930000016,4.514299870000002],[7.4790387150000015,4.515264033999983],[7.473977565999974,4.514299870000002],[7.467952250999986,4.5130949019999775],[7.459275723000019,4.513336181999989],[7.451706886000011,4.513057709000009],[7.447225093999975,4.512854098999981],[7.443610191000005,4.513336181999989],[7.440235615000006,4.515264033999983],[7.435174464999989,4.517433166999979],[7.43059539799998,4.52225351300001],[7.430113316000018,4.526109695000002],[7.430113316000018,4.528278827999998],[7.430354118000025,4.530688763000001],[7.430113316000018,4.533099173999972],[7.429631233000009,4.536714076999999],[7.42914915099999,4.538883209000005],[7.428426265999974,4.5417752270000165],[7.426980018999984,4.5465955729999905],[7.425292968999997,4.554067135000025],[7.424088000999973,4.557923317000018],[7.422641753999983,4.563707829000009],[7.422804831999997,4.5695228580000276],[7.420063018999997,4.568815230999974],[7.407610893000026,4.566583157000025],[7.395224094000014,4.571342945000026],[7.385112762000006,4.573287963999974],[7.3721799850000025,4.568727969999998],[7.362039089000007,4.567409992000023],[7.352860927999984,4.570745944999999]]]},"properties":{"fid":752,"cty_nm":"Nigeria","iso3cd":"NGA","adm1nm":"Rivers","adm2nm":"Andoni","adm1cd":"NGA033","adm2cd":"NGA033005"}},{"type":"Feature","id":760,"geometry":{"type":"Polygon","coordinates":[[[6.796057223999981,4.751849173999972],[6.7906489370000145,4.76448011399998],[6.793492793999974,4.7733149530000105],[6.795415877999972,4.782156944000008],[6.789521217000015,4.791995048999979],[6.790055752000001,4.797391414999993],[6.787945271000012,4.798212528000022],[6.783532619000027,4.802808761999984],[6.775325297999984,4.8042883869999855],[6.765509604999977,4.804756165000015],[6.753824233999978,4.805457115000024],[6.747280597999975,4.812701702000027],[6.737761020999983,4.820843219999972],[6.7404198649999785,4.80963277799998],[6.742170810999994,4.799829005999982],[6.742139339000005,4.793070793000027],[6.745410918999994,4.790266513999995],[6.757217883999999,4.783858775999988],[6.7605452540000215,4.779283523999993],[6.764038086000028,4.774480820000008],[6.7624568940000245,4.760527133999972],[6.762704848999988,4.74656391100001],[6.766444206000017,4.738150597000015],[6.771819591999986,4.740721226000005],[6.776493549000008,4.746096134000027],[6.781167507000021,4.7463302610000255],[6.789957046999973,4.739309788000014],[6.794023036999988,4.730885983000007],[6.797100066999974,4.715011119999986],[6.801084042000014,4.697730063999984],[6.80282306700002,4.686528205999991],[6.805924892000007,4.67344999300002],[6.810381888999984,4.657563209999978],[6.814414978000002,4.645410061000007],[6.827185154000006,4.632256030999997],[6.83672285099999,4.6181941030000075],[6.83612585100002,4.603280067000014],[6.830511092999984,4.593533992999994],[6.823060036000015,4.584270000000004],[6.810998917000006,4.574574946999974],[6.806723117999979,4.5601558690000275],[6.80848312400002,4.551284790000011],[6.809764862000009,4.540552138999999],[6.812884807999978,4.529337882999982],[6.817842007000024,4.5176439289999735],[6.822799206000013,4.505949973999975],[6.826826095999991,4.493330001999993],[6.830849171000011,4.480245113000024],[6.83396387099998,4.468564986999979],[6.836159228999975,4.4568929669999875],[6.8374500269999885,4.447093010000003],[6.841046810000023,4.437739849000025],[6.846889972999975,4.422308922000013],[6.852282047000017,4.407814025999983],[6.857057634,4.398305086999983],[6.858177813999987,4.398239956999987],[6.879426609999996,4.3928086050000275],[6.949172082000018,4.37498113700002],[6.951991344000021,4.374260511999978],[6.954852500000015,4.373529179000002],[6.9574719589999745,4.373005281000019],[6.961388587999977,4.372221947000014],[6.990520919000005,4.3702648629999885],[6.996397017999982,4.369870112000001],[6.998610497000016,4.369721412999979],[7.005555152999989,4.369443892999982],[7.011110305999978,4.3705549239999755],[7.019443512000009,4.375555039000005],[7.022499084999993,4.379444122999985],[7.024722098999973,4.384165763999988],[7.024999617999981,4.389444351000009],[7.0230550759999915,4.394443512000009],[7.015555381000013,4.406944275000001],[7.0080547329999945,4.419721603000028],[6.998610497000016,4.43722152700002],[6.990186611000013,4.454069297999979],[6.987499237000009,4.459444045999987],[6.978888512000026,4.478332519999981],[6.975780586999974,4.48583615199999],[6.9757191670000225,4.4859844399999815],[6.981807337000021,4.5240988209999955],[6.971926113999984,4.589239835000001],[6.9711868109999955,4.604629862000024],[6.983824242000026,4.617081009999993],[6.998258339000017,4.60665204899999],[7.003054619000011,4.581388473000004],[7.003610610999999,4.569166182999993],[7.018332482000005,4.503179063000005],[7.021110534000002,4.492499350999992],[7.041110991999972,4.439722060999998],[7.0421627700000045,4.4386699809999755],[7.04444408400002,4.436388014999977],[7.069344240000021,4.435340451999991],[7.089378649000025,4.441248991000009],[7.077411758999972,4.4522289320000255],[7.072338103999982,4.455954075000022],[7.06502819100001,4.462071895999998],[7.058677197000009,4.472379208000007],[7.058772087000023,4.482635021000021],[7.061624049999978,4.492402077000008],[7.072209358000009,4.504900454999984],[7.063216209000018,4.515233039999998],[7.055504799000005,4.52788209900001],[7.051495074999991,4.5423660280000036],[7.049747943999989,4.552636146999987],[7.051704884000003,4.565207957999974],[7.060085773000026,4.575397968000004],[7.059307097999977,4.5907888410000055],[7.0529308320000155,4.5982990260000065],[7.05900096900001,4.607573985999977],[7.058175086999995,4.617836952000005],[7.059288978999973,4.638806820000013],[7.052904129000012,4.645384788999991],[7.047005177000017,4.654756068999973],[7.041128158999982,4.666457175999994],[7.033876895999981,4.679101944000024],[7.026144981000016,4.689420223000013],[7.017470837000019,4.69741392100002],[7.0074291230000085,4.706818103999979],[6.9978427890000034,4.715751171000022],[6.988261222999995,4.725151062000009],[6.982152939000002,4.74025392499999],[6.992082118999974,4.7489519119999954],[7.002087115999984,4.74364233],[7.001783848000002,4.747732161999977],[7.002251624999985,4.754977225999994],[7.002769469999976,4.757153033999998],[7.008177756999999,4.768442631000028],[7.008841990999997,4.7725048070000184],[7.002859116000025,4.773252963999994],[6.992669582000019,4.768298148999975],[6.984723567999993,4.763156890999994],[6.976310253000008,4.755911826999977],[6.963923931000011,4.754275799000027],[6.963653564000026,4.75880909],[6.966072082999972,4.765419959999974],[6.96462488200001,4.771102428000006],[6.958081245000017,4.775075436000009],[6.954809666000017,4.773673534000011],[6.949200630000007,4.772738457000003],[6.94499397300001,4.77998352100002],[6.944293022000011,4.785826206000024],[6.940553664999982,4.79400539400001],[6.929569721000007,4.79400539400001],[6.924427986000012,4.794706820999977],[6.925128937000011,4.788864135999972],[6.918585300000018,4.784891129000016],[6.912041664000014,4.791902064999988],[6.906433105000019,4.7935380939999845],[6.8933453559999975,4.791668415000004],[6.887269020000019,4.797744750999982],[6.881625175000011,4.794528007999986],[6.874882698000022,4.7881631849999735],[6.867170810999994,4.7823204989999795],[6.863431454000022,4.774140835000026],[6.86693716000002,4.764091491999977],[6.875279902999978,4.755416869999976],[6.881657124000014,4.747908114999973],[6.893136024,4.744553089000021],[6.9046020509999835,4.739799975999972],[6.912827968999977,4.733208178999973],[6.918272017999982,4.724308013999973],[6.924643993000018,4.716331004999972],[6.929156780000028,4.706504821999999],[6.925823212000012,4.694410801000004],[6.9151701929999945,4.687501907000012],[6.904569148999997,4.686188221000009],[6.896358967000026,4.694643973999973],[6.888601779999988,4.702165127000001],[6.880817890000003,4.70688915300002],[6.870254993000003,4.709770203000005],[6.865133762000028,4.7127895360000025],[6.8606390950000105,4.715439795999998],[6.849543095000001,4.710400105000019],[6.838016987000003,4.70862579300001],[6.83165311800002,4.7175350190000245],[6.821998119,4.719009875999973],[6.811021804999996,4.727022170999987],[6.804233074000024,4.739664077999976],[6.796057223999981,4.751849173999972]]]},"properties":{"fid":760,"cty_nm":"Nigeria","iso3cd":"NGA","adm1nm":"Rivers","adm2nm":"Degema","adm1cd":"NGA033","adm2cd":"NGA033008"}},{"type":"Feature","id":761,"geometry":{"type":"Polygon","coordinates":[[[6.7624568940000245,4.760527133999972],[6.740396023000017,4.756951808999986],[6.727970122999977,4.757516860999999],[6.715075016000014,4.757153033999998],[6.702562809000028,4.748394012000006],[6.6924099930000125,4.7456779479999796],[6.683222770999976,4.7480821610000135],[6.6708059320000075,4.749577998999996],[6.660247803000004,4.752925872999981],[6.649202823999985,4.753479003999985],[6.638588905000006,4.750765800000011],[6.629915238000024,4.758759974999975],[6.620207787000027,4.754642009999998],[6.6072411540000076,4.746353149000015],[6.60024976699998,4.734055995999995],[6.593472480999992,4.722457885999972],[6.586215019000008,4.718504906000021],[6.578935623000007,4.715189457000008],[6.574090480999985,4.709374905000004],[6.573121071000003,4.701622009000005],[6.567574977999982,4.701641083000027],[6.5605225560000235,4.697745322999992],[6.562364101000014,4.692440033000025],[6.553585052000017,4.688412189000019],[6.546593189000021,4.682030200999975],[6.537717819000022,4.672893047000002],[6.528808116999983,4.661898135999991],[6.511964798000008,4.6431441309999855],[6.5154361720000225,4.632859230000008],[6.516617774999986,4.622614860999988],[6.5260949130000085,4.615013122999983],[6.535140990999992,4.608811854999999],[6.538109780000013,4.596213818000024],[6.54404783199999,4.590173720999985],[6.548893452000016,4.586297034999973],[6.545501231999992,4.580966949000015],[6.540171145999977,4.576605797000013],[6.543078422999997,4.568368435000025],[6.551316261000011,4.558192729999973],[6.560038089999978,4.554316520999976],[6.566337109000017,4.553831576999983],[6.560038089999978,4.541233062999993],[6.553039074000026,4.53739976899999],[6.545016766000003,4.533480166999993],[6.542593956000019,4.5218510629999855],[6.549862384999983,4.510221480999974],[6.539985179999974,4.500919818999989],[6.537251473000026,4.4949827190000065],[6.534255028000018,4.488474845999974],[6.531782150000026,4.478759765999996],[6.525196074999997,4.469583035000028],[6.5228929520000065,4.462992191000012],[6.519386768000004,4.452957153],[6.516438008000023,4.442320823999978],[6.512575149999975,4.431702137000002],[6.511864184999979,4.418239116999985],[6.512516974999983,4.40428590800002],[6.511841774000004,4.392681121999999],[6.5120639799999935,4.380130768000015],[6.514143944000011,4.368941784000015],[6.520407200000022,4.360930919999987],[6.535923958000012,4.357870101999993],[6.544572829999993,4.35492801700002],[6.548027038999976,4.343715191000001],[6.548645019999981,4.334348202000001],[6.548645019999981,4.327236175999985],[6.548765091000007,4.32705347000001],[6.549120634000019,4.325273642000013],[6.549243263999983,4.325280383999996],[6.574443816999974,4.326665879000018],[6.640183240999988,4.311291014000005],[6.646996376999994,4.3264341400000035],[6.665402040000004,4.3274184919999925],[6.667665068000019,4.327539521000006],[6.682499886000016,4.32833290100001],[6.688528091000023,4.329194283999982],[6.694166183999982,4.329999923000003],[6.706372928999997,4.3387231959999895],[6.704667758000028,4.346442106999973],[6.701178439999978,4.362237411000024],[6.689443588000017,4.386666298000023],[6.688332558000013,4.392221451000012],[6.686388014999977,4.396944045999987],[6.667777060999981,4.419166565000012],[6.6652774809999755,4.423333167999999],[6.664166449999982,4.42861080199998],[6.671919951999996,4.442333454999982],[6.681118836999985,4.440960625999992],[6.6887126419999845,4.422485649000009],[6.70029858700002,4.419594540999981],[6.698865254999987,4.447889067999995],[6.690107689000001,4.491809477999993],[6.690265480999983,4.526295557000026],[6.713199984000028,4.561822291999988],[6.727221488999987,4.604999541999973],[6.73194408400002,4.605277062000027],[6.7352771750000215,4.601943969999979],[6.74111080199998,4.581110953999996],[6.743332862999978,4.569999694999979],[6.737221718000001,4.55527687099999],[6.731388091999975,4.547499656000014],[6.730180426999993,4.545025367999983],[6.719999314000006,4.524166106999985],[6.716346090999991,4.512444437999989],[6.713333130000024,4.5027770990000135],[6.711388587999977,4.4905548090000025],[6.709166526999979,4.45722198499999],[6.711650216999999,4.383947809999995],[6.7124996190000275,4.3588886260000095],[6.716433331000019,4.351020360000007],[6.716943741000023,4.34999942799999],[6.720276833000014,4.3463888169999905],[6.732221603000028,4.337499617999981],[6.738332748000005,4.336666106999985],[6.794166565000012,4.336666106999985],[6.848610877999988,4.348332405999997],[6.869925899999998,4.3531157460000145],[6.8739896650000105,4.362834408000026],[6.870166494999978,4.365255623999985],[6.850832938999986,4.377499580999995],[6.841670442000009,4.3991997370000036],[6.857057634,4.398305086999983],[6.852282047000017,4.407814025999983],[6.846889972999975,4.422308922000013],[6.841046810000023,4.437739849000025],[6.8374500269999885,4.447093010000003],[6.836159228999975,4.4568929669999875],[6.83396387099998,4.468564986999979],[6.830849171000011,4.480245113000024],[6.826826095999991,4.493330001999993],[6.822799206000013,4.505949973999975],[6.817842007000024,4.5176439289999735],[6.812884807999978,4.529337882999982],[6.809764862000009,4.540552138999999],[6.80848312400002,4.551284790000011],[6.806723117999979,4.5601558690000275],[6.810998917000006,4.574574946999974],[6.823060036000015,4.584270000000004],[6.830511092999984,4.593533992999994],[6.83612585100002,4.603280067000014],[6.83672285099999,4.6181941030000075],[6.827185154000006,4.632256030999997],[6.814414978000002,4.645410061000007],[6.810381888999984,4.657563209999978],[6.805924892000007,4.67344999300002],[6.80282306700002,4.686528205999991],[6.801084042000014,4.697730063999984],[6.797100066999974,4.715011119999986],[6.794023036999988,4.730885983000007],[6.789957046999973,4.739309788000014],[6.781167507000021,4.7463302610000255],[6.776493549000008,4.746096134000027],[6.771819591999986,4.740721226000005],[6.766444206000017,4.738150597000015],[6.762704848999988,4.74656391100001],[6.7624568940000245,4.760527133999972]]]},"properties":{"fid":761,"cty_nm":"Nigeria","iso3cd":"NGA","adm1nm":"Rivers","adm2nm":"Akuku Toru","adm1cd":"NGA033","adm2cd":"NGA033004"}}]}