{"type":"FeatureCollection","features":[{"type":"Feature","id":68,"geometry":{"type":"Polygon","coordinates":[[[7.018863200999988,6.238191127999983],[7.016646385000001,6.240684986000019],[7.013159751999979,6.246350287999974],[7.011852740999984,6.252887249000025],[7.008366108000018,6.2555017469999825],[7.0066232679999985,6.25245142],[7.001829623999981,6.244171618999985],[6.9966001509999955,6.235455512999977],[6.991806506999978,6.234584331999997],[6.986577033999993,6.236762999999996],[6.982219219000001,6.243299960999991],[6.976118088000021,6.248529433999977],[6.970016955999995,6.251579762000006],[6.966530799999987,6.251143931999991],[6.956071854000015,6.2437357900000166],[6.952367783,6.244171618999985],[6.954414844999974,6.235164165000015],[6.95846891399998,6.233712673000014],[6.96718454400002,6.227175713000008],[6.969799041999977,6.222382068999991],[6.972849845999974,6.2180242539999995],[6.981565475000025,6.2141022679999764],[6.986359118999985,6.208001136999997],[6.979386330000011,6.203207492999979],[6.97197818799998,6.202771664000011],[6.964569568999991,6.200157165999997],[6.954982281000014,6.195799351000005],[6.950188636999997,6.189698218999979],[6.944523334999985,6.181853771000021],[6.942780495000022,6.176624297999979],[6.944523334999985,6.170959472999982],[6.949752808000028,6.164858341000013],[6.954982281000014,6.156142712000019],[6.965005398000017,6.145247935999976],[6.968254089000027,6.138195992000021],[6.970234871000002,6.135224818999973],[6.973285197999985,6.129559517000018],[6.974891185999979,6.123594760999993],[6.978078842000002,6.124330043999976],[6.991152763000002,6.123023032999981],[7.003790379000009,6.126509189999979],[7.009891509999989,6.134353160999979],[7.012941837000028,6.142197608999993],[7.01424932499998,6.149169921999999],[7.014685154000006,6.155271052999979],[7.016863822999994,6.160064696999996],[7.026451587999986,6.161372185000005],[7.033859730000017,6.161372185000005],[7.039525031999972,6.1583213810000075],[7.039960860999997,6.163115025000025],[7.041267871999992,6.170959472999982],[7.039960860999997,6.180546761000016],[7.037781714999994,6.188826560999985],[7.035603046000006,6.199721335999982],[7.031680584000014,6.208436966000022],[7.026015759000018,6.220203400000003],[7.0238366130000145,6.224561214000005],[7.020350456000017,6.228483200000028],[7.018607139999972,6.2315335270000105],[7.018863200999988,6.238191127999983]]]},"properties":{"fid":68,"cty_nm":"Nigeria","iso3cd":"NGA","adm1nm":"Anambra","adm2nm":"Njikoka","adm1cd":"NGA004","adm2cd":"NGA004013"}},{"type":"Feature","id":56,"geometry":{"type":"Polygon","coordinates":[[[7.146545887000002,5.9887876509999955],[7.139319897000007,5.991415501000006],[7.134090424000021,6.00013113],[7.132783413000027,6.009282589000009],[7.130604267000024,6.017562388999977],[7.126682281000001,6.025842667000006],[7.119273663000001,6.035429954999984],[7.11491584800001,6.044145583999978],[7.1101222039999925,6.052861214000018],[7.100970744999984,6.05721902800002],[7.089204788000018,6.05721902800002],[7.077874183999995,6.059834002999992],[7.074388026999998,6.06201267199998],[7.060878276999972,6.063755989000015],[7.055213450999986,6.063755989000015],[7.050419807000026,6.066370486999972],[7.046933174000003,6.061141013999986],[7.040832519999981,6.055911541],[7.033859730000017,6.051553726000009],[7.028194427000017,6.049810885999989],[7.024272441999983,6.049810885999989],[7.0212221150000005,6.045453071999987],[7.016863822999994,6.039787768999986],[7.010327339000014,6.034558296],[6.997253894999972,6.027149677000011],[6.991588593000017,6.023227691999978],[6.987666606999994,6.021484375],[6.983145713999988,6.020396709000011],[6.982437134000008,6.017562388999977],[6.984179974000028,6.004924774000017],[6.988101959000005,5.999695300999974],[6.992895603000022,5.996644973999992],[7.002918720000025,5.994901657000014],[7.019478798000023,5.988800525999977],[7.039089203000003,5.982699394000008],[7.048676490999981,5.976162910000028],[7.060878276999972,5.967011452000008],[7.064364909999995,5.9596028330000195],[7.065671920999989,5.950451374000011],[7.063493252000001,5.943479061000005],[7.059135437000009,5.938685416999988],[7.056444644999999,5.930613517999973],[7.060201167999992,5.931416034999984],[7.062781334000022,5.9313983920000055],[7.065357684999981,5.93109369299998],[7.068220614999973,5.930787086000009],[7.070797443000004,5.930481911000015],[7.073087214999987,5.930179119000002],[7.075957297999992,5.930446625000002],[7.077960490999999,5.93014574099999],[7.080533027999991,5.9295539859999735],[7.083106041000008,5.928962231000014],[7.085679054000025,5.928370475999998],[7.088828563999982,5.928061485000001],[7.091404914999998,5.927756785999975],[7.093985081000028,5.927739142999997],[7.097131251999997,5.927143574000013],[7.099137783000003,5.927129745000002],[7.1037211419999835,5.926811218000012],[7.107727527999998,5.9262094499999876],[7.109726905999992,5.925621509999985],[7.112009525000019,5.92474460599999],[7.116570473000024,5.922704220000014],[7.118853091999995,5.921827316000019],[7.121142863999978,5.921524524999995],[7.124572277000027,5.9206399920000194],[7.12657499300002,5.920339108000007],[7.128574848000028,5.919751167000015],[7.1305813789999775,5.919737338999994],[7.132874965999974,5.919721603000028],[7.13574171099998,5.91970205299998],[7.1383142469999825,5.919109821000006],[7.142893791000006,5.9185042380000255],[7.146323203999998,5.917619704999993],[7.1491789820000236,5.916738986999974],[7.152030944999979,5.915571213000021],[7.154596805999972,5.914405346000024],[7.156592369000009,5.913530349999974],[7.159161568000002,5.912652015999981],[7.162304400999972,5.911769390000018],[7.16487693800002,5.911177157999987],[7.168295382999986,5.909431457999972],[7.170574187999989,5.908267975000001],[7.172570228999973,5.907392979000008],[7.17513227500001,5.905940532999978],[7.177977085000009,5.904198646999987],[7.179969310999979,5.903036594000014],[7.182817935999992,5.901581764000014],[7.18652296099998,5.899834155999997],[7.18881273300002,5.899531363999984],[7.191403865999973,5.900374888999977],[7.19314909000002,5.902371883000001],[7.195188522000024,5.9049410819999935],[7.196084498999994,5.907804966000015],[7.198138237000023,5.91152238799998],[7.199027537999996,5.91381216000002],[7.200787067000022,5.916957378000006],[7.201786518000006,5.918901919999996],[7.202844620000008,5.920961857000009],[7.190742969999974,5.923868656000025],[7.175490378999996,5.9321484569999825],[7.17026090600001,5.934327126000028],[7.164595603999999,5.938685416999988],[7.15544414499999,5.946529387999988],[7.153700829000002,5.953937531000008],[7.153264998999987,5.963088989000028],[7.152829170000018,5.973112105999974],[7.150214672000004,5.978341579000016],[7.146292685999981,5.985750198000005],[7.146545887000002,5.9887876509999955]]]},"properties":{"fid":56,"cty_nm":"Nigeria","iso3cd":"NGA","adm1nm":"Anambra","adm2nm":"Aguata","adm1cd":"NGA004","adm2cd":"NGA004001"}},{"type":"Feature","id":57,"geometry":{"type":"Polygon","coordinates":[[[6.981354712999973,6.416490554999996],[6.971542358000022,6.425894260000007],[6.968056202000014,6.433302878999996],[6.965441226999985,6.439839362999976],[6.951060294999991,6.435481547999984],[6.9462666509999735,6.42807340600001],[6.940165519999994,6.414563655999984],[6.932757378000019,6.411513329000002],[6.922734261000016,6.40018272399999],[6.91053199800001,6.398004055000001],[6.887435435999976,6.393210410999984],[6.86499261900002,6.371420860000001],[6.860957145999976,6.36151647600002],[6.860198975000003,6.359654902999978],[6.840588570000023,6.347888469999987],[6.8344874379999965,6.337429523000026],[6.831001281999988,6.326099396000018],[6.828386307000017,6.310410976000014],[6.820542336000017,6.2934150699999805],[6.8096475599999735,6.286878586],[6.802239417999999,6.275983810000014],[6.7987527849999765,6.263346194999997],[6.792216300999996,6.249836445000028],[6.790037154999993,6.239377975000025],[6.786333083999978,6.208872794999991],[6.783282756999995,6.192312716999993],[6.781200409000007,6.189338206999992],[6.786768913000003,6.190134048000004],[6.795048714000018,6.192748547000008],[6.80420017199998,6.192312716999993],[6.815966606000018,6.190569878000019],[6.818651198999987,6.1911067959999855],[6.822938919000023,6.194491862999996],[6.828168392000009,6.198413849000019],[6.839498997000021,6.2053866389999826],[6.842113494999978,6.211051463999979],[6.843856812000013,6.222382068999991],[6.845818043000008,6.22499704400002],[6.851047515999994,6.22979068799998],[6.858891486999994,6.235891342000002],[6.863685131000011,6.243299960999991],[6.867607116999977,6.249836445000028],[6.87763023399998,6.261167048999994],[6.883731365000017,6.268139839000014],[6.891139506999991,6.274240494000026],[6.897240639000017,6.275547980999988],[6.905956268000011,6.2803416250000055],[6.909442902000023,6.2833919529999775],[6.930360317000009,6.29297971699998],[6.939511776000018,6.300387859000011],[6.951278209999998,6.311718464000023],[6.962608814000021,6.3178191179999885],[6.965297699000018,6.317677974999981],[6.966748714000005,6.321305752000001],[6.96718454400002,6.332635879999998],[6.968491554000025,6.340480328000012],[6.970234871000002,6.348324299000012],[6.968491554000025,6.354425429999992],[6.964133738999976,6.366191387000015],[6.961083411999994,6.374907494000013],[6.962390900000003,6.384058951999975],[6.971324444000004,6.405848026000001],[6.975246428999981,6.410641670000018],[6.980911731999981,6.4141283039999735],[6.981354712999973,6.416490554999996]]]},"properties":{"fid":57,"cty_nm":"Nigeria","iso3cd":"NGA","adm1nm":"Anambra","adm2nm":"Anambra East","adm1cd":"NGA004","adm2cd":"NGA004002"}},{"type":"Feature","id":69,"geometry":{"type":"Polygon","coordinates":[[[6.946083068999997,6.020750523000004],[6.941908835999982,6.021049022999989],[6.9336290360000135,6.023663521000003],[6.924477577000005,6.032379149999997],[6.917504786999984,6.048503399000026],[6.909224987000016,6.063320159999989],[6.902688026000021,6.0707283020000204],[6.8967208860000255,6.07371187199999],[6.892664909000018,6.061141013999986],[6.892664909000018,6.055911541],[6.894408225999996,6.048939227999995],[6.893100738999976,6.041530609000006],[6.88917875300001,6.028892993999989],[6.8848209380000185,6.021049022999989],[6.882641792000015,6.011897087000023],[6.878283978000013,6.002745628000014],[6.875233649999984,5.99402999900002],[6.868260860000021,5.970061778999991],[6.864774704000013,5.953066348999982],[6.861605644000008,5.939201831999981],[6.870440006000024,5.9456577299999935],[6.877848147999998,5.952194690999988],[6.883513450999999,5.952630520000014],[6.893536568000002,5.957859993],[6.898766040999988,5.961346149000008],[6.904431342999999,5.9678831100000025],[6.912711143000024,5.973983765000014],[6.922734261000016,5.982264041999997],[6.932321548000004,5.990979670999991],[6.940165519999994,5.996644973999992],[6.944087505000027,6.003181457999972],[6.944087505000027,6.009282589000009],[6.944959164000011,6.016255378999972],[6.946083068999997,6.020750523000004]]]},"properties":{"fid":69,"cty_nm":"Nigeria","iso3cd":"NGA","adm1nm":"Anambra","adm2nm":"Nnewi North","adm1cd":"NGA004","adm2cd":"NGA004014"}},{"type":"Feature","id":58,"geometry":{"type":"Polygon","coordinates":[[[6.932072639000012,6.767693520000023],[6.931231975999992,6.788033009000003],[6.923388004000003,6.801978110999983],[6.912057399999981,6.80067062400002],[6.896804809999992,6.792390823000005],[6.8848209380000185,6.772780418000025],[6.883077620999984,6.768422604000023],[6.878283978000013,6.760578156000008],[6.868260860000021,6.755348681999976],[6.8599810599999955,6.753170012999988],[6.853008269999975,6.744453906999979],[6.842113494999978,6.73050880400001],[6.83383369400002,6.722229003999985],[6.819452763000015,6.712641716000007],[6.806379317999983,6.703054427999973],[6.8002781870000035,6.693467139999996],[6.7989706989999945,6.679522038000016],[6.800714015999972,6.669934749999982],[6.802893161999975,6.656425475999981],[6.805071831000021,6.636815071000001],[6.808993815999997,6.615897179000001],[6.808993815999997,6.598030090000009],[6.808122635000018,6.5801625249999915],[6.793305873999998,6.572318553999992],[6.764108180999983,6.563602924000008],[6.743190288999983,6.557501792999972],[6.717042923000008,6.550093650999997],[6.683923244000027,6.543120860999977],[6.6647009850000245,6.5323562620000075],[6.668920994000018,6.501234054999998],[6.671113491000028,6.4848365779999995],[6.673863888000028,6.468333244000007],[6.681765079000002,6.455741881999984],[6.685224055999981,6.442595004999987],[6.688670157999979,6.4322218890000045],[6.692131042000028,6.418381214000021],[6.69490289700002,6.406614779999984],[6.697680950000006,6.393462181000018],[6.699773788000016,6.381690025000012],[6.707312107000007,6.368577002999984],[6.712820052999973,6.353365897999993],[6.7149238590000095,6.338819980999972],[6.717024803000015,6.324967861000005],[6.718441009999992,6.3124971390000155],[6.719175816000018,6.300021172000015],[6.721268177000013,6.288249016000009],[6.723369122000008,6.274396895999985],[6.725022315999979,6.2657632830000125],[6.72615289700002,6.259857178000004],[6.731006144999981,6.239092826999979],[6.735824107999974,6.22595596299999],[6.742698193000024,6.209370136000018],[6.753652095999996,6.192818165000006],[6.762889384999994,6.185385703999998],[6.781200409000007,6.189338206999992],[6.783282756999995,6.192312716999993],[6.786333083999978,6.208872794999991],[6.790037154999993,6.239377975000025],[6.792216300999996,6.249836445000028],[6.7987527849999765,6.263346194999997],[6.802239417999999,6.275983810000014],[6.8096475599999735,6.286878586],[6.820542336000017,6.2934150699999805],[6.828386307000017,6.310410976000014],[6.831001281999988,6.326099396000018],[6.8344874379999965,6.337429523000026],[6.840588570000023,6.347888469999987],[6.860198975000003,6.359654902999978],[6.860957145999976,6.36151647600002],[6.858019829,6.368370533000018],[6.859109402000001,6.383187293999981],[6.8560590739999725,6.386673449999989],[6.857801913999992,6.394517898999993],[6.860416889000021,6.401490211000009],[6.8639030460000185,6.407591342999979],[6.86085271799999,6.417178631000013],[6.867389202000027,6.428509234999979],[6.878283978000013,6.449862479999979],[6.883949280000024,6.4655508999999824],[6.883949280000024,6.4764456749999795],[6.882641792000015,6.487775802999977],[6.883513450999999,6.497363091000011],[6.886999607000007,6.51087284099998],[6.8965868949999845,6.528304100000014],[6.900073528000007,6.540941714999974],[6.906174183000019,6.543992519000028],[6.905738353999993,6.548786162999988],[6.9007267950000255,6.557937621999997],[6.909442902000023,6.557937621999997],[6.911621571000012,6.559680938999975],[6.909878730999992,6.564909935000003],[6.911185740999997,6.568396568000026],[6.916851043999998,6.570575237000014],[6.922516346000009,6.573190211999986],[6.9207730289999745,6.578419684999972],[6.917286873000023,6.583649158000014],[6.9207730289999745,6.588442801999975],[6.925566672999992,6.593236445999992],[6.932103633999986,6.608489037000027],[6.936025620000009,6.612846850999972],[6.941690922000021,6.619383335000009],[6.941690922000021,6.62504863700002],[6.9368972780000036,6.628534794000018],[6.933846951000021,6.6403012279999984],[6.9355897899999945,6.6429157260000125],[6.937768935999998,6.648581028000024],[6.937333106999972,6.653374671999984],[6.939947604999986,6.660783290999973],[6.9368972780000036,6.6660127640000155],[6.934718132,6.67342090599999],[6.937768935999998,6.675600051999993],[6.945177077999972,6.680829524999979],[6.943870068000024,6.68693017999999],[6.930796145999977,6.690852641999982],[6.931667805000018,6.698696612999981],[6.932539463000012,6.710898398999973],[6.9329752919999805,6.72266483300001],[6.933411121000006,6.735302448000027],[6.932072639000012,6.767693520000023]]]},"properties":{"fid":58,"cty_nm":"Nigeria","iso3cd":"NGA","adm1nm":"Anambra","adm2nm":"Anambra West","adm1cd":"NGA004","adm2cd":"NGA004003"}},{"type":"Feature","id":59,"geometry":{"type":"Polygon","coordinates":[[[7.039525031999972,6.1583213810000075],[7.033859730000017,6.161372185000005],[7.026451587999986,6.161372185000005],[7.016863822999994,6.160064696999996],[7.014685154000006,6.155271052999979],[7.01424932499998,6.149169921999999],[7.012941837000028,6.142197608999993],[7.009891509999989,6.134353160999979],[7.003790379000009,6.126509189999979],[6.991152763000002,6.123023032999981],[6.978078842000002,6.124330043999976],[6.974891185999979,6.123594760999993],[6.976336001999982,6.118229389000021],[6.978078842000002,6.113435745000004],[6.981129645999999,6.1029767989999755],[6.982001304999983,6.096439837999981],[6.97982215899998,6.088160038000012],[6.978078842000002,6.082494736000001],[6.977643489999991,6.076829433],[6.9750285150000195,6.072907448000024],[6.971542358000022,6.061576843000012],[6.969799041999977,6.051989554999977],[6.968491554000025,6.0432739259999835],[6.968491554000025,6.0302004810000085],[6.968491554000025,6.024099349999972],[6.9750285150000195,6.022356032999994],[6.983145713999988,6.020396709000011],[6.987666606999994,6.021484375],[6.991588593000017,6.023227691999978],[6.997253894999972,6.027149677000011],[7.010327339000014,6.034558296],[7.016863822999994,6.039787768999986],[7.0212221150000005,6.045453071999987],[7.024272441999983,6.049810885999989],[7.028194427000017,6.049810885999989],[7.033859730000017,6.051553726000009],[7.040832519999981,6.055911541],[7.046933174000003,6.061141013999986],[7.050419807000026,6.066370486999972],[7.05172681800002,6.072471618999998],[7.053470134999998,6.077265263000015],[7.056956291000006,6.086852550999993],[7.066979408000009,6.099054336999984],[7.076130867000018,6.109949111999981],[7.080924510999978,6.11256408700001],[7.081796168999972,6.115178585000024],[7.07743835399998,6.118229389000021],[7.073080539999978,6.119536400000015],[7.066979408000009,6.123458384999992],[7.0613141059999975,6.126509189999979],[7.0456261630000085,6.136968136000007],[7.039525031999972,6.144812107000007],[7.036910057,6.150913238999976],[7.039525031999972,6.1583213810000075]]]},"properties":{"fid":59,"cty_nm":"Nigeria","iso3cd":"NGA","adm1nm":"Anambra","adm2nm":"Anaocha","adm1cd":"NGA004","adm2cd":"NGA004004"}},{"type":"Feature","id":60,"geometry":{"type":"Polygon","coordinates":[[[7.027468204000002,6.4435634609999966],[7.025144099999977,6.4441971780000245],[7.009891509999989,6.436789035999993],[6.990716933999977,6.423715591000018],[6.981354712999973,6.416490554999996],[6.980911731999981,6.4141283039999735],[6.975246428999981,6.410641670000018],[6.971324444000004,6.405848026000001],[6.962390900000003,6.384058951999975],[6.961083411999994,6.374907494000013],[6.964133738999976,6.366191387000015],[6.968491554000025,6.354425429999992],[6.970234871000002,6.348324299000012],[6.968491554000025,6.340480328000012],[6.96718454400002,6.332635879999998],[6.966748714000005,6.321305752000001],[6.965297699000018,6.317677974999981],[6.9708886149999785,6.31738328900002],[6.97829675700001,6.31433296199998],[6.987884044999987,6.303874016000009],[6.992677689000004,6.2951583860000255],[6.998778819999984,6.282956599999977],[7.002700806000007,6.271190165999997],[7.006187438999973,6.261602879000009],[7.008366108000018,6.2555017469999825],[7.011852740999984,6.252887249000025],[7.013159751999979,6.246350287999974],[7.016646385000001,6.240684986000019],[7.018863200999988,6.238191127999983],[7.028412342000024,6.242864132000022],[7.038435459000027,6.251579762000006],[7.047586917999979,6.25855255099998],[7.057174206000013,6.265960693000011],[7.066761493999991,6.269011020999983],[7.078527926999982,6.26726818100002],[7.092037200999982,6.260295391],[7.102060317999985,6.25245142],[7.1116476060000196,6.244171618999985],[7.117312907999974,6.241120814999988],[7.131693840000025,6.241120814999988],[7.14772033700001,6.242456435999998],[7.146946430000014,6.2446069719999855],[7.146946430000014,6.25245142],[7.149125099000003,6.262474537000003],[7.145203114000026,6.274676322999994],[7.142588615000022,6.289057254999989],[7.150432587000012,6.296901703000003],[7.160283089000018,6.303468704000011],[7.162199020000003,6.304745674000003],[7.1591482160000055,6.314768791000006],[7.154354571999988,6.321305752000001],[7.15086841599998,6.334379195999986],[7.147382258999983,6.343094826000026],[7.141934871999979,6.359654902999978],[7.13583374000001,6.37272834800001],[7.12798976900001,6.386673449999989],[7.115351676999978,6.401490211000009],[7.096612929999992,6.422408103999999],[7.088768958999992,6.4302520749999985],[7.06480073900002,6.437224865000019],[7.038653373999978,6.440275192000001],[7.029937743999994,6.442890166999973],[7.027468204000002,6.4435634609999966]]]},"properties":{"fid":60,"cty_nm":"Nigeria","iso3cd":"NGA","adm1nm":"Anambra","adm2nm":"Awka North","adm1cd":"NGA004","adm2cd":"NGA004005"}},{"type":"Feature","id":61,"geometry":{"type":"Polygon","coordinates":[[[7.14772033700001,6.242456435999998],[7.131693840000025,6.241120814999988],[7.117312907999974,6.241120814999988],[7.1116476060000196,6.244171618999985],[7.102060317999985,6.25245142],[7.092037200999982,6.260295391],[7.078527926999982,6.26726818100002],[7.066761493999991,6.269011020999983],[7.057174206000013,6.265960693000011],[7.047586917999979,6.25855255099998],[7.038435459000027,6.251579762000006],[7.028412342000024,6.242864132000022],[7.018863200999988,6.238191127999983],[7.018607139999972,6.2315335270000105],[7.020350456000017,6.228483200000028],[7.0238366130000145,6.224561214000005],[7.026015759000018,6.220203400000003],[7.031680584000014,6.208436966000022],[7.035603046000006,6.199721335999982],[7.037781714999994,6.188826560999985],[7.039960860999997,6.180546761000016],[7.041267871999992,6.170959472999982],[7.039960860999997,6.163115025000025],[7.039525031999972,6.1583213810000075],[7.036910057,6.150913238999976],[7.039525031999972,6.144812107000007],[7.0456261630000085,6.136968136000007],[7.0613141059999975,6.126509189999979],[7.066979408000009,6.123458384999992],[7.073080539999978,6.119536400000015],[7.07743835399998,6.118229389000021],[7.081796168999972,6.115178585000024],[7.080924510999978,6.11256408700001],[7.089204788000018,6.114742755999998],[7.099227905000021,6.1217155460000185],[7.108815192999998,6.128252029000009],[7.114480018999984,6.1330456730000265],[7.116659163999998,6.138710976000027],[7.120145320999995,6.143940449000013],[7.124938965000013,6.149169921999999],[7.1310400959999924,6.15352773699999],[7.137141228000019,6.157014370000013],[7.139755725999976,6.159628868000027],[7.1443314549999855,6.174881458000016],[7.15086841599998,6.185340404999977],[7.152611732000025,6.199285507000013],[7.151740073999974,6.226304054000025],[7.150997639000025,6.232611656000017],[7.14772033700001,6.242456435999998]]]},"properties":{"fid":61,"cty_nm":"Nigeria","iso3cd":"NGA","adm1nm":"Anambra","adm2nm":"Awka South","adm1cd":"NGA004","adm2cd":"NGA004006"}},{"type":"Feature","id":62,"geometry":{"type":"Polygon","coordinates":[[[7.049659252000026,6.474356650999994],[7.048458575999973,6.485161303999973],[7.046279430000027,6.500849723999977],[7.046279430000027,6.512179851999974],[7.048458575999973,6.52743244200002],[7.055431365999993,6.54530000699998],[7.063275336999993,6.5548872950000145],[7.078092098000013,6.557501792999972],[7.084193229999983,6.562295436999989],[7.088551043999985,6.568832396999994],[7.092037200999982,6.57580471],[7.109468460000016,6.593236445999992],[7.115569591999986,6.603259562999995],[7.117748736999999,6.615461348999986],[7.124721050000005,6.625920296000004],[7.128643036000028,6.635507583999981],[7.131693840000025,6.643351554999981],[7.1325654980000195,6.65206766099999],[7.129078864999997,6.659475803000021],[7.116877079000005,6.666448592999984],[7.101624489000017,6.675600051999993],[7.090293884000005,6.677342892000013],[7.070247649999999,6.685623168999996],[7.0606603620000215,6.684315680999987],[7.050637721999976,6.682572364999999],[7.046279430000027,6.687366009000016],[7.031898499000022,6.696517466999978],[7.016646385000001,6.706104755000013],[7.007494450000024,6.708719729999984],[6.990934848999984,6.713077544999976],[6.9826550480000265,6.713077544999976],[6.968709468999975,6.711334228999988],[6.956507682999984,6.710027217999993],[6.943870068000024,6.706104755000013],[6.931667805000018,6.698696612999981],[6.930796145999977,6.690852641999982],[6.943870068000024,6.68693017999999],[6.945177077999972,6.680829524999979],[6.937768935999998,6.675600051999993],[6.934718132,6.67342090599999],[6.9368972780000036,6.6660127640000155],[6.939947604999986,6.660783290999973],[6.937333106999972,6.653374671999984],[6.937768935999998,6.648581028000024],[6.9355897899999945,6.6429157260000125],[6.933846951000021,6.6403012279999984],[6.9368972780000036,6.628534794000018],[6.941690922000021,6.62504863700002],[6.941690922000021,6.619383335000009],[6.936025620000009,6.612846850999972],[6.932103633999986,6.608489037000027],[6.925566672999992,6.593236445999992],[6.9207730289999745,6.588442801999975],[6.917286873000023,6.583649158000014],[6.9207730289999745,6.578419684999972],[6.922516346000009,6.573190211999986],[6.916851043999998,6.570575237000014],[6.911185740999997,6.568396568000026],[6.909878730999992,6.564909935000003],[6.911621571000012,6.559680938999975],[6.909442902000023,6.557937621999997],[6.9007267950000255,6.557937621999997],[6.905738353999993,6.548786162999988],[6.906174183000019,6.543992519000028],[6.900073528000007,6.540941714999974],[6.8965868949999845,6.528304100000014],[6.886999607000007,6.51087284099998],[6.883513450999999,6.497363091000011],[6.882641792000015,6.487775802999977],[6.883949280000024,6.4764456749999795],[6.883949280000024,6.4655508999999824],[6.878283978000013,6.449862479999979],[6.867389202000027,6.428509234999979],[6.86085271799999,6.417178631000013],[6.8639030460000185,6.407591342999979],[6.860416889000021,6.401490211000009],[6.857801913999992,6.394517898999993],[6.8560590739999725,6.386673449999989],[6.859109402000001,6.383187293999981],[6.858019829,6.368370533000018],[6.860957145999976,6.36151647600002],[6.86499261900002,6.371420860000001],[6.887435435999976,6.393210410999984],[6.91053199800001,6.398004055000001],[6.922734261000016,6.40018272399999],[6.932757378000019,6.411513329000002],[6.940165519999994,6.414563655999984],[6.9462666509999735,6.42807340600001],[6.951060294999991,6.435481547999984],[6.965441226999985,6.439839362999976],[6.968056202000014,6.433302878999996],[6.971542358000022,6.425894260000007],[6.981354712999973,6.416490554999996],[6.990716933999977,6.423715591000018],[7.009891509999989,6.436789035999993],[7.025144099999977,6.4441971780000245],[7.027468204000002,6.4435634609999966],[7.029719829999976,6.447247982000022],[7.032770157000016,6.451605797000013],[7.032770157000016,6.456835269999999],[7.0332059859999845,6.466858387000002],[7.036256313000024,6.473830700000008],[7.0454082489999905,6.471216201999994],[7.049659252000026,6.474356650999994]]]},"properties":{"fid":62,"cty_nm":"Nigeria","iso3cd":"NGA","adm1nm":"Anambra","adm2nm":"Ayamelum","adm1cd":"NGA004","adm2cd":"NGA004007"}},{"type":"Feature","id":63,"geometry":{"type":"MultiPolygon","coordinates":[[[[7.0066232679999985,6.25245142],[7.008366108000018,6.2555017469999825],[7.006187438999973,6.261602879000009],[7.002700806000007,6.271190165999997],[6.998778819999984,6.282956599999977],[6.992677689000004,6.2951583860000255],[6.987884044999987,6.303874016000009],[6.97829675700001,6.31433296199998],[6.9708886149999785,6.31738328900002],[6.965297699000018,6.317677974999981],[6.964133738999976,6.314768791000006],[6.961955069999988,6.302567005000014],[6.9562897679999764,6.289057254999989],[6.954546451999988,6.276419639999972],[6.952803612000025,6.264217377000023],[6.952367783,6.2537589070000195],[6.952367783,6.244171618999985],[6.956071854000015,6.2437357900000166],[6.966530799999987,6.251143931999991],[6.970016955999995,6.251579762000006],[6.976118088000021,6.248529433999977],[6.982219219000001,6.243299960999991],[6.986577033999993,6.236762999999996],[6.991806506999978,6.234584331999997],[6.9966001509999955,6.235455512999977],[7.001829623999981,6.244171618999985],[7.0066232679999985,6.25245142]]],[[[6.961955069999988,6.136096478000013],[6.968254089000027,6.138195992000021],[6.965005398000017,6.145247935999976],[6.954982281000014,6.156142712000019],[6.949752808000028,6.164858341000013],[6.944523334999985,6.170959472999982],[6.942780495000022,6.176624297999979],[6.944523334999985,6.181853771000021],[6.950188636999997,6.189698218999979],[6.954982281000014,6.195799351000005],[6.964569568999991,6.200157165999997],[6.97197818799998,6.202771664000011],[6.979386330000011,6.203207492999979],[6.986359118999985,6.208001136999997],[6.981565475000025,6.2141022679999764],[6.972849845999974,6.2180242539999995],[6.969799041999977,6.222382068999991],[6.96718454400002,6.227175713000008],[6.95846891399998,6.233712673000014],[6.954414844999974,6.235164165000015],[6.952367783,6.22979068799998],[6.951496124000016,6.2206387520000135],[6.9471383090000245,6.207129478000013],[6.944959164000011,6.202771664000011],[6.944959164000011,6.199721335999982],[6.942344665999997,6.197978019999994],[6.934064864999982,6.191876888000024],[6.918812274999993,6.179675101999976],[6.909660815999985,6.174881458000016],[6.908619403999978,6.1703300479999825],[6.9114036560000045,6.1692161560000045],[6.918812274999993,6.163115025000025],[6.924912930000005,6.159193039000002],[6.935807705000002,6.150041579999993],[6.9471383090000245,6.140454292000015],[6.955853939000008,6.136096478000013],[6.961955069999988,6.136096478000013]]]]},"properties":{"fid":63,"cty_nm":"Nigeria","iso3cd":"NGA","adm1nm":"Anambra","adm2nm":"Dunukofia","adm1cd":"NGA004","adm2cd":"NGA004008"}},{"type":"Feature","id":64,"geometry":{"type":"Polygon","coordinates":[[[6.8967208860000255,6.07371187199999],[6.89571523699999,6.075521945999981],[6.88917875300001,6.071599960000015],[6.881334304999996,6.064191817999983],[6.876540660999979,6.058962344999998],[6.869568347999973,6.052861214000018],[6.864338874999987,6.048503399000026],[6.85475158700001,6.044145583999978],[6.84690761600001,6.0419664379999745],[6.831219196000006,6.042402267],[6.821631907999972,6.041530609000006],[6.816838264000012,6.044145583999978],[6.808557986999972,6.045453071999987],[6.8002781870000035,6.045017241999972],[6.795484542999986,6.048939227999995],[6.788512229999981,6.0541687009999805],[6.7841539379999745,6.0580906870000035],[6.787204741999972,6.045453071999987],[6.792870044999972,6.030636311000023],[6.795920372000012,6.016255378999972],[6.798534870000026,6.004053116000023],[6.802457333000007,5.9931583399999795],[6.8111729620000006,5.9835710529999915],[6.812916278999978,5.970933436999985],[6.81248045000001,5.964832306000005],[6.819016933,5.952194690999988],[6.824035168000023,5.946235656999988],[6.826373100000012,5.9444031720000226],[6.836448668999992,5.936506270999985],[6.8560590739999725,5.919510365000008],[6.869132519000004,5.909487723999973],[6.894844055000021,5.898592948999976],[6.909660815999985,5.897285461000024],[6.910096168999985,5.906001091000007],[6.9142007830000125,5.916433333999976],[6.91053199800001,5.918203354000013],[6.902252196999996,5.918639182999982],[6.861605644000008,5.939201831999981],[6.864774704000013,5.953066348999982],[6.868260860000021,5.970061778999991],[6.875233649999984,5.99402999900002],[6.878283978000013,6.002745628000014],[6.882641792000015,6.011897087000023],[6.8848209380000185,6.021049022999989],[6.88917875300001,6.028892993999989],[6.893100738999976,6.041530609000006],[6.894408225999996,6.048939227999995],[6.892664909000018,6.055911541],[6.892664909000018,6.061141013999986],[6.8967208860000255,6.07371187199999]]]},"properties":{"fid":64,"cty_nm":"Nigeria","iso3cd":"NGA","adm1nm":"Anambra","adm2nm":"Ekwusigo","adm1cd":"NGA004","adm2cd":"NGA004009"}},{"type":"Feature","id":65,"geometry":{"type":"Polygon","coordinates":[[[6.908619403999978,6.1703300479999825],[6.902252196999996,6.166165829000022],[6.87436199199999,6.164422511999987],[6.8639030460000185,6.1652941699999815],[6.856494903999987,6.1666016579999905],[6.848214626000015,6.1666016579999905],[6.844728470000007,6.167037010000001],[6.841242313000009,6.171395302000008],[6.839063167999996,6.175317286999984],[6.837755679999987,6.179675101999976],[6.835141181999973,6.18228959999999],[6.83209085499999,6.178367615000013],[6.829475880000018,6.1731381420000275],[6.826861382000004,6.1666016579999905],[6.827297210999973,6.160500526000021],[6.8225035670000125,6.148734092999973],[6.819016933,6.139582634000021],[6.813351630999989,6.129559517000018],[6.811608791000026,6.123894215000007],[6.805071831000021,6.11910057099999],[6.795920372000012,6.112128257999984],[6.791934013000002,6.107904433999977],[6.790690899000026,6.103847980000012],[6.797227858999975,6.100797652999972],[6.801149844999998,6.098618983999984],[6.81248045000001,6.09949016600001],[6.8225035670000125,6.1029767989999755],[6.831655024999975,6.103412628000001],[6.843856812000013,6.101233481999998],[6.854315757999984,6.098618983999984],[6.865646362000007,6.094260693000024],[6.874797821000016,6.09774732599999],[6.884385108999993,6.105155468000021],[6.890921592999973,6.106027126000015],[6.903559685000005,6.09949016600001],[6.911839484999973,6.094260693000024],[6.9222984310000015,6.090774536000026],[6.934500216999993,6.090774536000026],[6.93929386100001,6.097311497000021],[6.952803612000025,6.108206272000018],[6.95846891399998,6.114306926999973],[6.968056202000014,6.11910057099999],[6.9724140170000055,6.123023032999981],[6.974891185999979,6.123594760999993],[6.973285197999985,6.129559517000018],[6.970234871000002,6.135224818999973],[6.968254089000027,6.138195992000021],[6.961955069999988,6.136096478000013],[6.955853939000008,6.136096478000013],[6.9471383090000245,6.140454292000015],[6.935807705000002,6.150041579999993],[6.924912930000005,6.159193039000002],[6.918812274999993,6.163115025000025],[6.9114036560000045,6.1692161560000045],[6.908619403999978,6.1703300479999825]]]},"properties":{"fid":65,"cty_nm":"Nigeria","iso3cd":"NGA","adm1nm":"Anambra","adm2nm":"Idemili North","adm1cd":"NGA004","adm2cd":"NGA004010"}},{"type":"Feature","id":66,"geometry":{"type":"Polygon","coordinates":[[[6.968491554000025,6.024099349999972],[6.968491554000025,6.0302004810000085],[6.968491554000025,6.0432739259999835],[6.969799041999977,6.051989554999977],[6.971542358000022,6.061576843000012],[6.9750285150000195,6.072907448000024],[6.977643489999991,6.076829433],[6.978078842000002,6.082494736000001],[6.97982215899998,6.088160038000012],[6.982001304999983,6.096439837999981],[6.981129645999999,6.1029767989999755],[6.978078842000002,6.113435745000004],[6.976336001999982,6.118229389000021],[6.974891185999979,6.123594760999993],[6.9724140170000055,6.123023032999981],[6.968056202000014,6.11910057099999],[6.95846891399998,6.114306926999973],[6.952803612000025,6.108206272000018],[6.93929386100001,6.097311497000021],[6.934500216999993,6.090774536000026],[6.9222984310000015,6.090774536000026],[6.911839484999973,6.094260693000024],[6.903559685000005,6.09949016600001],[6.890921592999973,6.106027126000015],[6.884385108999993,6.105155468000021],[6.874797821000016,6.09774732599999],[6.865646362000007,6.094260693000024],[6.854315757999984,6.098618983999984],[6.843856812000013,6.101233481999998],[6.831655024999975,6.103412628000001],[6.8225035670000125,6.1029767989999755],[6.81248045000001,6.09949016600001],[6.801149844999998,6.098618983999984],[6.797227858999975,6.100797652999972],[6.790690899000026,6.103847980000012],[6.781539440000017,6.101669312000013],[6.775874138000006,6.097311497000021],[6.775438308999981,6.087724208999987],[6.775438308999981,6.080315589999998],[6.776309966999975,6.071164130999989],[6.778924942000003,6.059834002999992],[6.7841539379999745,6.0580906870000035],[6.788512229999981,6.0541687009999805],[6.795484542999986,6.048939227999995],[6.8002781870000035,6.045017241999972],[6.808557986999972,6.045453071999987],[6.816838264000012,6.044145583999978],[6.821631907999972,6.041530609000006],[6.831219196000006,6.042402267],[6.84690761600001,6.0419664379999745],[6.85475158700001,6.044145583999978],[6.864338874999987,6.048503399000026],[6.869568347999973,6.052861214000018],[6.876540660999979,6.058962344999998],[6.881334304999996,6.064191817999983],[6.88917875300001,6.071599960000015],[6.89571523699999,6.075521945999981],[6.8967208860000255,6.07371187199999],[6.902688026000021,6.0707283020000204],[6.909224987000016,6.063320159999989],[6.917504786999984,6.048503399000026],[6.924477577000005,6.032379149999997],[6.9336290360000135,6.023663521000003],[6.941908835999982,6.021049022999989],[6.946083068999997,6.020750523000004],[6.954110621999973,6.020177364000006],[6.961083411999994,6.022356032999994],[6.968491554000025,6.024099349999972]]]},"properties":{"fid":66,"cty_nm":"Nigeria","iso3cd":"NGA","adm1nm":"Anambra","adm2nm":"Idemili South","adm1cd":"NGA004","adm2cd":"NGA004011"}},{"type":"Feature","id":67,"geometry":{"type":"Polygon","coordinates":[[[6.9142007830000125,5.916433333999976],[6.910096168999985,5.906001091000007],[6.909660815999985,5.897285461000024],[6.894844055000021,5.898592948999976],[6.869132519000004,5.909487723999973],[6.8560590739999725,5.919510365000008],[6.836448668999992,5.936506270999985],[6.826373100000012,5.9444031720000226],[6.824682236000001,5.936506270999985],[6.819888591999984,5.918203354000013],[6.816838264000012,5.910358905999999],[6.8111729620000006,5.89510631600001],[6.804636001999995,5.887698173999979],[6.7976636889999895,5.8820328709999785],[6.790255070000001,5.872009753999976],[6.787204741999972,5.86590910000001],[6.790255070000001,5.8580646510000065],[6.793741226000009,5.851963520000027],[6.793741226000009,5.845862865000015],[6.79156255700002,5.835839748000012],[6.788947581999992,5.821894645999976],[6.788947581999992,5.814486026999987],[6.791126727999995,5.806642055999987],[6.795048714000018,5.794875622000006],[6.7949390410000206,5.789730549000012],[6.797228813000004,5.789427756999999],[6.800661563999995,5.788829802999999],[6.802951335999978,5.7885270119999745],[6.805528164000009,5.788222313000006],[6.810680865999984,5.787612915000011],[6.812680243999978,5.7870249750000085],[6.815245628000014,5.785859108000011],[6.817807673999994,5.784406661999981],[6.819803714999978,5.783531665999988],[6.822648524999977,5.781789779999997],[6.824354172000028,5.780630111999983],[6.825769423999986,5.779185294999991],[6.82889413800001,5.776867390000007],[6.832584381000004,5.773971558000028],[6.834576606999974,5.7728099820000125],[6.838277817000005,5.770775318000005],[6.840458393000006,5.769661427000017],[6.843405723999979,5.76815652800002],[6.8465299609999875,5.765839099999994],[6.848801612999978,5.764101028000027],[6.851069927000026,5.7620763780000175],[6.853617191000012,5.759475708000025],[6.855881690999979,5.75716352500001],[6.858712195999999,5.754273891000025],[6.86012363399999,5.752542018999975],[6.861538886999995,5.751097201999983],[6.863240718999975,5.749650477999978],[6.8655123710000225,5.747912407000001],[6.8680744170000025,5.746459961000028],[6.870070456999997,5.745584964999978],[6.872349262,5.744421004999992],[6.8743524550000075,5.74412012099998],[6.87664556499999,5.744104385000014],[6.879530429999988,5.745519638000019],[6.881290435999972,5.748664856000005],[6.883046626999999,5.751523018],[6.883652686999994,5.754102230000001],[6.8836994170000025,5.75783300400002],[6.883739471000013,5.760990143000015],[6.884077072000025,5.765006065000023],[6.884399890999987,5.7678742410000154],[6.884740829000009,5.772177219000014],[6.884486675000005,5.774762153999973],[6.8851108549999935,5.778776169000025],[6.885437012000011,5.781931400000019],[6.885502337999981,5.787097453999991],[6.886427401999981,5.792257308999979],[6.888198375999991,5.796263694999993],[6.888818741000023,5.799990653999998],[6.8894391059999975,5.803717613000003],[6.8897581100000025,5.8062987330000055],[6.891510962999973,5.80886983900001],[6.894406795999998,5.811146258999997],[6.895857810999985,5.812571525999999],[6.898750305000021,5.814560889999996],[6.90135908100001,5.816838741000026],[6.904530524999984,5.818252087000019],[6.906838417000017,5.819384575000015],[6.9088630680000165,5.820805549999989],[6.911744595000016,5.821933746000013],[6.915561199000024,5.823806285999979],[6.920395374000009,5.8258924479999905],[6.923559666000017,5.826731682000002],[6.927017689000024,5.828143119999993],[6.930185795,5.8292694090000055],[6.933353424000018,5.830395699000007],[6.935374737000018,5.831530094000016],[6.938836574999982,5.833228110999983],[6.941431045999991,5.834358692000023],[6.943452358000002,5.8354926110000065],[6.945763587999977,5.836911677999979],[6.948365688000024,5.838615893999986],[6.949820518000024,5.840328216999978],[6.952436923999983,5.84318017999999],[6.95389938400001,5.8454666139999745],[6.954504966999991,5.848045825999975],[6.955971240999986,5.850618838999992],[6.957716464999976,5.852615833000016],[6.960031508999975,5.854321957000025],[6.9623503679999885,5.856315135999978],[6.964676380000014,5.858882427000026],[6.966425419000018,5.861166953999998],[6.972822666000013,5.8682985309999935],[6.9751338959999885,5.8697175980000225],[6.979495525000004,5.874567032000016],[6.982122898,5.8782801629999994],[6.984466553000004,5.882282256999986],[6.986212254000009,5.884279728000024],[6.988824844000021,5.886844634999989],[6.990885735000006,5.891136168999992],[6.993222713000023,5.894564151999987],[6.994971752000026,5.896848202000001],[6.993331431999991,5.898157120000008],[6.986794949,5.900771618000022],[6.974156857000025,5.902079104999984],[6.96718454400002,5.903822422000019],[6.950624466000022,5.909487723999973],[6.940601349000019,5.910358905999999],[6.9353718759999765,5.913409709999996],[6.927092075000019,5.91428136799999],[6.917068958000016,5.915588378999985],[6.9142007830000125,5.916433333999976]]]},"properties":{"fid":67,"cty_nm":"Nigeria","iso3cd":"NGA","adm1nm":"Anambra","adm2nm":"Ihiala","adm1cd":"NGA004","adm2cd":"NGA004012"}},{"type":"Feature","id":70,"geometry":{"type":"Polygon","coordinates":[[[6.983145713999988,6.020396709000011],[6.9750285150000195,6.022356032999994],[6.968491554000025,6.024099349999972],[6.961083411999994,6.022356032999994],[6.954110621999973,6.020177364000006],[6.946083068999997,6.020750523000004],[6.944959164000011,6.016255378999972],[6.944087505000027,6.009282589000009],[6.944087505000027,6.003181457999972],[6.940165519999994,5.996644973999992],[6.932321548000004,5.990979670999991],[6.922734261000016,5.982264041999997],[6.912711143000024,5.973983765000014],[6.904431342999999,5.9678831100000025],[6.898766040999988,5.961346149000008],[6.893536568000002,5.957859993],[6.883513450999999,5.952630520000014],[6.877848147999998,5.952194690999988],[6.870440006000024,5.9456577299999935],[6.861605644000008,5.939201831999981],[6.902252196999996,5.918639182999982],[6.91053199800001,5.918203354000013],[6.9142007830000125,5.916433333999976],[6.917068958000016,5.915588378999985],[6.927092075000019,5.91428136799999],[6.9353718759999765,5.913409709999996],[6.940601349000019,5.910358905999999],[6.950624466000022,5.909487723999973],[6.96718454400002,5.903822422000019],[6.974156857000025,5.902079104999984],[6.986794949,5.900771618000022],[6.993331431999991,5.898157120000008],[6.994971752000026,5.896848202000001],[6.996720790999973,5.899132728999973],[6.998175620999973,5.900844574000018],[6.999913692000007,5.902267933000019],[7.003111838999985,5.905193328999985],[7.009156227000005,5.907657622999977],[7.014613628000006,5.9084811210000225],[7.017770767000002,5.908746242999996],[7.020931243999996,5.909298896999985],[7.025525570000013,5.909841061000009],[7.031001091000007,5.912099361000003],[7.033896922999986,5.914375781999979],[7.035634995000009,5.9157991409999795],[7.037663459999976,5.9175071720000005],[7.03941249799999,5.919791222000015],[7.04115772199998,5.921788215999982],[7.043472767000026,5.923494816000016],[7.045501231999992,5.92520284699998],[7.0478200910000055,5.92719602599999],[7.0530090330000235,5.929456711],[7.056444644999999,5.930613517999973],[7.059135437000009,5.938685416999988],[7.063493252000001,5.943479061000005],[7.065671920999989,5.950451374000011],[7.064364909999995,5.9596028330000195],[7.060878276999972,5.967011452000008],[7.048676490999981,5.976162910000028],[7.039089203000003,5.982699394000008],[7.019478798000023,5.988800525999977],[7.002918720000025,5.994901657000014],[6.992895603000022,5.996644973999992],[6.988101959000005,5.999695300999974],[6.984179974000028,6.004924774000017],[6.982437134000008,6.017562388999977],[6.983145713999988,6.020396709000011]]]},"properties":{"fid":70,"cty_nm":"Nigeria","iso3cd":"NGA","adm1nm":"Anambra","adm2nm":"Nnewi South","adm1cd":"NGA004","adm2cd":"NGA004015"}},{"type":"Feature","id":71,"geometry":{"type":"Polygon","coordinates":[[[6.786333083999978,6.123458384999992],[6.778924942000003,6.123894215000007],[6.7723879810000085,6.124330043999976],[6.764108180999983,6.1217155460000185],[6.7558040619999815,6.123312472999999],[6.755330086000015,6.120709895999994],[6.749240874999998,6.113724231999981],[6.737713814000017,6.105999946999987],[6.722111224999992,6.09754800799999],[6.713315964000003,6.087072848999981],[6.709276198999987,6.0780239110000025],[6.716826916000002,6.062137127000028],[6.725058079000007,6.046256065000023],[6.726493834999985,6.0289301870000145],[6.724527835999993,6.012269973999992],[6.71985721599998,5.992121220000001],[6.716506003999996,5.980997086000002],[6.715875148999999,5.969895839999992],[6.713212967000004,5.956697941000016],[6.7085227970000005,5.940709114000015],[6.7038249970000265,5.926799774000017],[6.697762011999998,5.91357278800001],[6.688315868000018,5.8968510629999855],[6.679429054000025,5.888180733000013],[6.674054146000003,5.873847961000024],[6.6609158520000165,5.856529235999972],[6.657929896999974,5.840404509999985],[6.650763512000026,5.8171133999999824],[6.651957512000024,5.798600196999985],[6.654832839999983,5.779374123000025],[6.654868125999997,5.771530150999979],[6.643630028000018,5.7473254199999815],[6.633620262000022,5.730035782000016],[6.650887489000013,5.725108623999972],[6.664922713999999,5.722358703999987],[6.668275832999996,5.7218294140000125],[6.671439647999989,5.726861477],[6.675503730999992,5.730851649999977],[6.678693295000016,5.73370027499999],[6.681012153999973,5.735693454999989],[6.684201717000008,5.738541602999987],[6.688261985999986,5.742244719999974],[6.692014217000008,5.744228362999991],[6.694906235000019,5.746217727999976],[6.697508335000009,5.747921943999984],[6.701564788999974,5.75133800499998],[6.705908297999997,5.754752635999978],[6.709087371999999,5.756739616000004],[6.711115837000023,5.758448123999983],[6.71430540099999,5.761296271999981],[6.717483996999988,5.763283730000012],[6.720666408999989,5.765557765999972],[6.723268032000021,5.7672619819999795],[6.726145744000007,5.768103123000003],[6.7293210029999955,5.769803523999997],[6.732205867999994,5.771218777000001],[6.73422670399998,5.77235317200001],[6.736824989000013,5.773770332000026],[6.74028301200002,5.775181770000017],[6.744612216999997,5.777448176999997],[6.746636867999996,5.778869152000027],[6.749246120000009,5.7811474800000155],[6.7524137500000165,5.782273769000028],[6.755295277000016,5.783401965999985],[6.75874948500001,5.784526347999986],[6.762490748999994,5.785648346000016],[6.766228676000026,5.786483765000014],[6.769962310999972,5.787032126999975],[6.774270058000013,5.787576675000025],[6.777724266000007,5.788701057000026],[6.780881405000002,5.788966178999999],[6.783464908999974,5.789235592000011],[6.786048889000028,5.789504528000009],[6.788632393,5.789773941000021],[6.791215896999972,5.790043353999977],[6.7949390410000206,5.789730549000012],[6.795048714000018,5.794875622000006],[6.791126727999995,5.806642055999987],[6.788947581999992,5.814486026999987],[6.788947581999992,5.821894645999976],[6.79156255700002,5.835839748000012],[6.793741226000009,5.845862865000015],[6.793741226000009,5.851963520000027],[6.790255070000001,5.8580646510000065],[6.787204741999972,5.86590910000001],[6.790255070000001,5.872009753999976],[6.7976636889999895,5.8820328709999785],[6.804636001999995,5.887698173999979],[6.8111729620000006,5.89510631600001],[6.816838264000012,5.910358905999999],[6.819888591999984,5.918203354000013],[6.824682236000001,5.936506270999985],[6.826373100000012,5.9444031720000226],[6.824035168000023,5.946235656999988],[6.819016933,5.952194690999988],[6.81248045000001,5.964832306000005],[6.812916278999978,5.970933436999985],[6.8111729620000006,5.9835710529999915],[6.802457333000007,5.9931583399999795],[6.798534870000026,6.004053116000023],[6.795920372000012,6.016255378999972],[6.792870044999972,6.030636311000023],[6.787204741999972,6.045453071999987],[6.7841539379999745,6.0580906870000035],[6.778924942000003,6.059834002999992],[6.776309966999975,6.071164130999989],[6.775438308999981,6.080315589999998],[6.775438308999981,6.087724208999987],[6.775874138000006,6.097311497000021],[6.781539440000017,6.101669312000013],[6.790690899000026,6.103847980000012],[6.791934013000002,6.107904433999977],[6.789819240999975,6.118229389000021],[6.786333083999978,6.123458384999992]]]},"properties":{"fid":71,"cty_nm":"Nigeria","iso3cd":"NGA","adm1nm":"Anambra","adm2nm":"Ogbaru","adm1cd":"NGA004","adm2cd":"NGA004016"}},{"type":"Feature","id":72,"geometry":{"type":"Polygon","coordinates":[[[6.835141181999973,6.18228959999999],[6.830347538000012,6.187519072999976],[6.822938919000023,6.194491862999996],[6.818651198999987,6.1911067959999855],[6.815966606000018,6.190569878000019],[6.80420017199998,6.192312716999993],[6.795048714000018,6.192748547000008],[6.786768913000003,6.190134048000004],[6.781200409000007,6.189338206999992],[6.762889384999994,6.185385703999998],[6.767301083000007,6.181836127999986],[6.769402027000012,6.167984009000008],[6.766045093999992,6.158246994000024],[6.7647838589999765,6.155804633999992],[6.768030167000006,6.152656078000007],[6.781103610999992,6.151784897000027],[6.78371858600002,6.149605751000024],[6.787640571999987,6.142632961000004],[6.787640571999987,6.136096478000013],[6.787640571999987,6.126945019000004],[6.786333083999978,6.123458384999992],[6.789819240999975,6.118229389000021],[6.791934013000002,6.107904433999977],[6.795920372000012,6.112128257999984],[6.805071831000021,6.11910057099999],[6.811608791000026,6.123894215000007],[6.813351630999989,6.129559517000018],[6.819016933,6.139582634000021],[6.8225035670000125,6.148734092999973],[6.827297210999973,6.160500526000021],[6.826861382000004,6.1666016579999905],[6.829475880000018,6.1731381420000275],[6.83209085499999,6.178367615000013],[6.835141181999973,6.18228959999999]]]},"properties":{"fid":72,"cty_nm":"Nigeria","iso3cd":"NGA","adm1nm":"Anambra","adm2nm":"Onitsha North","adm1cd":"NGA004","adm2cd":"NGA004017"}},{"type":"Feature","id":73,"geometry":{"type":"Polygon","coordinates":[[[6.786333083999978,6.123458384999992],[6.787640571999987,6.126945019000004],[6.787640571999987,6.136096478000013],[6.787640571999987,6.142632961000004],[6.78371858600002,6.149605751000024],[6.781103610999992,6.151784897000027],[6.768030167000006,6.152656078000007],[6.7647838589999765,6.155804633999992],[6.760651112000005,6.147799969000005],[6.757986069000026,6.135294913999985],[6.756189345999985,6.125429153000027],[6.7558040619999815,6.123312472999999],[6.764108180999983,6.1217155460000185],[6.7723879810000085,6.124330043999976],[6.778924942000003,6.123894215000007],[6.786333083999978,6.123458384999992]]]},"properties":{"fid":73,"cty_nm":"Nigeria","iso3cd":"NGA","adm1nm":"Anambra","adm2nm":"Onitsha South","adm1cd":"NGA004","adm2cd":"NGA004018"}},{"type":"Feature","id":74,"geometry":{"type":"Polygon","coordinates":[[[7.273106574999986,6.05721902800002],[7.268748759999994,6.0607051850000175],[7.263083457999983,6.0707283020000204],[7.259596825000017,6.087724208999987],[7.254803181,6.104719638999995],[7.249721050000005,6.106487750999975],[7.248377800000014,6.10872602500001],[7.239712714999996,6.114240170000016],[7.229471683999975,6.127632140999992],[7.2239575390000255,6.142599582999992],[7.221594333999974,6.157567024000002],[7.224745273999986,6.1788363460000255],[7.2239575390000255,6.1914401050000265],[7.218442917000004,6.196166991999974],[7.208990097000026,6.202468871999997],[7.20426368699998,6.208770752000021],[7.203475952000019,6.218224049000014],[7.199536799999976,6.234766960000002],[7.189296246000026,6.239493369999991],[7.172753333999992,6.233979224999985],[7.156998158000022,6.230040072999998],[7.150997639000025,6.232611656000017],[7.151740073999974,6.226304054000025],[7.152611732000025,6.199285507000013],[7.15086841599998,6.185340404999977],[7.1443314549999855,6.174881458000016],[7.139755725999976,6.159628868000027],[7.137141228000019,6.157014370000013],[7.1310400959999924,6.15352773699999],[7.124938965000013,6.149169921999999],[7.120145320999995,6.143940449000013],[7.116659163999998,6.138710976000027],[7.114480018999984,6.1330456730000265],[7.108815192999998,6.128252029000009],[7.099227905000021,6.1217155460000185],[7.089204788000018,6.114742755999998],[7.080924510999978,6.11256408700001],[7.076130867000018,6.109949111999981],[7.066979408000009,6.099054336999984],[7.056956291000006,6.086852550999993],[7.053470134999998,6.077265263000015],[7.05172681800002,6.072471618999998],[7.050419807000026,6.066370486999972],[7.055213450999986,6.063755989000015],[7.060878276999972,6.063755989000015],[7.074388026999998,6.06201267199998],[7.077874183999995,6.059834002999992],[7.089204788000018,6.05721902800002],[7.100970744999984,6.05721902800002],[7.1101222039999925,6.052861214000018],[7.11491584800001,6.044145583999978],[7.119273663000001,6.035429954999984],[7.126682281000001,6.025842667000006],[7.130604267000024,6.017562388999977],[7.132783413000027,6.009282589000009],[7.134090424000021,6.00013113],[7.139319897000007,5.991415501000006],[7.146545887000002,5.9887876509999955],[7.146728515999996,5.990979670999991],[7.150650500999973,5.99402999900002],[7.158058643000004,5.9983878140000115],[7.167645930999981,6.0053606029999855],[7.16895341899999,6.008846759999983],[7.165903091000018,6.011897087000023],[7.15544414499999,6.012768745000017],[7.150650500999973,6.017126560000008],[7.14760017399999,6.0206131940000205],[7.152829170000018,6.028021335999995],[7.162852287000021,6.033686638000006],[7.17810487700001,6.045453071999987],[7.188999652999996,6.048067570000001],[7.209045887000002,6.04937505700002],[7.217325687000027,6.048503399000026],[7.223426818999997,6.051989554999977],[7.235628604999988,6.051989554999977],[7.2443447109999966,6.04937505700002],[7.253496170000005,6.051989554999977],[7.264390468999977,6.0541687009999805],[7.273106574999986,6.05721902800002]]]},"properties":{"fid":74,"cty_nm":"Nigeria","iso3cd":"NGA","adm1nm":"Anambra","adm2nm":"Orumba North","adm1cd":"NGA004","adm2cd":"NGA004019"}},{"type":"Feature","id":75,"geometry":{"type":"Polygon","coordinates":[[[7.339062690999981,6.042149543999983],[7.328451157000018,6.042402267],[7.310148239,6.045017241999972],[7.301868438999975,6.045017241999972],[7.289230347,6.048939227999995],[7.273106574999986,6.05721902800002],[7.264390468999977,6.0541687009999805],[7.253496170000005,6.051989554999977],[7.2443447109999966,6.04937505700002],[7.235628604999988,6.051989554999977],[7.223426818999997,6.051989554999977],[7.217325687000027,6.048503399000026],[7.209045887000002,6.04937505700002],[7.188999652999996,6.048067570000001],[7.17810487700001,6.045453071999987],[7.162852287000021,6.033686638000006],[7.152829170000018,6.028021335999995],[7.14760017399999,6.0206131940000205],[7.150650500999973,6.017126560000008],[7.15544414499999,6.012768745000017],[7.165903091000018,6.011897087000023],[7.16895341899999,6.008846759999983],[7.167645930999981,6.0053606029999855],[7.158058643000004,5.9983878140000115],[7.150650500999973,5.99402999900002],[7.146728515999996,5.990979670999991],[7.146545887000002,5.9887876509999955],[7.146292685999981,5.985750198000005],[7.150214672000004,5.978341579000016],[7.152829170000018,5.973112105999974],[7.153264998999987,5.963088989000028],[7.153700829000002,5.953937531000008],[7.15544414499999,5.946529387999988],[7.164595603999999,5.938685416999988],[7.17026090600001,5.934327126000028],[7.175490378999996,5.9321484569999825],[7.190742969999974,5.923868656000025],[7.202844620000008,5.920961857000009],[7.206037997999999,5.924097060999998],[7.207779408000022,5.925806998999974],[7.209517478999999,5.927230357999974],[7.212119578999989,5.928934573999982],[7.215004443999987,5.930349826999986],[7.217018127000017,5.9309101100000134],[7.220468998000001,5.931747437000013],[7.223056793000012,5.932303905000026],[7.226500034000026,5.932566642999973],[7.228797435999979,5.932837962999997],[7.232240676999993,5.933101177000026],[7.235960483999975,5.932501792999972],[7.237959862000025,5.931913853000026],[7.240536212999984,5.931609154],[7.245119572000021,5.93129062700001],[7.248566627999992,5.931840896999972],[7.251153945999988,5.932396889000017],[7.253458023000007,5.933242321000023],[7.256916522999973,5.934653759000014],[7.259231566999972,5.9363598819999766],[7.260983943999975,5.938930987999981],[7.256415844000003,5.950538634999987],[7.2545123099999955,5.96529102300002],[7.259271145000014,5.9776644710000255],[7.264029979999975,5.9914650919999985],[7.272595882000019,5.997651576999999],[7.283065796000017,5.998603344000003],[7.301625252000008,5.998127459999978],[7.318281651000007,5.998603344000003],[7.322564602,6.003838539000014],[7.3330345150000085,6.031440257999975],[7.338269233999995,6.036199092999993],[7.339062690999981,6.042149543999983]]]},"properties":{"fid":75,"cty_nm":"Nigeria","iso3cd":"NGA","adm1nm":"Anambra","adm2nm":"Orumba South","adm1cd":"NGA004","adm2cd":"NGA004020"}},{"type":"Feature","id":76,"geometry":{"type":"Polygon","coordinates":[[[6.965297699000018,6.317677974999981],[6.962608814000021,6.3178191179999885],[6.951278209999998,6.311718464000023],[6.939511776000018,6.300387859000011],[6.930360317000009,6.29297971699998],[6.909442902000023,6.2833919529999775],[6.905956268000011,6.2803416250000055],[6.897240639000017,6.275547980999988],[6.891139506999991,6.274240494000026],[6.883731365000017,6.268139839000014],[6.87763023399998,6.261167048999994],[6.867607116999977,6.249836445000028],[6.863685131000011,6.243299960999991],[6.858891486999994,6.235891342000002],[6.851047515999994,6.22979068799998],[6.845818043000008,6.22499704400002],[6.843856812000013,6.222382068999991],[6.842113494999978,6.211051463999979],[6.839498997000021,6.2053866389999826],[6.828168392000009,6.198413849000019],[6.822938919000023,6.194491862999996],[6.830347538000012,6.187519072999976],[6.835141181999973,6.18228959999999],[6.837755679999987,6.179675101999976],[6.839063167999996,6.175317286999984],[6.841242313000009,6.171395302000008],[6.844728470000007,6.167037010000001],[6.848214626000015,6.1666016579999905],[6.856494903999987,6.1666016579999905],[6.8639030460000185,6.1652941699999815],[6.87436199199999,6.164422511999987],[6.902252196999996,6.166165829000022],[6.908619403999978,6.1703300479999825],[6.909660815999985,6.174881458000016],[6.918812274999993,6.179675101999976],[6.934064864999982,6.191876888000024],[6.942344665999997,6.197978019999994],[6.944959164000011,6.199721335999982],[6.944959164000011,6.202771664000011],[6.9471383090000245,6.207129478000013],[6.951496124000016,6.2206387520000135],[6.952367783,6.22979068799998],[6.954414844999974,6.235164165000015],[6.952367783,6.244171618999985],[6.952367783,6.2537589070000195],[6.952803612000025,6.264217377000023],[6.954546451999988,6.276419639999972],[6.9562897679999764,6.289057254999989],[6.961955069999988,6.302567005000014],[6.964133738999976,6.314768791000006],[6.965297699000018,6.317677974999981]]]},"properties":{"fid":76,"cty_nm":"Nigeria","iso3cd":"NGA","adm1nm":"Anambra","adm2nm":"Oyi","adm1cd":"NGA004","adm2cd":"NGA004021"}}]}