{"type":"FeatureCollection","features":[{"type":"Feature","id":674,"geometry":{"type":"Polygon","coordinates":[[[6.1314563750000275,12.134790420999991],[6.112824439999997,12.130491257000017],[6.094312190999972,12.125590323999972],[6.058376312000007,12.123956679999992],[6.0153627400000005,12.130491257000017],[5.990861415999973,12.136480330999973],[5.970170974999974,12.144647598000006],[5.947302818000026,12.165882110999974],[5.939136028000007,12.181127548000006],[5.93314647699998,12.211073875000011],[5.932057380999993,12.230130196000005],[5.922801494999987,12.241020203000005],[5.914089680000018,12.262799262999977],[5.909733771999981,12.269877434000023],[5.903744698000025,12.288933754000027],[5.901022434000026,12.309079170000018],[5.895032882999999,12.331947327000023],[5.888499260000003,12.355360030999975],[5.885025024000015,12.355237961],[5.875976562000005,12.349915504000023],[5.855286121000006,12.343381882000017],[5.842218876000004,12.345560073999991],[5.80791664100002,12.342292785999973],[5.783415317999982,12.342837334000023],[5.759012222000024,12.34336757699998],[5.753468989999988,12.339570045000016],[5.7418408390000195,12.332352637999975],[5.7437953950000065,12.325511931999984],[5.738948344999983,12.308478354999977],[5.729150295000011,12.283284186999992],[5.725650787000006,12.274886131000017],[5.726082324999993,12.27100562999999],[5.724831103999975,12.260150909000004],[5.722454547999973,12.247475624000003],[5.724039077999976,12.235592842000017],[5.724831103999975,12.21737194100001],[5.720870494999986,12.199151992999987],[5.721662520999985,12.186476706999997],[5.721662520999985,12.170632361999992],[5.720870494999986,12.155581473999973],[5.724831103999975,12.133399962999988],[5.729584217000024,12.116763115000026],[5.737506390000021,12.104087830000026],[5.743844032000027,12.096166611000001],[5.752558231000023,12.094581603999984],[5.762064457000008,12.094581603999984],[5.769986629000016,12.092205047999983],[5.7779083249999985,12.090620994999995],[5.781869411000002,12.091413498000009],[5.79296016699999,12.089036942000007],[5.808012008999981,12.085867882000002],[5.816726207999977,12.076361656000017],[5.819894791000024,12.063686371000017],[5.823063849999983,12.051011086000017],[5.824647903000027,12.039128303999973],[5.82940101600002,12.027245521999987],[5.833362103000013,12.008232116999977],[5.833362103000013,11.99001216900001],[5.833362103000013,11.980505943000026],[5.833362103000013,11.970207214000027],[5.837323189000017,11.956739426000013],[5.8396997450000185,11.946440697000014],[5.842868805000023,11.935350417999985],[5.844452858000011,11.920298575999993],[5.845245361000025,11.908415794000007],[5.843660831000022,11.898117065000008],[5.843660831000022,11.881481171000019],[5.843660831000022,11.863260269000023],[5.843660831000022,11.85137748699998],[5.842868805000023,11.840286255000024],[5.844452858000011,11.831572532999985],[5.844452858000011,11.819689750999999],[5.843660831000022,11.809391022],[5.8396997450000185,11.802261353000006],[5.838907719000019,11.794339180000009],[5.836531162000028,11.783248900999979],[5.834946632000026,11.776910782000016],[5.837323189000017,11.762651442999982],[5.834946632000026,11.74759960199998],[5.831778048999979,11.738093375999995],[5.830193520000023,11.723834038000007],[5.827816962999975,11.711158752000017],[5.82940101600002,11.704029083000023],[5.830193520000023,11.697690964000003],[5.823855877000028,11.685015678000013],[5.819894791000024,11.673925399999973],[5.821377754000025,11.668539047000024],[5.825447558999997,11.67057418799999],[5.8424043659999825,11.67057418799999],[5.857326508000028,11.668539047000024],[5.874283314000024,11.666504859999975],[5.885814190000019,11.665147780999973],[5.893275260999985,11.666504859999975],[5.904127598000002,11.665825843999983],[5.919728279000026,11.661756516000025],[5.929902554000023,11.654294967999988],[5.940754889999994,11.647512436],[5.955677031999983,11.642086028999984],[5.965172768000002,11.638016701000026],[5.969920634999994,11.63259029400001],[5.982130051000013,11.627163886999995],[5.992643355999974,11.619025229999977],[6.000104426999997,11.611563682999986],[6.010278701999994,11.60681533799999],[6.021131039000011,11.603424071999996],[6.025878906000003,11.599354743999982],[6.0333399770000256,11.597998619000009],[6.040801047999992,11.593928337000023],[6.050975322999989,11.589180945999999],[6.055723189999981,11.587145804999977],[6.0625061989999836,11.586467743000014],[6.0720019340000135,11.58307647700002],[6.080141067999989,11.582397461000028],[6.087602139000012,11.580363273999978],[6.099811553999984,11.579684257999986],[6.1113419530000215,11.575614928999983],[6.128299235999975,11.573579788000018],[6.141186236999999,11.570866584999976],[6.150682448999987,11.572223662999988],[6.161534786000004,11.575614928999983],[6.170352459000014,11.587145804999977],[6.171030520999977,11.606137276000027],[6.175778865999973,11.614276886000027],[6.1812047959999745,11.62445068400001],[6.180526733000022,11.633947372000023],[6.1845960620000255,11.640729904000011],[6.18730926500001,11.651581764000014],[6.191379069999982,11.663112640000008],[6.1974835400000075,11.673965453999983],[6.201553344999979,11.684818268000015],[6.211727618999987,11.692956923999986],[6.224614620000011,11.702453612999989],[6.237502097999993,11.709236144999977],[6.245641232000025,11.714662551999993],[6.250389575999975,11.723480225000003],[6.258528709000018,11.735689163000018],[6.266667842999993,11.74654102300002],[6.270737648000022,11.755358695999973],[6.273450851000007,11.764176368999983],[6.276164054999981,11.772315978999984],[6.281014442000014,11.778489112999978],[6.267310619,11.785701752000023],[6.2505803110000215,11.789884567000001],[6.233850001999997,11.807451248000007],[6.2196292880000215,11.850949286999992],[6.210427761000005,11.881899834000023],[6.195370674000003,11.905323028999987],[6.1803135870000006,11.92456245400001],[6.162746905999995,11.934600830000022],[6.146016598000017,11.965551376000008],[6.133468628000003,12.001521110999988],[6.125940323000009,12.034145355000021],[6.131795882999995,12.05924034100002],[6.132632256000022,12.080153465000024],[6.133468628000003,12.101902961999997],[6.133468628000003,12.119469643000002],[6.133468628000003,12.129507064999984],[6.1314563750000275,12.134790420999991]]]},"properties":{"fid":674,"cty_nm":"Nigeria","iso3cd":"NGA","adm1nm":"Zamfara","adm2nm":"Anka","adm1cd":"NGA037","adm2cd":"NGA037001"}},{"type":"Feature","id":675,"geometry":{"type":"Polygon","coordinates":[[[6.0455021860000215,12.754116058000022],[6.042685509000023,12.750786780999988],[6.035686969999972,12.742388725000012],[6.020989895000014,12.736789703],[6.004193305999991,12.742388725000012],[5.987396717000024,12.754286766000007],[5.967101097000011,12.761284827999987],[5.951004505000014,12.762684821999983],[5.923010348999981,12.771082878000016],[5.895015716999978,12.787179947000027],[5.87821960399998,12.803976058999979],[5.853024483000013,12.81937313100002],[5.837627887999986,12.834070205999978],[5.813132762999999,12.839669227999991],[5.794236660000024,12.835469246000002],[5.771141528999976,12.830571174999989],[5.752245426000002,12.817273139999998],[5.736148834000005,12.800477027999989],[5.727750777999972,12.78927898400002],[5.714453219999996,12.771782874999985],[5.690658091999978,12.742388725000012],[5.686267375999989,12.729704857000002],[5.685353755999984,12.727065085999982],[5.686052322000023,12.724690436999992],[5.685975552000002,12.721446990999993],[5.685791492000021,12.713689804000012],[5.686459064000019,12.708795547000022],[5.694857597000009,12.687100410000028],[5.700456142000007,12.668204307999986],[5.701625347000004,12.664363861000027],[5.705355166999993,12.652107238999974],[5.712353705999988,12.636011123999992],[5.722151756000017,12.605916976999993],[5.728450297999984,12.59052085899998],[5.733349323000027,12.56042671199998],[5.7452468870000075,12.531032562000007],[5.752945423000028,12.505838394000023],[5.759943962000023,12.489741325000011],[5.766942501000017,12.483442307000018],[5.766942501000017,12.462447166000004],[5.764842987000009,12.425354958000014],[5.761343479000004,12.36726665499998],[5.759012222000024,12.34336757699998],[5.783415317999982,12.342837334000023],[5.80791664100002,12.342292785999973],[5.842218876000004,12.345560073999991],[5.855286121000006,12.343381882000017],[5.875976562000005,12.349915504000023],[5.885025024000015,12.355237961],[5.885025024000015,12.362894057999995],[5.874987125000018,12.392171860000019],[5.875823497999988,12.42897892000002],[5.879169463999972,12.450727463000021],[5.895063400000026,12.475823402000003],[5.915139674999978,12.483351706999997],[5.936888694999993,12.495062828000016],[5.950273036999988,12.500918388000002],[5.960310935999985,12.50259113300001],[5.971185683999977,12.513465881000002],[5.983733176999976,12.522667884999976],[5.994607925000025,12.550272941999992],[6.005482674000007,12.572021484000004],[6.030578135999974,12.594607353000015],[6.03977966299999,12.597953796000013],[6.059019566000018,12.624722480999992],[6.07073068599999,12.642289161999997],[6.069893836999995,12.658182144000023],[6.07407665300002,12.679931640999996],[6.080768584999987,12.68913364399998],[6.082964897000011,12.68957233399999],[6.080155373000025,12.693481444999975],[6.076058864999993,12.705315589999998],[6.075378418000014,12.708534240999995],[6.070625305000021,12.72200202900001],[6.053988934000017,12.742598534000024],[6.048539161999997,12.746614455999975],[6.0455021860000215,12.754116058000022]]]},"properties":{"fid":675,"cty_nm":"Nigeria","iso3cd":"NGA","adm1nm":"Zamfara","adm2nm":"Bakura","adm1cd":"NGA037","adm2cd":"NGA037002"}},{"type":"Feature","id":676,"geometry":{"type":"Polygon","coordinates":[[[7.1043243409999945,12.297334670999987],[7.103837489999989,12.300093650999997],[7.1032977099999925,12.303151130999993],[7.102447032999976,12.309444427000017],[7.101662636000015,12.315250397],[7.100743293999983,12.32205200200002],[7.100283145999981,12.325457572999994],[7.099230766000005,12.333247185000005],[7.098339558000021,12.336923598999988],[7.09438800800001,12.353222846999984],[7.093268871000021,12.357838630999993],[7.092723369999987,12.360089302000006],[7.089445114,12.368103027000018],[7.087827205999986,12.372057915000028],[7.085402488999989,12.377985001000013],[7.083239079000009,12.382311820999973],[7.0780820850000055,12.39262580899998],[7.075300217000006,12.397957802000008],[7.070996283999989,12.406207085000005],[7.068321228000002,12.411334038000007],[7.066891670000018,12.42324733700002],[7.065880774999982,12.431669235000015],[7.065208434999988,12.438171387000011],[7.0642533299999855,12.447405815000025],[7.063899040000024,12.450829505999991],[7.0634408000000235,12.455258368999978],[7.062567710999986,12.461150169000007],[7.061522007000008,12.46820926700002],[7.060515881000015,12.474998474000017],[7.060186863000013,12.477220535000015],[7.059929848000024,12.480822563000004],[7.059373855999979,12.48860836],[7.058836937000024,12.49121666000002],[7.0576529499999765,12.496967315999996],[7.056012153999973,12.504935264999972],[7.054828166999982,12.510685921000004],[7.05367994300002,12.516263961999982],[7.05367994300002,12.529278755000007],[7.052393913000003,12.534852027999989],[7.05123949099999,12.539853096000002],[7.051743031000001,12.545390128999998],[7.052052974999981,12.548800468000024],[7.052052974999981,12.553362846000027],[7.052052974999981,12.55774784099998],[7.050656318999984,12.568359375],[7.050019264000014,12.573202132999995],[7.051646232999985,12.587030411],[7.051230431000022,12.589386939999997],[7.047007083999972,12.587830543999985],[7.028950690999977,12.582969665999997],[7.006727694999995,12.582274437000024],[6.99561595900002,12.58019161300001],[6.969920634999994,12.579496383999981],[6.960197925999978,12.583663940000008],[6.946655749999991,12.582969665999997],[6.929988384000012,12.575329780999994],[6.9070711140000185,12.573941230999992],[6.893181324000011,12.573246955999991],[6.8779029849999915,12.571163177000017],[6.866791724999985,12.569079398999975],[6.858458041999995,12.557968140000014],[6.84734630600002,12.544773102000022],[6.835540294999987,12.523939132999999],[6.82304000900001,12.519772530000012],[6.813317299000005,12.523939132999999],[6.8049836160000154,12.537828445000002],[6.808455944000002,12.551023482999994],[6.818872929000008,12.558662415000015],[6.82442903499998,12.562134743000001],[6.8209567069999935,12.575329780999994],[6.814706326000021,12.579496383999981],[6.803594588999999,12.579496383999981],[6.791094303000023,12.577413558999979],[6.785538196999994,12.567690848999973],[6.767482281000014,12.564912795999987],[6.756370543999992,12.571857452000017],[6.747087479000015,12.578186989000017],[6.742134093999994,12.573941230999992],[6.721994400000028,12.564912795999987],[6.70046567899999,12.54893970500001],[6.687965393000013,12.531578063999973],[6.677547931999982,12.521161079000024],[6.672686576999979,12.504493712999988],[6.679631710000024,12.479493140999978],[6.685187340000027,12.46352005],[6.690048694999973,12.444074630999978],[6.691437721,12.429491042999985],[6.701159953999991,12.401712417999988],[6.710188388999995,12.38504505200001],[6.738661766000007,12.363515854000013],[6.76157903699999,12.34962654100002],[6.778941153999995,12.337126732000002],[6.785885811000014,12.334348679000016],[6.796302794999974,12.32393169400001],[6.80671977999998,12.31351375600002],[6.83102607699999,12.297541618000025],[6.845610141999998,12.291985511999997],[6.855332851000014,12.285040854999977],[6.858371257999977,12.283015250999995],[6.861583232999976,12.28087425199999],[6.901167869999995,12.285040854999977],[6.917140960999973,12.289901733000022],[6.951169967999988,12.293375014999981],[6.9754762649999975,12.296847343000024],[6.994921684000019,12.293375014999981],[7.020617007999988,12.291985511999997],[7.0393676759999835,12.291985511999997],[7.05811834299999,12.290596961999995],[7.075480460999984,12.294069289999982],[7.090064048999977,12.295457839999983],[7.104723454000009,12.29507255599998],[7.1043243409999945,12.297334670999987]]]},"properties":{"fid":676,"cty_nm":"Nigeria","iso3cd":"NGA","adm1nm":"Zamfara","adm2nm":"Birnin Magaji","adm1cd":"NGA037","adm2cd":"NGA037003"}},{"type":"Feature","id":677,"geometry":{"type":"Polygon","coordinates":[[[5.726082324999993,12.27100562999999],[5.710318565000023,12.267368316999978],[5.683008670999982,12.277058601000022],[5.673317908999991,12.288511276000008],[5.653055667999979,12.29203510299999],[5.631031512999982,12.288511276000008],[5.612531185000023,12.274415970000007],[5.584340096000005,12.272653579999997],[5.583301748999986,12.271615232999977],[5.576212095000017,12.272524163000014],[5.541054219999978,12.272524163000014],[5.523977537999997,12.261474544999999],[5.475761024000008,12.252433949000022],[5.437589617000015,12.253438458999995],[5.410204992999979,12.259104244000014],[5.405445274999977,12.23133922400001],[5.405990302000021,12.229704142999992],[5.404093266000018,12.229961394999975],[5.403199196000003,12.226086617000021],[5.400030613000013,12.21658039099998],[5.397654057000011,12.208658217999982],[5.397654057000011,12.196775435999996],[5.393692970000018,12.18093109099999],[5.388147831000026,12.169048309000004],[5.385771275000025,12.161126136999997],[5.386563301000024,12.151619911000012],[5.391316414000016,12.139737129000025],[5.391316414000016,12.133399962999988],[5.391316414000016,12.12547779099998],[5.388939857000025,12.116763115000026],[5.392108440000015,12.108841896000001],[5.392108440000015,12.096166611000001],[5.387355328000012,12.088244438000004],[5.383394241000019,12.077153205999991],[5.379433631999973,12.066855431000022],[5.378641129000016,12.053387642000018],[5.377057076000028,12.043881415999977],[5.3746805189999804,12.036751746999983],[5.367550372999972,12.028829574999975],[5.3588361739999755,12.017738341999973],[5.345368861999987,12.009024619999991],[5.332694054000001,12.007440567000003],[5.323187351000001,12.00664806399999],[5.314473152000005,12.005064011000002],[5.3120965960000035,11.997934341000018],[5.3120965960000035,11.979713440000012],[5.3120965960000035,11.969414711000013],[5.3097200390000125,11.955947875999982],[5.3097200390000125,11.945649146999983],[5.312889099000017,11.933766364999997],[5.3120965960000035,11.917922019999992],[5.315265656000008,11.905246734999992],[5.315265656000008,11.895740509000007],[5.312889099000017,11.886234283000022],[5.314473152000005,11.869598388999975],[5.315265656000008,11.849000930999978],[5.318434238000009,11.829195975999994],[5.316057682000007,11.812560081000015],[5.307343483000011,11.793546676999995],[5.3046903609999845,11.784260749999987],[5.306853771000021,11.783473969],[5.308387756000002,11.77580356599998],[5.31068897199998,11.770433426000011],[5.318359375,11.76659870100002],[5.322194576000015,11.761996269000008],[5.330632209999976,11.746655464000014],[5.330632209999976,11.738985061999983],[5.341371058999982,11.729013442999985],[5.345973015000027,11.720576285999982],[5.345973015000027,11.712138175999996],[5.352876663000018,11.704467772999976],[5.362848282000016,11.709836960000018],[5.372370242999978,11.70575618700002],[5.372819901000014,11.708303451999996],[5.377422333000027,11.708303451999996],[5.388927937000005,11.707535743999983],[5.398899555000014,11.704467772999976],[5.408103943000015,11.70293426500001],[5.424211979000006,11.70293426500001],[5.431115149999982,11.704467772999976],[5.443387985000015,11.70293426500001],[5.450291633999996,11.697564124999985],[5.454893588999994,11.680689812000026],[5.457962036000026,11.672251700999993],[5.461813450000022,11.66599273700001],[5.4696593279999774,11.668608665000022],[5.476371287999996,11.668608665000022],[5.486917973000004,11.668608665000022],[5.502258777999998,11.669567108000024],[5.511847019000015,11.668608665000022],[5.52431154300001,11.662856101999978],[5.541570186999991,11.665732384000023],[5.545405388000006,11.672443390000012],[5.554993152999998,11.675319672],[5.556910991999985,11.682031630999973],[5.5597872729999835,11.685867309999992],[5.565540313999975,11.682991028000004],[5.574169636000022,11.678196906999972],[5.582798958000012,11.675319672],[5.590469359999986,11.670526504999998],[5.593345641999974,11.669567108000024],[5.60485124600001,11.668608665000022],[5.611563206000028,11.66764926899998],[5.617315769000015,11.66764926899998],[5.6393685340000275,11.662856101999978],[5.646080016999974,11.662856101999978],[5.65854453999998,11.668608665000022],[5.671967983000002,11.659978867000007],[5.679638386000022,11.66381454499998],[5.6921029090000275,11.66764926899998],[5.698814391999974,11.672443390000012],[5.705526351999993,11.676279067999985],[5.71127891499998,11.682031630999973],[5.718949318,11.684907913000018],[5.724702358000002,11.684907913000018],[5.724702358000002,11.69161987299998],[5.7304549219999785,11.694496155000024],[5.737166881999997,11.68874359099999],[5.7448372840000275,11.681073189000017],[5.757301806999976,11.682031630999973],[5.757301806999976,11.687784195000006],[5.765931129000023,11.693537712000023],[5.782230853999977,11.676279067999985],[5.807159900999977,11.658061981000003],[5.819306849999975,11.64938545199999],[5.821377754000025,11.668539047000024],[5.819894791000024,11.673925399999973],[5.823855877000028,11.685015678000013],[5.830193520000023,11.697690964000003],[5.82940101600002,11.704029083000023],[5.827816962999975,11.711158752000017],[5.830193520000023,11.723834038000007],[5.831778048999979,11.738093375999995],[5.834946632000026,11.74759960199998],[5.837323189000017,11.762651442999982],[5.834946632000026,11.776910782000016],[5.836531162000028,11.783248900999979],[5.838907719000019,11.794339180000009],[5.8396997450000185,11.802261353000006],[5.843660831000022,11.809391022],[5.844452858000011,11.819689750999999],[5.844452858000011,11.831572532999985],[5.842868805000023,11.840286255000024],[5.843660831000022,11.85137748699998],[5.843660831000022,11.863260269000023],[5.843660831000022,11.881481171000019],[5.843660831000022,11.898117065000008],[5.845245361000025,11.908415794000007],[5.844452858000011,11.920298575999993],[5.842868805000023,11.935350417999985],[5.8396997450000185,11.946440697000014],[5.837323189000017,11.956739426000013],[5.833362103000013,11.970207214000027],[5.833362103000013,11.980505943000026],[5.833362103000013,11.99001216900001],[5.833362103000013,12.008232116999977],[5.82940101600002,12.027245521999987],[5.824647903000027,12.039128303999973],[5.823063849999983,12.051011086000017],[5.819894791000024,12.063686371000017],[5.816726207999977,12.076361656000017],[5.808012008999981,12.085867882000002],[5.79296016699999,12.089036942000007],[5.781869411000002,12.091413498000009],[5.7779083249999985,12.090620994999995],[5.769986629000016,12.092205047999983],[5.762064457000008,12.094581603999984],[5.752558231000023,12.094581603999984],[5.743844032000027,12.096166611000001],[5.737506390000021,12.104087830000026],[5.729584217000024,12.116763115000026],[5.724831103999975,12.133399962999988],[5.720870494999986,12.155581473999973],[5.721662520999985,12.170632361999992],[5.721662520999985,12.186476706999997],[5.720870494999986,12.199151992999987],[5.724831103999975,12.21737194100001],[5.724039077999976,12.235592842000017],[5.722454547999973,12.247475624000003],[5.724831103999975,12.260150909000004],[5.726082324999993,12.27100562999999]]]},"properties":{"fid":677,"cty_nm":"Nigeria","iso3cd":"NGA","adm1nm":"Zamfara","adm2nm":"Bukkuyum","adm1cd":"NGA037","adm2cd":"NGA037004"}},{"type":"Feature","id":678,"geometry":{"type":"Polygon","coordinates":[[[6.853506564999975,12.281934738000018],[6.836582184000008,12.285040854999977],[6.810886859999982,12.293375014999981],[6.795608044000005,12.302402496000013],[6.7768573760000095,12.307958602999975],[6.76157903699999,12.319764136999993],[6.740745068000024,12.32323646499998],[6.713660716999982,12.321153641000024],[6.688659668000014,12.31698703799998],[6.674770355000021,12.310041427999977],[6.652546883000014,12.314208984000004],[6.642129898000007,12.332264899999984],[6.6344909669999765,12.343376159999991],[6.629629611999974,12.350320816000021],[6.627546310000014,12.360043526000027],[6.624073982000027,12.368377685999974],[6.619906902000025,12.373932837999973],[6.613656520999996,12.380878447999976],[6.602545260999989,12.388517379999996],[6.591433525000014,12.396156311000027],[6.583099842000024,12.406573295999976],[6.570599555999991,12.426018714999998],[6.559487820000015,12.444074630999978],[6.546292782000023,12.451714515999981],[6.523375510999983,12.458659172000011],[6.502541065000003,12.465603827999985],[6.485179424000023,12.468380927999988],[6.465734005000002,12.462825774999999],[6.4608731270000135,12.461436272000014],[6.457478999999978,12.458810805999974],[6.452578544999994,12.450098991000004],[6.443866730000025,12.427775382999982],[6.435699462999992,12.416886330000011],[6.427532672999973,12.402729987999976],[6.415009499000007,12.390206336999995],[6.41063404099998,12.38495635999999],[6.414192677000017,12.382584571999985],[6.420182227999987,12.368427277000023],[6.427260398999977,12.350460052000017],[6.438694477000013,12.33467006699999],[6.4441390040000215,12.324324607999984],[6.439239025000006,12.315069198999993],[6.4359717369999885,12.304723739999986],[6.4316163060000235,12.293833732999985],[6.43052720999998,12.285667418999992],[6.428349018000006,12.276411057000018],[6.425626754999996,12.268788337999979],[6.422904490999997,12.261165618999996],[6.418548584000007,12.239386559000025],[6.413648129000023,12.226863861000027],[6.396224975999985,12.21651840200002],[6.376623630999973,12.209984779000024],[6.367367743999978,12.202362060999974],[6.356478213999992,12.191472053999973],[6.348855495000009,12.181127548000006],[6.341232777000016,12.169148445000019],[6.338510513000017,12.15662574800001],[6.3379659650000235,12.127223969],[6.3379659650000235,12.114701271000001],[6.345588684000006,12.091288566999992],[6.358655929999998,12.066786766000007],[6.367367743999978,12.04936313600001],[6.375535011000011,12.027584075999982],[6.382068634000007,12.004715918999977],[6.37989091899999,11.988382338999998],[6.383702277999987,11.965514182999982],[6.379618644999994,11.927945136999995],[6.379618644999994,11.909432411000012],[6.373629092999977,11.894731521999972],[6.364373207000028,11.880575179999994],[6.356750487999989,11.862063407999983],[6.3502168659999825,11.848996161999992],[6.346949576999975,11.82503890999999],[6.340960503000019,11.813604354999995],[6.330615519999981,11.805981636000013],[6.316821575000006,11.805451392999998],[6.310410976000014,11.807984352000005],[6.29990386999998,11.798090935000005],[6.292442799000014,11.792664527999989],[6.283625126000004,11.781811714000014],[6.285423756,11.777668952999989],[6.293046473999993,11.762968063000017],[6.299580096999989,11.75425624799999],[6.319181442000001,11.739555359000008],[6.332793235999986,11.733566284000005],[6.346949576999975,11.722677230999977],[6.366006373999994,11.714509964000001],[6.3894190789999925,11.698175429999992],[6.413376330999995,11.682385445000023],[6.417731762000017,11.67421817799999],[6.434066296000026,11.666595459000007],[6.441774844999998,11.662099838000017],[6.4480252270000165,11.672516823000024],[6.4556641579999905,11.683628081999984],[6.4556641579999905,11.694409370000017],[6.459638595999991,11.698383331000002],[6.463843822000001,11.717733382999995],[6.467817782999987,11.720435142999975],[6.467817782999987,11.727379799000005],[6.469901085000004,11.740574836999997],[6.474762440000006,11.755159377999973],[6.481012820999979,11.764882087999979],[6.495249270999977,11.780159949999984],[6.501499652999996,11.795438766000018],[6.509138584000027,11.806550026000025],[6.518861293999976,11.817661284999986],[6.524416923999979,11.836412429999996],[6.529973030000008,11.872524261000024],[6.539695262999999,11.882942200000002],[6.549417973000004,11.889191627999992],[6.555668353999977,11.897525787000006],[6.5563626289999775,11.919054030999973],[6.554973602000018,11.937805175999983],[6.549417973000004,11.953083037999988],[6.544556618000001,11.974612235999984],[6.55219602599999,11.988501548999977],[6.5619187359999955,12.001002312000026],[6.569557667000026,12.010725020999985],[6.570946692999996,12.035725593999985],[6.571640967999997,12.066282272000024],[6.570252418999985,12.085033416999977],[6.575113296999973,12.098228455000026],[6.584141730999988,12.112117766999972],[6.580669403000002,12.13086795800001],[6.582058430000018,12.145452498999987],[6.589003085999991,12.175313949999975],[6.602198123999983,12.207954406999988],[6.622337818000005,12.218371391000005],[6.648727416999975,12.219760894999979],[6.663311480999994,12.21559333800002],[6.673728466,12.202398300000027],[6.6792840960000035,12.18573188800002],[6.688312531000008,12.170453071999987],[6.695951461999982,12.151701926999976],[6.704979896999987,12.132951735999995],[6.723035811999978,12.112117766999972],[6.729286193999997,12.100311278999982],[6.740397929999972,12.085033416999977],[6.754287243000022,12.068366050999998],[6.769565581999984,12.06211566899998],[6.789011001999995,12.049614905999988],[6.807761669000001,12.043364525000015],[6.826512336999997,12.046142578000001],[6.841095924000001,12.057253838000008],[6.850124359000006,12.073921203999987],[6.85776328999998,12.097533225999996],[6.859152316999996,12.114894866999975],[6.859152316999996,12.132257461999984],[6.857069016000025,12.149619101999974],[6.857069016000025,12.158646583999996],[6.857069016000025,12.18434238399999],[6.85776328999998,12.196843146999981],[6.857069016000025,12.216982841000004],[6.852901936000023,12.22809410100001],[6.852901936000023,12.240594864000002],[6.856374741000025,12.253789901999994],[6.857069016000025,12.275318146000018],[6.853506564999975,12.281934738000018]]]},"properties":{"fid":678,"cty_nm":"Nigeria","iso3cd":"NGA","adm1nm":"Zamfara","adm2nm":"Bungudu","adm1cd":"NGA037","adm2cd":"NGA037005"}},{"type":"Feature","id":679,"geometry":{"type":"Polygon","coordinates":[[[5.161890571000015,12.284578291000003],[5.161960602000022,12.283562659999973],[5.162033778000023,12.282847172999993],[5.147286022999992,12.281564758999991],[5.1181552119999765,12.27855122699998],[5.068934187000025,12.277546716000018],[5.047839462000013,12.284578291000003],[5.024735716000009,12.290605356000015],[4.997613926999975,12.30065046300001],[4.981541756000013,12.30065046300001],[4.9725011589999895,12.292614377000007],[4.956428988000027,12.270515140999976],[4.951128590999986,12.249313554000025],[4.950401924000005,12.24640688400001],[4.950401924000005,12.23133922400001],[4.952410944999997,12.218280585000002],[4.954419966999978,12.19718585999999],[4.9564488660000166,12.17216276900001],[4.95743349899999,12.160018963000027],[4.95743349899999,12.136915217000023],[4.956428988000027,12.107784406999997],[4.956428988000027,12.071622020999996],[4.956428988000027,12.029432570999973],[4.952410944999997,11.99126116399998],[4.9473883919999935,11.936013075000005],[4.948392902000023,11.896837157999983],[4.944374858999993,11.880764985999974],[4.944374858999993,11.86268379400002],[4.9403568170000085,11.834557494000023],[4.929307198999993,11.779309404999992],[4.929307198999993,11.741137998],[4.942946378999977,11.732523779000019],[4.943274020999979,11.733615874999998],[4.958614825999973,11.73514938400001],[4.969353676000026,11.736683846000005],[4.9770240779999995,11.741286278000018],[4.992364882999993,11.741286278000018],[5.003870486999972,11.738985061999983],[5.010774136000009,11.73514938400001],[5.022279738999998,11.720576285999982],[5.0245809560000225,11.717507361999992],[5.032251357999996,11.713672637999991],[5.036853790000009,11.714439391999974],[5.045290947000012,11.711371422000013],[5.047659873999976,11.710095405999994],[5.05526256600001,11.706002235000028],[5.061398983000004,11.709070205999978],[5.066768646000014,11.715206146000014],[5.075205803000017,11.72364425699999],[5.086711406999996,11.725945473000024],[5.09975147199998,11.728246689000002],[5.117393493999998,11.719808578000027],[5.138870715999985,11.722109794999994],[5.1488423349999834,11.733615874999998],[5.164183139999977,11.738985061999983],[5.171086788000025,11.741286278000018],[5.175689219999981,11.749723433999975],[5.174921988999984,11.758161545000007],[5.169552802999988,11.764297484999986],[5.163416385999994,11.772734641999989],[5.165717601999972,11.778871535999997],[5.172620773000006,11.783473969],[5.182592392000004,11.781172751999975],[5.193331241999999,11.77580356599998],[5.204836844999988,11.770433426000011],[5.209438800999976,11.760461807000013],[5.221711636000009,11.754325866999977],[5.226314068000022,11.757393836999995],[5.229382037999983,11.761229515000025],[5.234751700999993,11.769666672000028],[5.260064124999985,11.770433426000011],[5.280007361999992,11.770433426000011],[5.287677765000012,11.773502350000001],[5.2915129660000275,11.781172751999975],[5.298416615000008,11.786541939000017],[5.3046903609999845,11.784260749999987],[5.307343483000011,11.793546676999995],[5.316057682000007,11.812560081000015],[5.318434238000009,11.829195975999994],[5.315265656000008,11.849000930999978],[5.314473152000005,11.869598388999975],[5.312889099000017,11.886234283000022],[5.315265656000008,11.895740509000007],[5.315265656000008,11.905246734999992],[5.3120965960000035,11.917922019999992],[5.312889099000017,11.933766364999997],[5.3097200390000125,11.945649146999983],[5.3097200390000125,11.955947875999982],[5.3120965960000035,11.969414711000013],[5.3120965960000035,11.979713440000012],[5.3120965960000035,11.997934341000018],[5.314473152000005,12.005064011000002],[5.323187351000001,12.00664806399999],[5.332694054000001,12.007440567000003],[5.345368861999987,12.009024619999991],[5.3588361739999755,12.017738341999973],[5.367550372999972,12.028829574999975],[5.3746805189999804,12.036751746999983],[5.377057076000028,12.043881415999977],[5.378641129000016,12.053387642000018],[5.379433631999973,12.066855431000022],[5.383394241000019,12.077153205999991],[5.387355328000012,12.088244438000004],[5.392108440000015,12.096166611000001],[5.392108440000015,12.108841896000001],[5.388939857000025,12.116763115000026],[5.391316414000016,12.12547779099998],[5.391316414000016,12.133399962999988],[5.391316414000016,12.139737129000025],[5.386563301000024,12.151619911000012],[5.385771275000025,12.161126136999997],[5.388147831000026,12.169048309000004],[5.393692970000018,12.18093109099999],[5.397654057000011,12.196775435999996],[5.397654057000011,12.208658217999982],[5.400030613000013,12.21658039099998],[5.403199196000003,12.226086617000021],[5.404093266000018,12.229961394999975],[5.405990302000021,12.229704142999992],[5.405445274999977,12.23133922400001],[5.410204992999979,12.259104244000014],[5.408458806999988,12.259465524000007],[5.3823415279999836,12.262479056000018],[5.350197186000003,12.266497098999992],[5.327093439999999,12.272524163000014],[5.29294007499999,12.27855122699998],[5.272849860999997,12.281564758999991],[5.271245808000003,12.281628920999992],[5.247737094000001,12.28256927000001],[5.2186062829999855,12.285582802000022],[5.185457429999985,12.284578291000003],[5.161890571000015,12.284578291000003]]]},"properties":{"fid":679,"cty_nm":"Nigeria","iso3cd":"NGA","adm1nm":"Zamfara","adm2nm":"Gummi","adm1cd":"NGA037","adm2cd":"NGA037006"}},{"type":"Feature","id":680,"geometry":{"type":"Polygon","coordinates":[[[7.104723454000009,12.29507255599998],[7.090064048999977,12.295457839999983],[7.075480460999984,12.294069289999982],[7.05811834299999,12.290596961999995],[7.0393676759999835,12.291985511999997],[7.020617007999988,12.291985511999997],[6.994921684000019,12.293375014999981],[6.9754762649999975,12.296847343000024],[6.951169967999988,12.293375014999981],[6.917140960999973,12.289901733000022],[6.901167869999995,12.285040854999977],[6.861583232999976,12.28087425199999],[6.858371257999977,12.283015250999995],[6.853506564999975,12.281934738000018],[6.857069016000025,12.275318146000018],[6.856374741000025,12.253789901999994],[6.852901936000023,12.240594864000002],[6.852901936000023,12.22809410100001],[6.857069016000025,12.216982841000004],[6.85776328999998,12.196843146999981],[6.857069016000025,12.18434238399999],[6.857069016000025,12.158646583999996],[6.857069016000025,12.149619101999974],[6.859152316999996,12.132257461999984],[6.859152316999996,12.114894866999975],[6.85776328999998,12.097533225999996],[6.850124359000006,12.073921203999987],[6.841095924000001,12.057253838000008],[6.826512336999997,12.046142578000001],[6.807761669000001,12.043364525000015],[6.789011001999995,12.049614905999988],[6.769565581999984,12.06211566899998],[6.754287243000022,12.068366050999998],[6.740397929999972,12.085033416999977],[6.729286193999997,12.100311278999982],[6.723035811999978,12.112117766999972],[6.704979896999987,12.132951735999995],[6.695951461999982,12.151701926999976],[6.688312531000008,12.170453071999987],[6.6792840960000035,12.18573188800002],[6.673728466,12.202398300000027],[6.663311480999994,12.21559333800002],[6.648727416999975,12.219760894999979],[6.622337818000005,12.218371391000005],[6.602198123999983,12.207954406999988],[6.589003085999991,12.175313949999975],[6.582058430000018,12.145452498999987],[6.580669403000002,12.13086795800001],[6.584141730999988,12.112117766999972],[6.575113296999973,12.098228455000026],[6.570252418999985,12.085033416999977],[6.571640967999997,12.066282272000024],[6.570946692999996,12.035725593999985],[6.569557667000026,12.010725020999985],[6.5619187359999955,12.001002312000026],[6.55219602599999,11.988501548999977],[6.544556618000001,11.974612235999984],[6.549417973000004,11.953083037999988],[6.554973602000018,11.937805175999983],[6.5563626289999775,11.919054030999973],[6.555668353999977,11.897525787000006],[6.549417973000004,11.889191627999992],[6.539695262999999,11.882942200000002],[6.529973030000008,11.872524261000024],[6.524416923999979,11.836412429999996],[6.518861293999976,11.817661284999986],[6.509138584000027,11.806550026000025],[6.501499652999996,11.795438766000018],[6.495249270999977,11.780159949999984],[6.481012820999979,11.764882087999979],[6.474762440000006,11.755159377999973],[6.469901085000004,11.740574836999997],[6.467817782999987,11.727379799000005],[6.467817782999987,11.720435142999975],[6.463843822000001,11.717733382999995],[6.459638595999991,11.698383331000002],[6.4556641579999905,11.694409370000017],[6.4556641579999905,11.683628081999984],[6.4480252270000165,11.672516823000024],[6.441774844999998,11.662099838000017],[6.436913489999995,11.650293350000027],[6.423718929000017,11.630154609999977],[6.410523891000025,11.619042396999987],[6.404429435999987,11.612010001999977],[6.40149545700001,11.60862541199998],[6.387606144000017,11.59681987800002],[6.372327804999998,11.582929610999997],[6.366077422999979,11.569735526999978],[6.366772174999994,11.556540488999985],[6.376494407999985,11.548206328999981],[6.39455079999999,11.543345450999993],[6.416079520999972,11.538483620000022],[6.454275607999989,11.533622741999977],[6.488998890000005,11.521121978999986],[6.500804900999981,11.51070499399998],[6.539000987999998,11.498899460000018],[6.550112723999973,11.494731903000002],[6.572335720000012,11.485009192999996],[6.583446980000019,11.47598171200002],[6.5931696889999785,11.457230568],[6.603586673999985,11.446813582999994],[6.608448028999987,11.440563202000021],[6.618865013000004,11.428062438999973],[6.635532378999983,11.421117783],[6.6521997450000185,11.41556263000001],[6.661922455000024,11.400283812999987],[6.665394783000011,11.385700225999983],[6.665394783000011,11.37181091299999],[6.666089535000026,11.357226372000014],[6.704979896999987,11.288474082999983],[6.724424838999994,11.259305954000013],[6.741092204999973,11.244028091000018],[6.7455334659999835,11.243258475999994],[6.749602794999987,11.248005867000018],[6.752994537000006,11.254110335999997],[6.7543511389999935,11.262928009000007],[6.759637832999999,11.267685889999996],[6.761133670999982,11.269032477999986],[6.773342608999997,11.275815009999974],[6.783516883999994,11.28124141699999],[6.789621352999973,11.288024902000018],[6.799117565000017,11.294807434000006],[6.80861329999999,11.300233841000022],[6.816164969999988,11.309980392],[6.823485373999972,11.309166908000009],[6.828365802999997,11.307539940000026],[6.8389401439999915,11.318114281000021],[6.847887516000014,11.325435637999988],[6.851141453000025,11.33194255799998],[6.855208397000013,11.33682250999999],[6.864155768999979,11.340076447000001],[6.869036198000003,11.351464271999987],[6.874730109999973,11.364479065000012],[6.882863998000005,11.374239922000015],[6.88545227100002,11.377198218999979],[6.888557911000021,11.380746841000018],[6.888219357000025,11.383961677999991],[6.887447356999985,11.391299247999996],[6.886931419000007,11.396202087000006],[6.886117935000016,11.417349815000023],[6.886460304000025,11.423166275000028],[6.886931419000007,11.431178093000028],[6.891481876,11.441417693999995],[6.893438338999999,11.445819855000025],[6.900759219999998,11.45883369400002],[6.902107715999989,11.46220493300001],[6.907266617000005,11.475102424999989],[6.903199196000003,11.486490249999974],[6.895878792000019,11.505198479],[6.900621414,11.514683723000019],[6.902236937999987,11.517914771999983],[6.903199196000003,11.519839287000025],[6.904760838000016,11.523586272999978],[6.907266617000005,11.529600142999982],[6.90663766900002,11.534001349999983],[6.906153678999999,11.537390709000022],[6.905639647999976,11.540987968000024],[6.904489039999987,11.549617766999972],[6.904012679999994,11.55318927799999],[6.902339457999972,11.554482459999974],[6.886117935000016,11.567017555000007],[6.876124382,11.574422835999997],[6.867409228999975,11.577591896000001],[6.8627734180000175,11.582584381000004],[6.85683488799998,11.588979720999987],[6.854380607999985,11.595219611999994],[6.850471497000001,11.587791443000015],[6.840054511999995,11.574596405000023],[6.833109856000021,11.564179420000016],[6.828942776000019,11.554456711],[6.824776172999975,11.546123505000025],[6.810886859999982,11.541955948000009],[6.792135714999972,11.541955948000009],[6.775468348999993,11.550290108000013],[6.758106709000003,11.568346023999993],[6.740745068000024,11.574596405000023],[6.713660716999982,11.594041823999987],[6.701159953999991,11.60723686199998],[6.691437721,11.630848884999978],[6.684492588000012,11.648210526000014],[6.683798313000011,11.681545258000028],[6.689353943000015,11.721824646000016],[6.689353943000015,11.742658614999982],[6.691437721,11.762104034000004],[6.696993351000003,11.782938004000016],[6.699771403999989,11.817661284999986],[6.706021308999993,11.841967582999985],[6.710882663999996,11.86280250499999],[6.715049743999998,11.880858421000028],[6.7192163469999855,11.893359184000019],[6.727550029999975,11.934332847999997],[6.741439341999978,11.951694488999976],[6.7539401050000265,11.96558380099998],[6.769565581999984,11.981556892000015],[6.786927223000021,11.99197387700002],[6.8049836160000154,12.000307082999996],[6.825123309999981,12.011419295999985],[6.84873533199999,12.026002883999979],[6.87651443499999,12.039197922000028],[6.895959376999997,12.05169868500002],[6.917488097999978,12.06211566899998],[6.948739052000008,12.057949065999992],[6.961239814999999,12.05169868500002],[7.004991530999973,12.05169868500002],[7.031381607000014,12.049614905999988],[7.052909850999981,12.040586471999973],[7.082772255000009,12.031558990000008],[7.093189240000015,12.031558990000008],[7.102911948999974,12.032253265000008],[7.113035679000006,12.03984546700002],[7.106144427999993,12.045301436999978],[7.103155613000013,12.049087524000015],[7.100131988999976,12.05291748000002],[7.093943595999974,12.060755729999983],[7.09068965900002,12.064009666000004],[7.095570086999999,12.070516585999997],[7.099094868000009,12.074824332999981],[7.102890967999997,12.079463959000009],[7.106711863999976,12.082403182999997],[7.111342429999979,12.085965156999976],[7.1134653089999915,12.087597846999984],[7.115662097999973,12.091333388999999],[7.119086266000011,12.097154617000001],[7.121599197000023,12.101426124999989],[7.12369584999999,12.107033730000012],[7.126101016999996,12.113465308999992],[7.128158568999993,12.116551399000002],[7.136552333999987,12.129142761000026],[7.138508320000028,12.132076262999988],[7.141934395000021,12.137215614000013],[7.145618438999975,12.14716243700002],[7.150068760000011,12.159177779999993],[7.150643349000006,12.165113448999989],[7.150991916999999,12.168714523000006],[7.151186466000013,12.17072677599998],[7.152087687999995,12.180041313000004],[7.152508736000016,12.184393882999984],[7.151546955000015,12.188241958999981],[7.149255276000019,12.197408676000009],[7.147886753000023,12.202449799000021],[7.146933556000022,12.205962181000018],[7.144321441999978,12.215584755000009],[7.141527653000026,12.225877761999982],[7.137232304000008,12.234468460000016],[7.135386944000004,12.238159180000025],[7.133769512000015,12.241394043000014],[7.129436969999972,12.250059127999975],[7.128513336000026,12.251906394999992],[7.123377800000014,12.260709763000023],[7.117474555999991,12.27083015400001],[7.114380359999984,12.276134490999993],[7.111431599000014,12.281188965000013],[7.10817050899999,12.285847664000016],[7.105737685999998,12.289322852999987],[7.104723454000009,12.29507255599998]]]},"properties":{"fid":680,"cty_nm":"Nigeria","iso3cd":"NGA","adm1nm":"Zamfara","adm2nm":"Gusau","adm1cd":"NGA037","adm2cd":"NGA037007"}},{"type":"Feature","id":681,"geometry":{"type":"Polygon","coordinates":[[[6.747087479000015,12.578186989000017],[6.741092204999973,12.582274437000024],[6.723035811999978,12.591302872000028],[6.705674170999998,12.603109360000019],[6.6952571869999815,12.611442565999994],[6.692479133999996,12.621165276],[6.6910901069999795,12.635054588000003],[6.686923503999992,12.643387793999977],[6.6674780850000275,12.649638175999996],[6.65775585199998,12.651721953999981],[6.646644115000015,12.660055161000002],[6.625810145999992,12.666305541999975],[6.599420070999997,12.671167373999992],[6.586919308000006,12.678112030000023],[6.577891350000016,12.683667183000011],[6.559834957000021,12.678806305000023],[6.543862343000001,12.677417756000011],[6.532056332000025,12.684362410999995],[6.518167018999975,12.685750960999997],[6.490387917000021,12.694085121],[6.4725751880000075,12.692028999000001],[6.468859195999983,12.687139510999998],[6.464692592999995,12.677417755000022],[6.457053185000007,12.666999816999976],[6.450108527999987,12.652416228999982],[6.443511009000019,12.627415656999972],[6.442816734000019,12.619081497000025],[6.440733432999991,12.605886458999976],[6.437261105000005,12.594775200000015],[6.440733432999991,12.579496383999981],[6.437955379000016,12.564912795999987],[6.436566352999989,12.551023482999994],[6.4358720779999885,12.537134170999991],[6.442121982999993,12.525327682000011],[6.442816734000019,12.505187987999989],[6.455317019999995,12.487132072000009],[6.4608731270000135,12.461436272000014],[6.465734005000002,12.462825774999999],[6.485179424000023,12.468380927999988],[6.502541065000003,12.465603827999985],[6.523375510999983,12.458659172000011],[6.546292782000023,12.451714515999981],[6.559487820000015,12.444074630999978],[6.570599555999991,12.426018714999998],[6.583099842000024,12.406573295999976],[6.591433525000014,12.396156311000027],[6.602545260999989,12.388517379999996],[6.613656520999996,12.380878447999976],[6.619906902000025,12.373932837999973],[6.624073982000027,12.368377685999974],[6.627546310000014,12.360043526000027],[6.629629611999974,12.350320816000021],[6.6344909669999765,12.343376159999991],[6.642129898000007,12.332264899999984],[6.652546883000014,12.314208984000004],[6.674770355000021,12.310041427999977],[6.688659668000014,12.31698703799998],[6.713660716999982,12.321153641000024],[6.740745068000024,12.32323646499998],[6.76157903699999,12.319764136999993],[6.7768573760000095,12.307958602999975],[6.795608044000005,12.302402496000013],[6.810886859999982,12.293375014999981],[6.836582184000008,12.285040854999977],[6.853506564999975,12.281934738000018],[6.858371257999977,12.283015250999995],[6.855332851000014,12.285040854999977],[6.845610141999998,12.291985511999997],[6.83102607699999,12.297541618000025],[6.80671977999998,12.31351375600002],[6.796302794999974,12.32393169400001],[6.785885811000014,12.334348679000016],[6.778941153999995,12.337126732000002],[6.76157903699999,12.34962654100002],[6.738661766000007,12.363515854000013],[6.710188388999995,12.38504505200001],[6.701159953999991,12.401712417999988],[6.691437721,12.429491042999985],[6.690048694999973,12.444074630999978],[6.685187340000027,12.46352005],[6.679631710000024,12.479493140999978],[6.672686576999979,12.504493712999988],[6.677547931999982,12.521161079000024],[6.687965393000013,12.531578063999973],[6.70046567899999,12.54893970500001],[6.721994400000028,12.564912795999987],[6.742134093999994,12.573941230999992],[6.747087479000015,12.578186989000017]]]},"properties":{"fid":681,"cty_nm":"Nigeria","iso3cd":"NGA","adm1nm":"Zamfara","adm2nm":"Kaura-Namoda","adm1cd":"NGA037","adm2cd":"NGA037008"}},{"type":"Feature","id":682,"geometry":{"type":"Polygon","coordinates":[[[6.259166241000003,13.069703102000005],[6.255632876999982,13.044597625999984],[6.254254817999993,13.03150558499999],[6.245296955000015,13.028059959000018],[6.219802379999976,13.04253005999999],[6.201887607999993,13.058378220000009],[6.188795567,13.065958023000007],[6.166057109999997,13.068714141999976],[6.151587485999983,13.074914932000013],[6.131605148000006,13.072158812999987],[6.101976395000008,13.059756278999998],[6.072347641000022,13.039773941000021],[6.041340350999974,13.028059959000018],[6.027902602999973,13.021341323999991],[6.020317553999973,13.008504867999989],[6.024677752999992,12.992933273000006],[6.024677752999992,12.965998650000017],[6.015963553999995,12.927180290000024],[6.006457329,12.905791282999985],[6.006457329,12.893908500999999],[6.00962591199999,12.875687599000003],[6.017943859000013,12.836077690000025],[6.02586603200001,12.813104629999998],[6.032203674000016,12.786961555000005],[6.0455021860000215,12.754116058000022],[6.048539161999997,12.746614455999975],[6.053988934000017,12.742598534000024],[6.070625305000021,12.72200202900001],[6.075378418000014,12.708534240999995],[6.076058864999993,12.705315589999998],[6.080155373000025,12.693481444999975],[6.082964897000011,12.68957233399999],[6.092678546999991,12.676057816000025],[6.098123550000025,12.667890548999992],[6.104657173000021,12.648289680000005],[6.110101699999973,12.640122414000018],[6.118813514999999,12.629232407000018],[6.124802589000012,12.624876975999996],[6.131880760000001,12.614531516999989],[6.134058951999975,12.60581970200002],[6.136781215999974,12.599830627000017],[6.143859385999974,12.592207909000024],[6.152026653000007,12.583496093999997],[6.159104823999996,12.569339752000019],[6.1623716349999995,12.559539794999978],[6.15692710899998,12.547016143999997],[6.151482105000014,12.53884887700002],[6.147670746000017,12.531770705999975],[6.145493031000001,12.517614364999986],[6.144948483000007,12.503458023000007],[6.147126198000024,12.491479873999992],[6.152571201000001,12.482768059000023],[6.159104823999996,12.466433525000014],[6.172716617999981,12.451188086999991],[6.190140246999988,12.437576293999996],[6.203207492999979,12.430498123000007],[6.213008403999993,12.42559814499998],[6.221837997000023,12.430515289000027],[6.223897933999979,12.44029903400002],[6.227709292999975,12.44737720500001],[6.236420630999987,12.449554443000011],[6.24458789800002,12.446288109000022],[6.252210617000003,12.439209937999976],[6.266911506999975,12.433220862999974],[6.289235114999997,12.430498123000007],[6.30175828900002,12.425053595999998],[6.319725989999995,12.418519973999992],[6.335515976000011,12.403274536000026],[6.361106396000025,12.38911819499998],[6.370362281999974,12.382584571999985],[6.387785435000012,12.381495475999998],[6.394864082000026,12.383128166000006],[6.406842231999974,12.38040638000001],[6.41063404099998,12.38495635999999],[6.415009499000007,12.390206336999995],[6.427532672999973,12.402729987999976],[6.435699462999992,12.416886330000011],[6.443866730000025,12.427775382999982],[6.452578544999994,12.450098991000004],[6.457478999999978,12.458810805999974],[6.4608731270000135,12.461436272000014],[6.455317019999995,12.487132072000009],[6.442816734000019,12.505187987999989],[6.442121982999993,12.525327682000011],[6.4358720779999885,12.537134170999991],[6.436566352999989,12.551023482999994],[6.437955379000016,12.564912795999987],[6.440733432999991,12.579496383999981],[6.437261105000005,12.594775200000015],[6.440733432999991,12.605886458999976],[6.442816734000019,12.619081497000025],[6.443511009000019,12.627415656999972],[6.450108527999987,12.652416228999982],[6.457053185000007,12.666999816999976],[6.464692592999995,12.677417755000022],[6.468859195999983,12.687139510999998],[6.4725751880000075,12.692028999000001],[6.473026275999985,12.698251724999977],[6.474415302000011,12.707974433999993],[6.470942974000025,12.720474243000012],[6.457747935999976,12.729502678000017],[6.4438581470000145,12.733669281000005],[6.434135914000024,12.731586456000002],[6.421635150999975,12.731586456000002],[6.409134864999999,12.73644733399999],[6.395245552000006,12.738531113000022],[6.385522842,12.74339199100001],[6.379967212999986,12.754503250000027],[6.379272461000028,12.765615463000017],[6.379272461000028,12.774642943999993],[6.384828090999974,12.784365653999998],[6.40149545700001,12.794782639000005],[6.410523891000025,12.79756069199999],[6.420940875999975,12.801728249000007],[6.434830189000024,12.80450534800002],[6.447330952000016,12.809367179999981],[6.457053185000007,12.814922333000027],[6.463303565999979,12.826034546000017],[6.459136962999992,12.839229584000009],[6.454275607999989,12.850340844000016],[6.441080569999997,12.860063552999975],[6.424413204000018,12.868396759000007],[6.412607192999985,12.86423015600002],[6.399412154999993,12.867008209000005],[6.396634102000007,12.87534141499998],[6.398717879999992,12.887842178000028],[6.414690495000002,12.903120995999984],[6.423718929000017,12.911454201000026],[6.425107479000019,12.917010306999998],[6.425107479000019,12.926733017999993],[6.425107479000019,12.933677672999977],[6.423718929000017,12.944094657999983],[6.423718929000017,12.956595420999975],[6.420940875999975,12.962844849000021],[6.419551849000015,12.973261832999981],[6.423718929000017,12.983679771000027],[6.431121349000023,12.987185478000015],[6.435215473000028,12.992911338999988],[6.437119483999993,12.995414734000008],[6.442363262000015,12.997053145999985],[6.452010154999982,13.005321503000005],[6.462345599999992,13.014968871999997],[6.466479778000007,13.028749466000022],[6.457522391999987,13.041152000000011],[6.442303181,13.037981032999994],[6.4182467460000225,13.03150558499999],[6.396886348999999,13.032194138000023],[6.386550903,13.034261703000027],[6.350720882000019,13.03908538799999],[6.3224697109999966,13.045975684999974],[6.2997317310000085,13.051487923000025],[6.285950661000015,13.056310654000015],[6.2680354120000175,13.065268516999993],[6.259166241000003,13.069703102000005]]]},"properties":{"fid":682,"cty_nm":"Nigeria","iso3cd":"NGA","adm1nm":"Zamfara","adm2nm":"Maradun","adm1cd":"NGA037","adm2cd":"NGA037009"}},{"type":"Feature","id":683,"geometry":{"type":"Polygon","coordinates":[[[6.41063404099998,12.38495635999999],[6.406842231999974,12.38040638000001],[6.394864082000026,12.383128166000006],[6.387785435000012,12.381495475999998],[6.370362281999974,12.382584571999985],[6.361106396000025,12.38911819499998],[6.335515976000011,12.403274536000026],[6.319725989999995,12.418519973999992],[6.30175828900002,12.425053595999998],[6.289235114999997,12.430498123000007],[6.266911506999975,12.433220862999974],[6.252210617000003,12.439209937999976],[6.24458789800002,12.446288109000022],[6.236420630999987,12.449554443000011],[6.227709292999975,12.44737720500001],[6.223897933999979,12.44029903400002],[6.221837997000023,12.430515289000027],[6.229887008999981,12.422875404000024],[6.234242916000028,12.416341782000018],[6.238598824000007,12.407629966999991],[6.234787464000021,12.391839980999976],[6.2282533650000005,12.388573646999987],[6.215186119000009,12.377139091000004],[6.206474303999983,12.365705489999982],[6.1906847949999815,12.343381882000017],[6.186328887999991,12.331947327000023],[6.181972980000012,12.319969177000019],[6.180883884000025,12.306901932000017],[6.177072525000028,12.299279212999977],[6.174894810000012,12.288933754000027],[6.171083450000026,12.276411057000018],[6.167816639000023,12.260621071000003],[6.166727542999979,12.242652893000013],[6.15964937199999,12.222507477000022],[6.158560276000003,12.202362060999974],[6.15692710899998,12.18384933499999],[6.151482105000014,12.16533756299998],[6.145058631999973,12.152132988000005],[6.141681671000015,12.145192146],[6.134058951999975,12.135391234999986],[6.1314563750000275,12.134790420999991],[6.133468628000003,12.129507064999984],[6.133468628000003,12.119469643000002],[6.133468628000003,12.101902961999997],[6.132632256000022,12.080153465000024],[6.131795882999995,12.05924034100002],[6.125940323000009,12.034145355000021],[6.133468628000003,12.001521110999988],[6.146016598000017,11.965551376000008],[6.162746905999995,11.934600830000022],[6.1803135870000006,11.92456245400001],[6.195370674000003,11.905323028999987],[6.210427761000005,11.881899834000023],[6.2196292880000215,11.850949286999992],[6.233850001999997,11.807451248000007],[6.2505803110000215,11.789884567000001],[6.267310619,11.785701752000023],[6.281014442000014,11.778489112999978],[6.276164054999981,11.772315978999984],[6.273450851000007,11.764176368999983],[6.270737648000022,11.755358695999973],[6.266667842999993,11.74654102300002],[6.258528709000018,11.735689163000018],[6.250389575999975,11.723480225000003],[6.245641232000025,11.714662551999993],[6.237502097999993,11.709236144999977],[6.224614620000011,11.702453612999989],[6.211727618999987,11.692956923999986],[6.201553344999979,11.684818268000015],[6.1974835400000075,11.673965453999983],[6.191379069999982,11.663112640000008],[6.18730926500001,11.651581764000014],[6.1845960620000255,11.640729904000011],[6.180526733000022,11.633947372000023],[6.1812047959999745,11.62445068400001],[6.175778865999973,11.614276886000027],[6.171030520999977,11.606137276000027],[6.170352459000014,11.587145804999977],[6.161534786000004,11.575614928999983],[6.150682448999987,11.572223662999988],[6.141186236999999,11.570866584999976],[6.128299235999975,11.573579788000018],[6.1113419530000215,11.575614928999983],[6.099811553999984,11.579684257999986],[6.087602139000012,11.580363273999978],[6.080141067999989,11.582397461000028],[6.0720019340000135,11.58307647700002],[6.0625061989999836,11.586467743000014],[6.055723189999981,11.587145804999977],[6.050975322999989,11.589180945999999],[6.040801047999992,11.593928337000023],[6.0333399770000256,11.597998619000009],[6.025878906000003,11.599354743999982],[6.021131039000011,11.603424071999996],[6.010278701999994,11.60681533799999],[6.000104426999997,11.611563682999986],[5.992643355999974,11.619025229999977],[5.982130051000013,11.627163886999995],[5.969920634999994,11.63259029400001],[5.965172768000002,11.638016701000026],[5.955677031999983,11.642086028999984],[5.940754889999994,11.647512436],[5.929902554000023,11.654294967999988],[5.919728279000026,11.661756516000025],[5.904127598000002,11.665825843999983],[5.893275260999985,11.666504859999975],[5.885814190000019,11.665147780999973],[5.874283314000024,11.666504859999975],[5.857326508000028,11.668539047000024],[5.8424043659999825,11.67057418799999],[5.825447558999997,11.67057418799999],[5.821377754000025,11.668539047000024],[5.819306849999975,11.64938545199999],[5.83304738999999,11.648473739999986],[5.8560590739999725,11.640803337000023],[5.876193999999998,11.620668410999997],[5.884823321999988,11.599574088999987],[5.906875609999986,11.576562880999973],[5.921257973000024,11.553551674000005],[5.935639858000002,11.541087151],[5.956733703999987,11.519992828],[5.976868629000023,11.504652023000006],[6.001797676000024,11.491229056999998],[6.019056320000004,11.473011971000005],[6.034397124999998,11.446165085000018],[6.043985367000005,11.419318198999974],[6.049737929999992,11.393430710000018],[6.051655768999979,11.367543221000005],[6.046861648999993,11.333984375],[6.036314963999985,11.328231812000013],[6.031520843999999,11.323437690999981],[6.012344359999986,11.320561408999993],[5.989333153000018,11.321519851999994],[5.979744911000012,11.327273369000011],[5.962486743999989,11.330149651],[5.950022220999983,11.330149651],[5.937557696999988,11.330149651],[5.9318046569999865,11.320561408999993],[5.938516617000005,11.310014724999974],[5.949063301000024,11.304261208000014],[5.956733703999987,11.29467391999998],[5.960568905000002,11.287961960000018],[5.962486743999989,11.277415276],[5.969198226999993,11.259197234999988],[5.964404106000018,11.246732711999982],[5.953857421999999,11.233309745999975],[5.944269179999992,11.212216377000004],[5.948104381999997,11.200710297],[5.951939583000012,11.151811599999974],[5.954816341000026,11.13071727800002],[5.960175036999999,11.11785697900001],[5.962037086000009,11.120291710000004],[5.9740848540000115,11.136355400000014],[5.985329627999988,11.144387245000019],[5.993361472999993,11.145994185999996],[6.0005903239999725,11.143584250999993],[6.006212233999975,11.141978263999988],[6.0158505439999885,11.13796234099999],[6.021472931000005,11.125914573999978],[6.026292323999996,11.113866805999976],[6.026292323999996,11.101015091000022],[6.031111239999973,11.084148406999986],[6.032717704999982,11.075313568000013],[6.0399460790000035,11.066478728999982],[6.0463719370000035,11.054430962000026],[6.052797317999989,11.043186187999993],[6.064845085000002,11.031941414000016],[6.076089858999978,11.025515556000016],[6.0945630069999766,11.012664794999978],[6.106610774999979,11.007845879000001],[6.114642619999984,11.001420021000001],[6.119462012999975,10.995798111],[6.131509780999977,10.978930472999991],[6.134722232999991,10.971702575999984],[6.140344620000008,10.96367073099998],[6.145967007000024,10.95724487299998],[6.148376465000013,10.950016022],[6.149982928999975,10.939575194999975],[6.15239238700002,10.929936408999993],[6.159621238999989,10.925920485999995],[6.161227703000009,10.917085648000011],[6.160424232000025,10.909053802000017],[6.160424232000025,10.902627945000006],[6.163637160999997,10.890580177000004],[6.1644401550000225,10.881745337999973],[6.1644401550000225,10.872910499999989],[6.162834167000028,10.868894576999992],[6.1613006590000055,10.866134643999999],[6.167300223999973,10.866134643999999],[6.174082756000018,10.86816978500002],[6.1815438269999845,10.872239112999978],[6.189004898000007,10.871561050000025],[6.191718101999982,10.868847846999984],[6.1964659689999735,10.86816978500002],[6.201214314000026,10.863421440000025],[6.205962181000018,10.863421440000025],[6.207996845000025,10.868847846999984],[6.207996845000025,10.87359619099999],[6.211388111000019,10.879021645000023],[6.217492579999998,10.888518332999979],[6.221562386000016,10.89123153700001],[6.226310253000008,10.895300865000024],[6.224183558999982,10.902745246999984],[6.223597526999981,10.904796599999997],[6.223597526999981,10.910901070000023],[6.228345393999973,10.919040680000023],[6.229701996000017,10.927858352999976],[6.229701996000017,10.933962822000012],[6.233093262000011,10.940745354],[6.233771323999974,10.945493698000007],[6.237163066999983,10.946171761000016],[6.245302200000026,10.948206901999981],[6.249372004999998,10.951598166999986],[6.251406669999994,10.95566749599999],[6.256833076000021,10.960415839999996],[6.263615608000009,10.965842247000012],[6.271755218999999,10.963129044000027],[6.277181625000026,10.965842247000012],[6.282607555000027,10.977372168999977],[6.290747166000017,10.98686885799998],[6.296851634999996,10.995007514999998],[6.30092096300001,11.001791000000026],[6.309060574,11.009251595000023],[6.3144869800000265,11.011286735999988],[6.318026542999974,11.013941765000027],[6.322626114000002,11.017391205000024],[6.323304176000022,11.020782471000018],[6.323304176000022,11.025530815000025],[6.328052521000018,11.026208877999977],[6.333197594000012,11.021442412999988],[6.337548255999991,11.021460532999981],[6.339848517999997,11.022035598999992],[6.345687388999977,11.023495674000003],[6.350523948999978,11.02107715599999],[6.357218266000018,11.019426345999989],[6.363869667000017,11.020033835999982],[6.369427203999976,11.026208877999977],[6.374853610999992,11.030956268000011],[6.382992743999978,11.033669471999985],[6.387741088999974,11.033669471999985],[6.392488956000022,11.033669471999985],[6.398593425999991,11.032313347000013],[6.401984691999985,11.030278205999991],[6.404697895000027,11.030278205999991],[6.411480903999973,11.030278205999991],[6.4175853730000085,11.024173737000012],[6.418263434999972,11.018747329999997],[6.419996261999984,11.01412677799999],[6.428437710000026,11.007895469999994],[6.433864116999985,11.003147124999998],[6.439290046999986,10.998398780999992],[6.442681789000005,10.999077796999984],[6.446751118000009,11.003825188000008],[6.452177525000025,11.002469062999978],[6.458281994000004,10.999077796999984],[6.463708401000019,11.001111983999976],[6.46642112699999,11.009251595000023],[6.467777728999977,11.016713142000015],[6.4718475340000055,11.021460532999981],[6.478630543000008,11.02213859599999],[6.486769675999994,11.020104408000009],[6.490576744000009,11.017249106999998],[6.49219608300001,11.016034126000022],[6.498978614999999,11.014678000999993],[6.507796288000009,11.01332092299998],[6.512356280999995,11.017004013000019],[6.516613959999972,11.020782471000018],[6.517292499999996,11.026208877999977],[6.5274662969999895,11.027565002000017],[6.534927368000012,11.027565002000017],[6.548492908000014,11.028243065000026],[6.557310581000024,11.025530815000025],[6.563415527000018,11.024851798999975],[6.575624466000022,11.023495674000003],[6.585120200999995,11.030278205999991],[6.591613769999981,11.037204741999972],[6.595294475999992,11.041131020000023],[6.606825351999987,11.047235489000002],[6.618053436000025,11.047745705000011],[6.621747493999976,11.047913551000022],[6.63802623700002,11.049948691999987],[6.645487308999975,11.048591613999974],[6.653626442000018,11.05469608300001],[6.65769624699999,11.05469608300001],[6.663122176999991,11.056731223999975],[6.663800716000026,11.061479567999982],[6.667870521999987,11.062157630999991],[6.670583248000014,11.060122490000026],[6.673296451999988,11.058087349000004],[6.676009654999973,11.057409285999995],[6.682114124000009,11.062835693000011],[6.689575194999975,11.068262100000027],[6.691609858999982,11.073009490999993],[6.690253734999999,11.076401711000017],[6.688897133000012,11.080471038999974],[6.688218593999977,11.08521938299998],[6.68686199199999,11.090644836000024],[6.688897133000012,11.09471511800001],[6.694323063000013,11.09471511800001],[6.697036265999998,11.096749305999992],[6.702462673000014,11.09471511800001],[6.706532001000028,11.09539318100002],[6.711280346000024,11.102175713000008],[6.716028214000005,11.106245994999995],[6.716028214000005,11.110315323000009],[6.713993072999983,11.113706589000003],[6.707888603000015,11.114384651000023],[6.706532001000028,11.117097854999997],[6.706532001000028,11.121846199000004],[6.709988117000023,11.122801781000021],[6.712281227000005,11.123435974000017],[6.713993072999983,11.131341933999977],[6.718062878000012,11.136090278999973],[6.722132682999984,11.140837669000007],[6.729593754000007,11.143550872999981],[6.733663558999979,11.147620200999995],[6.735020161000023,11.153725624000003],[6.731628418000014,11.161186218000012],[6.733663558999979,11.165255547000015],[6.73908948899998,11.169325829000002],[6.74246358900001,11.174532890000023],[6.7397680280000145,11.179499625999995],[6.738411427000017,11.190352440000026],[6.734341620999999,11.195099830999993],[6.732985020000001,11.201883316000021],[6.73671579400002,11.209343909999973],[6.743498325000019,11.21680545800001],[6.744854927000006,11.22290992699999],[6.744854927000006,11.228336334000005],[6.746890068000027,11.233761786999992],[6.746890068000027,11.237832068999978],[6.7455334659999835,11.243258475999994],[6.741092204999973,11.244028091000018],[6.724424838999994,11.259305954000013],[6.704979896999987,11.288474082999983],[6.666089535000026,11.357226372000014],[6.665394783000011,11.37181091299999],[6.665394783000011,11.385700225999983],[6.661922455000024,11.400283812999987],[6.6521997450000185,11.41556263000001],[6.635532378999983,11.421117783],[6.618865013000004,11.428062438999973],[6.608448028999987,11.440563202000021],[6.603586673999985,11.446813582999994],[6.5931696889999785,11.457230568],[6.583446980000019,11.47598171200002],[6.572335720000012,11.485009192999996],[6.550112723999973,11.494731903000002],[6.539000987999998,11.498899460000018],[6.500804900999981,11.51070499399998],[6.488998890000005,11.521121978999986],[6.454275607999989,11.533622741999977],[6.416079520999972,11.538483620000022],[6.39455079999999,11.543345450999993],[6.376494407999985,11.548206328999981],[6.366772174999994,11.556540488999985],[6.366077422999979,11.569735526999978],[6.372327804999998,11.582929610999997],[6.387606144000017,11.59681987800002],[6.40149545700001,11.60862541199998],[6.404429435999987,11.612010001999977],[6.410523891000025,11.619042396999987],[6.423718929000017,11.630154609999977],[6.436913489999995,11.650293350000027],[6.441774844999998,11.662099838000017],[6.434066296000026,11.666595459000007],[6.417731762000017,11.67421817799999],[6.413376330999995,11.682385445000023],[6.3894190789999925,11.698175429999992],[6.366006373999994,11.714509964000001],[6.346949576999975,11.722677230999977],[6.332793235999986,11.733566284000005],[6.319181442000001,11.739555359000008],[6.299580096999989,11.75425624799999],[6.293046473999993,11.762968063000017],[6.285423756,11.777668952999989],[6.283625126000004,11.781811714000014],[6.292442799000014,11.792664527999989],[6.29990386999998,11.798090935000005],[6.310410976000014,11.807984352000005],[6.316821575000006,11.805451392999998],[6.330615519999981,11.805981636000013],[6.340960503000019,11.813604354999995],[6.346949576999975,11.82503890999999],[6.3502168659999825,11.848996161999992],[6.356750487999989,11.862063407999983],[6.364373207000028,11.880575179999994],[6.373629092999977,11.894731521999972],[6.379618644999994,11.909432411000012],[6.379618644999994,11.927945136999995],[6.383702277999987,11.965514182999982],[6.37989091899999,11.988382338999998],[6.382068634000007,12.004715918999977],[6.375535011000011,12.027584075999982],[6.367367743999978,12.04936313600001],[6.358655929999998,12.066786766000007],[6.345588684000006,12.091288566999992],[6.3379659650000235,12.114701271000001],[6.3379659650000235,12.127223969],[6.338510513000017,12.15662574800001],[6.341232777000016,12.169148445000019],[6.348855495000009,12.181127548000006],[6.356478213999992,12.191472053999973],[6.367367743999978,12.202362060999974],[6.376623630999973,12.209984779000024],[6.396224975999985,12.21651840200002],[6.413648129000023,12.226863861000027],[6.418548584000007,12.239386559000025],[6.422904490999997,12.261165618999996],[6.425626754999996,12.268788337999979],[6.428349018000006,12.276411057000018],[6.43052720999998,12.285667418999992],[6.4316163060000235,12.293833732999985],[6.4359717369999885,12.304723739999986],[6.439239025000006,12.315069198999993],[6.4441390040000215,12.324324607999984],[6.438694477000013,12.33467006699999],[6.427260398999977,12.350460052000017],[6.420182227999987,12.368427277000023],[6.414192677000017,12.382584571999985],[6.41063404099998,12.38495635999999]]]},"properties":{"fid":683,"cty_nm":"Nigeria","iso3cd":"NGA","adm1nm":"Zamfara","adm2nm":"Maru","adm1cd":"NGA037","adm2cd":"NGA037010"}},{"type":"Feature","id":684,"geometry":{"type":"Polygon","coordinates":[[[6.660693169000012,13.077429771000027],[6.654125690000001,13.077429771000027],[6.640039444000024,13.070196151999994],[6.6309022899999945,13.070196151999994],[6.62290716199999,13.066769599999986],[6.607297897000024,13.066769599999986],[6.593592166999997,13.070576668000001],[6.584836005999989,13.075145721000013],[6.570368766999991,13.075906754000016],[6.5532364850000135,13.075906754000016],[6.535343169999976,13.075906754000016],[6.518591404000006,13.080094336999991],[6.502601624000022,13.081617354999992],[6.492322445000013,13.085043907],[6.478997230999994,13.089612007000028],[6.470621585999993,13.095704078999972],[6.444923400999983,13.110171318000027],[6.431979178999995,13.116642952000007],[6.421319008000012,13.123496056000022],[6.40609073600001,13.125399589999972],[6.399618626000006,13.131490707000012],[6.394288539999991,13.138343811000027],[6.383628368000018,13.145196914999985],[6.371445655999992,13.149765015000014],[6.361927986000012,13.152430534000018],[6.355074882999986,13.153572082999972],[6.345937729000013,13.152811050000025],[6.328044415000022,13.156618117999983],[6.317446232000009,13.158230781999976],[6.314083099000015,13.15683937099999],[6.3078665730000125,13.157760619999976],[6.300252437999973,13.157760619999976],[6.289592266,13.158902167999997],[6.282739638999999,13.156237601999976],[6.270175934000008,13.156237601999976],[6.264845847999993,13.149384499000007],[6.261800289000007,13.13948631300002],[6.260277271000007,13.131490707000012],[6.260277271000007,13.121644973999992],[6.257699966000018,13.101099013999999],[6.261834145000023,13.090074539],[6.260759354000015,13.085417747000008],[6.259767055999987,13.081116676000022],[6.259166241000003,13.069703102000005],[6.2680354120000175,13.065268516999993],[6.285950661000015,13.056310654000015],[6.2997317310000085,13.051487923000025],[6.3224697109999966,13.045975684999974],[6.350720882000019,13.03908538799999],[6.386550903,13.034261703000027],[6.396886348999999,13.032194138000023],[6.4182467460000225,13.03150558499999],[6.442303181,13.037981032999994],[6.457522391999987,13.041152000000011],[6.466479778000007,13.028749466000022],[6.462345599999992,13.014968871999997],[6.452010154999982,13.005321503000005],[6.442363262000015,12.997053145999985],[6.437119483999993,12.995414734000008],[6.435215473000028,12.992911338999988],[6.431121349000023,12.987185478000015],[6.435215473000028,12.983774185000016],[6.439784050000014,12.973114013999975],[6.440926074999993,12.97044944800001],[6.443971633999979,12.962073325999995],[6.448540211000022,12.959408759999974],[6.451966762999973,12.95522022199998],[6.456915854999977,12.949129104999997],[6.465291499999978,12.946083068999997],[6.472906113000022,12.941514969000025],[6.485088824999991,12.941514969000025],[6.491560935999985,12.943037987000025],[6.50640869099999,12.940372466999975],[6.523921490000021,12.943418502999975],[6.535343169999976,12.94417953499999],[6.549809933000006,12.937326430999974],[6.555521010999996,12.933900832999996],[6.566561698999976,12.924763680000012],[6.571130276000019,12.921717644000012],[6.57645988500002,12.910296440000025],[6.58217096300001,12.905346870000017],[6.58750057200001,12.899255752999977],[6.595115184999997,12.895829201000026],[6.603490829000009,12.89697170300002],[6.607678412999974,12.894686698999976],[6.62709522199998,12.89544868500002],[6.6366128920000165,12.89697170300002],[6.646130561999996,12.901159285999995],[6.6548871989999725,12.90344333600001],[6.665927887000009,12.908392907000007],[6.678872108000007,12.916768074999993],[6.685724735000008,12.926285744999973],[6.691816329999995,12.93618488300001],[6.699049950000017,12.943799018999982],[6.701333999999974,12.949509621000004],[6.702857017999975,12.958646773999988],[6.702095509000003,12.96435737600001],[6.702095509000003,12.968544959999974],[6.702095509000003,12.974637031999976],[6.700191974999996,12.981108665000022],[6.700191974999996,12.98796176899998],[6.696765422999988,12.999382973000024],[6.694481372999974,13.004332541999986],[6.69311141999998,13.006615639000017],[6.690293311999994,13.011185646000001],[6.683821201000001,13.021464347999995],[6.681156158000022,13.029459953000014],[6.673161506999975,13.039358139],[6.666308403000016,13.050779342999988],[6.664024353000002,13.057632446000014],[6.658694266999987,13.066008567999972],[6.657552242000008,13.073241234000022],[6.660693169000012,13.077429771000027]]]},"properties":{"fid":684,"cty_nm":"Nigeria","iso3cd":"NGA","adm1nm":"Zamfara","adm2nm":"Shinkafi","adm1cd":"NGA037","adm2cd":"NGA037011"}},{"type":"Feature","id":685,"geometry":{"type":"Polygon","coordinates":[[[6.221837997000023,12.430515289000027],[6.213008403999993,12.42559814499998],[6.203207492999979,12.430498123000007],[6.190140246999988,12.437576293999996],[6.172716617999981,12.451188086999991],[6.159104823999996,12.466433525000014],[6.152571201000001,12.482768059000023],[6.147126198000024,12.491479873999992],[6.144948483000007,12.503458023000007],[6.145493031000001,12.517614364999986],[6.147670746000017,12.531770705999975],[6.151482105000014,12.53884887700002],[6.15692710899998,12.547016143999997],[6.1623716349999995,12.559539794999978],[6.159104823999996,12.569339752000019],[6.152026653000007,12.583496093999997],[6.143859385999974,12.592207909000024],[6.136781215999974,12.599830627000017],[6.134058951999975,12.60581970200002],[6.131880760000001,12.614531516999989],[6.124802589000012,12.624876975999996],[6.118813514999999,12.629232407000018],[6.110101699999973,12.640122414000018],[6.104657173000021,12.648289680000005],[6.098123550000025,12.667890548999992],[6.092678546999991,12.676057816000025],[6.082964897000011,12.68957233399999],[6.080768584999987,12.68913364399998],[6.07407665300002,12.679931640999996],[6.069893836999995,12.658182144000023],[6.07073068599999,12.642289161999997],[6.059019566000018,12.624722480999992],[6.03977966299999,12.597953796000013],[6.030578135999974,12.594607353000015],[6.005482674000007,12.572021484000004],[5.994607925000025,12.550272941999992],[5.983733176999976,12.522667884999976],[5.971185683999977,12.513465881000002],[5.960310935999985,12.50259113300001],[5.950273036999988,12.500918388000002],[5.936888694999993,12.495062828000016],[5.915139674999978,12.483351706999997],[5.895063400000026,12.475823402000003],[5.879169463999972,12.450727463000021],[5.875823497999988,12.42897892000002],[5.874987125000018,12.392171860000019],[5.885025024000015,12.362894057999995],[5.885025024000015,12.355237961],[5.888499260000003,12.355360030999975],[5.895032882999999,12.331947327000023],[5.901022434000026,12.309079170000018],[5.903744698000025,12.288933754000027],[5.909733771999981,12.269877434000023],[5.914089680000018,12.262799262999977],[5.922801494999987,12.241020203000005],[5.932057380999993,12.230130196000005],[5.93314647699998,12.211073875000011],[5.939136028000007,12.181127548000006],[5.947302818000026,12.165882110999974],[5.970170974999974,12.144647598000006],[5.990861415999973,12.136480330999973],[6.0153627400000005,12.130491257000017],[6.058376312000007,12.123956679999992],[6.094312190999972,12.125590323999972],[6.112824439999997,12.130491257000017],[6.1314563750000275,12.134790420999991],[6.134058951999975,12.135391234999986],[6.141681671000015,12.145192146],[6.145058631999973,12.152132988000005],[6.151482105000014,12.16533756299998],[6.15692710899998,12.18384933499999],[6.158560276000003,12.202362060999974],[6.15964937199999,12.222507477000022],[6.166727542999979,12.242652893000013],[6.167816639000023,12.260621071000003],[6.171083450000026,12.276411057000018],[6.174894810000012,12.288933754000027],[6.177072525000028,12.299279212999977],[6.180883884000025,12.306901932000017],[6.181972980000012,12.319969177000019],[6.186328887999991,12.331947327000023],[6.1906847949999815,12.343381882000017],[6.206474303999983,12.365705489999982],[6.215186119000009,12.377139091000004],[6.2282533650000005,12.388573646999987],[6.234787464000021,12.391839980999976],[6.238598824000007,12.407629966999991],[6.234242916000028,12.416341782000018],[6.229887008999981,12.422875404000024],[6.221837997000023,12.430515289000027]]]},"properties":{"fid":685,"cty_nm":"Nigeria","iso3cd":"NGA","adm1nm":"Zamfara","adm2nm":"Talata Mafara","adm1cd":"NGA037","adm2cd":"NGA037012"}},{"type":"Feature","id":686,"geometry":{"type":"Polygon","coordinates":[[[7.113035679000006,12.03984546700002],[7.102911948999974,12.032253265000008],[7.093189240000015,12.031558990000008],[7.082772255000009,12.031558990000008],[7.052909850999981,12.040586471999973],[7.031381607000014,12.049614905999988],[7.004991530999973,12.05169868500002],[6.961239814999999,12.05169868500002],[6.948739052000008,12.057949065999992],[6.917488097999978,12.06211566899998],[6.895959376999997,12.05169868500002],[6.87651443499999,12.039197922000028],[6.84873533199999,12.026002883999979],[6.825123309999981,12.011419295999985],[6.8049836160000154,12.000307082999996],[6.786927223000021,11.99197387700002],[6.769565581999984,11.981556892000015],[6.7539401050000265,11.96558380099998],[6.741439341999978,11.951694488999976],[6.727550029999975,11.934332847999997],[6.7192163469999855,11.893359184000019],[6.715049743999998,11.880858421000028],[6.710882663999996,11.86280250499999],[6.706021308999993,11.841967582999985],[6.699771403999989,11.817661284999986],[6.696993351000003,11.782938004000016],[6.691437721,11.762104034000004],[6.689353943000015,11.742658614999982],[6.689353943000015,11.721824646000016],[6.683798313000011,11.681545258000028],[6.684492588000012,11.648210526000014],[6.691437721,11.630848884999978],[6.701159953999991,11.60723686199998],[6.713660716999982,11.594041823999987],[6.740745068000024,11.574596405000023],[6.758106709000003,11.568346023999993],[6.775468348999993,11.550290108000013],[6.792135714999972,11.541955948000009],[6.810886859999982,11.541955948000009],[6.824776172999975,11.546123505000025],[6.828942776000019,11.554456711],[6.833109856000021,11.564179420000016],[6.840054511999995,11.574596405000023],[6.850471497000001,11.587791443000015],[6.854380607999985,11.595219611999994],[6.8535814289999735,11.606060981999974],[6.852428436000025,11.616435050999996],[6.851954460000002,11.620701789999998],[6.855208397000013,11.641850470999998],[6.865782738000007,11.662999152999987],[6.869036198000003,11.678454398999975],[6.871317386999976,11.683587074000002],[6.875543594000021,11.693095206999999],[6.876567363999982,11.695399284000018],[6.882050991000028,11.707736968999995],[6.888473510999972,11.724150657999985],[6.889371395000012,11.726445198000022],[6.889426707999974,11.728490829000009],[6.889583110999979,11.734282494000013],[6.88967704800001,11.737749099999974],[6.889949322000007,11.747831345000009],[6.890184879000003,11.756541251999977],[6.890184879000003,11.759495734999973],[6.890184879000003,11.763773918000027],[6.890184879000003,11.77112579300001],[6.890184879000003,11.779316902000005],[6.892148018,11.783979416000022],[6.895235061999983,11.791310309999972],[6.89669227600001,11.79477119400002],[6.9088931079999725,11.801279067999985],[6.919548034999991,11.80318164800002],[6.931668758000001,11.805345535000015],[6.939360141999998,11.808479309000006],[6.948636055000009,11.812257767000006],[6.953630447000023,11.814292908000027],[6.961071490999984,11.81509017899998],[6.966759681999974,11.815699576999975],[6.972177982000005,11.816280365000011],[6.976097106999987,11.815383911000026],[6.988573551000002,11.818634986999996],[6.996950626,11.819943427999988],[7.000390530000004,11.820481299999983],[7.002435207000019,11.820800781000003],[7.0088863369999785,11.819282531999988],[7.01626300800001,11.817546843999992],[7.01948261299998,11.812717437999993],[7.021888256000011,11.809108734000006],[7.026010036000002,11.808853149000015],[7.029487132999975,11.807271957000012],[7.033870219999983,11.806538581999973],[7.03757953600001,11.804514885000003],[7.046242237000001,11.801010131999988],[7.052335739,11.801223755000024],[7.054534434999994,11.800853728999982],[7.0626273159999755,11.804532051000024],[7.067096709999987,11.806394576999992],[7.069915771000012,11.807569504000014],[7.0723881719999895,11.808599472000026],[7.074828147999995,11.817546843999992],[7.078804493000007,11.82218551599999],[7.083092212999986,11.827188492000005],[7.084589481000023,11.828934668999977],[7.088434219000021,11.832394599999986],[7.092723369999987,11.836255074000007],[7.095269202999987,11.83840846999999],[7.100294589999976,11.842660904000013],[7.1032977099999925,11.845202445999973],[7.105405807000011,11.846326827999974],[7.115498543000001,11.851710319999995],[7.121176242999979,11.858017920999998],[7.122819423999999,11.859844208000027],[7.125672339999994,11.861745833999976],[7.130140304999998,11.86472415899999],[7.13303232200002,11.868394851999994],[7.1370639799999935,11.873513221999985],[7.139681816000007,11.876740455999993],[7.141120910999973,11.878552436999996],[7.142747879000012,11.886686325000028],[7.142747879000012,11.898074150000014],[7.1432008740000015,11.905321120999986],[7.143561363000003,11.911088942999982],[7.154949187999989,11.917595862999974],[7.1647100449999925,11.911902428000019],[7.171418189999997,11.910560608000026],[7.182542801000011,11.909471511999982],[7.190739155000017,11.907021523000026],[7.195137977999991,11.906621932999997],[7.199686526999983,11.906208037999988],[7.204289913000025,11.908410071999981],[7.20996904399999,11.911126136999997],[7.215149402999998,11.913603782999985],[7.218394756000009,11.915155411],[7.222451686999989,11.918019295000022],[7.232222557,11.924916267000015],[7.235048770999981,11.927378653999995],[7.241857052,11.933309554999994],[7.239543437999998,11.941184997999983],[7.236445903999993,11.944282531999988],[7.23466301000002,11.946064949000004],[7.232506752000006,11.946064949000004],[7.226529120999999,11.946064949000004],[7.2241444590000015,11.95035743699998],[7.222461699999997,11.953386307000017],[7.216767788000027,11.95826625799998],[7.213514327999974,11.966400146000012],[7.213514327999974,11.977787970999998],[7.209447383999986,11.985108376000028],[7.202923774999988,11.987481117000016],[7.200500010999974,11.988362311999992],[7.189925671000026,11.993243216999986],[7.178195476999974,11.998456001000022],[7.173856735000015,12.00038433100002],[7.168660640999974,12.002694130000009],[7.157708167999999,12.007561683999995],[7.153322220000007,12.009510993999982],[7.151047230000017,12.010837555000023],[7.143561363000003,12.015204429999983],[7.125666142,12.02984619099999],[7.113035679000006,12.03984546700002]]]},"properties":{"fid":686,"cty_nm":"Nigeria","iso3cd":"NGA","adm1nm":"Zamfara","adm2nm":"Tsafe","adm1cd":"NGA037","adm2cd":"NGA037013"}},{"type":"Feature","id":687,"geometry":{"type":"Polygon","coordinates":[[[6.928009999999972,12.98984999999999],[6.913479999999993,13.005710001000011],[6.909125114000005,13.012215038000022],[6.904769999999985,13.018719999999973],[6.900383486999999,13.023076742],[6.8959968199999935,13.027433409000025],[6.891610000000014,13.03179],[6.888869999999997,13.036440000000027],[6.883015095000019,13.043234916000017],[6.877159870000014,13.050029696000024],[6.871304325999972,13.056824339999991],[6.865448461000028,13.063618846999987],[6.859592276000001,13.070413218999988],[6.853735771000004,13.077207454000018],[6.847878944999991,13.084001553000007],[6.842021798000019,13.090795516000014],[6.836164329999974,13.097589341999992],[6.830306542000017,13.104383030999998],[6.824448431999997,13.11117658400002],[6.818589999999972,13.117970000000014],[6.814850182999976,13.124003389999984],[6.8111101829999825,13.130036723999979],[6.807369999999992,13.136070000000018],[6.8072135369999955,13.136299321000024],[6.802243644999976,13.143583439999986],[6.797116979000009,13.151096773000006],[6.791990221999981,13.158609667999997],[6.791989999000009,13.15861000000001],[6.791398624999999,13.16012225899999],[6.783568381999999,13.153952598999979],[6.775954247000016,13.14748096599999],[6.767959118000022,13.136059761000013],[6.751588345000016,13.126922606999983],[6.7420706749999795,13.117023468000014],[6.725699901999974,13.112074851999978],[6.7097101210000005,13.105602264000026],[6.697526932000017,13.09913062999999],[6.682679176000022,13.083901405000006],[6.669354439000017,13.081617354999992],[6.666089058000011,13.080586433000008],[6.662120818999995,13.079333304999977],[6.660693169000012,13.077429771000027],[6.657552242000008,13.073241234000022],[6.658694266999987,13.066008567999972],[6.664024353000002,13.057632446000014],[6.666308403000016,13.050779342999988],[6.673161506999975,13.039358139],[6.681156158000022,13.029459953000014],[6.683821201000001,13.021464347999995],[6.690293311999994,13.011185646000001],[6.69311141999998,13.006615639000017],[6.694481372999974,13.004332541999986],[6.696765422999988,12.999382973000024],[6.700191974999996,12.98796176899998],[6.700191974999996,12.981108665000022],[6.702095509000003,12.974637031999976],[6.702095509000003,12.968544959999974],[6.702095509000003,12.96435737600001],[6.702857017999975,12.958646773999988],[6.701333999999974,12.949509621000004],[6.699049950000017,12.943799018999982],[6.691816329999995,12.93618488300001],[6.685724735000008,12.926285744999973],[6.678872108000007,12.916768074999993],[6.665927887000009,12.908392907000007],[6.6548871989999725,12.90344333600001],[6.646130561999996,12.901159285999995],[6.6366128920000165,12.89697170300002],[6.62709522199998,12.89544868500002],[6.607678412999974,12.894686698999976],[6.603490829000009,12.89697170300002],[6.595115184999997,12.895829201000026],[6.58750057200001,12.899255752999977],[6.58217096300001,12.905346870000017],[6.57645988500002,12.910296440000025],[6.571130276000019,12.921717644000012],[6.566561698999976,12.924763680000012],[6.555521010999996,12.933900832999996],[6.549809933000006,12.937326430999974],[6.535343169999976,12.94417953499999],[6.523921490000021,12.943418502999975],[6.50640869099999,12.940372466999975],[6.491560935999985,12.943037987000025],[6.485088824999991,12.941514969000025],[6.472906113000022,12.941514969000025],[6.465291499999978,12.946083068999997],[6.456915854999977,12.949129104999997],[6.451966762999973,12.95522022199998],[6.448540211000022,12.959408759999974],[6.443971633999979,12.962073325999995],[6.440926074999993,12.97044944800001],[6.439784050000014,12.973114013999975],[6.435215473000028,12.983774185000016],[6.431121349000023,12.987185478000015],[6.423718929000017,12.983679771000027],[6.419551849000015,12.973261832999981],[6.420940875999975,12.962844849000021],[6.423718929000017,12.956595420999975],[6.423718929000017,12.944094657999983],[6.425107479000019,12.933677672999977],[6.425107479000019,12.926733017999993],[6.425107479000019,12.917010306999998],[6.423718929000017,12.911454201000026],[6.414690495000002,12.903120995999984],[6.398717879999992,12.887842178000028],[6.396634102000007,12.87534141499998],[6.399412154999993,12.867008209000005],[6.412607192999985,12.86423015600002],[6.424413204000018,12.868396759000007],[6.441080569999997,12.860063552999975],[6.454275607999989,12.850340844000016],[6.459136962999992,12.839229584000009],[6.463303565999979,12.826034546000017],[6.457053185000007,12.814922333000027],[6.447330952000016,12.809367179999981],[6.434830189000024,12.80450534800002],[6.420940875999975,12.801728249000007],[6.410523891000025,12.79756069199999],[6.40149545700001,12.794782639000005],[6.384828090999974,12.784365653999998],[6.379272461000028,12.774642943999993],[6.379272461000028,12.765615463000017],[6.379967212999986,12.754503250000027],[6.385522842,12.74339199100001],[6.395245552000006,12.738531113000022],[6.409134864999999,12.73644733399999],[6.421635150999975,12.731586456000002],[6.434135914000024,12.731586456000002],[6.4438581470000145,12.733669281000005],[6.457747935999976,12.729502678000017],[6.470942974000025,12.720474243000012],[6.474415302000011,12.707974433999993],[6.473026275999985,12.698251724999977],[6.4725751880000075,12.692028999000001],[6.490387917000021,12.694085121],[6.518167018999975,12.685750960999997],[6.532056332000025,12.684362410999995],[6.543862343000001,12.677417756000011],[6.559834957000021,12.678806305000023],[6.577891350000016,12.683667183000011],[6.586919308000006,12.678112030000023],[6.599420070999997,12.671167373999992],[6.625810145999992,12.666305541999975],[6.646644115000015,12.660055161000002],[6.65775585199998,12.651721953999981],[6.6674780850000275,12.649638175999996],[6.686923503999992,12.643387793999977],[6.6910901069999795,12.635054588000003],[6.692479133999996,12.621165276],[6.6952571869999815,12.611442565999994],[6.705674170999998,12.603109360000019],[6.723035811999978,12.591302872000028],[6.741092204999973,12.582274437000024],[6.747087479000015,12.578186989000017],[6.756370543999992,12.571857452000017],[6.767482281000014,12.564912795999987],[6.785538196999994,12.567690848999973],[6.791094303000023,12.577413558999979],[6.803594588999999,12.579496383999981],[6.814706326000021,12.579496383999981],[6.8209567069999935,12.575329780999994],[6.82442903499998,12.562134743000001],[6.818872929000008,12.558662415000015],[6.808455944000002,12.551023482999994],[6.8049836160000154,12.537828445000002],[6.813317299000005,12.523939132999999],[6.82304000900001,12.519772530000012],[6.835540294999987,12.523939132999999],[6.84734630600002,12.544773102000022],[6.858458041999995,12.557968140000014],[6.866791724999985,12.569079398999975],[6.8779029849999915,12.571163177000017],[6.893181324000011,12.573246955999991],[6.9070711140000185,12.573941230999992],[6.929988384000012,12.575329780999994],[6.946655749999991,12.582969665999997],[6.960197925999978,12.583663940000008],[6.969920634999994,12.579496383999981],[6.99561595900002,12.58019161300001],[7.006727694999995,12.582274437000024],[7.028950690999977,12.582969665999997],[7.047007083999972,12.587830543999985],[7.051230431000022,12.589386939999997],[7.049877166999977,12.597056388999988],[7.04920625699998,12.600858688000017],[7.048277854999981,12.606196404000002],[7.04766035099999,12.609745025999985],[7.046849251000026,12.614409447000014],[7.045952320000026,12.619566916999986],[7.046957492999979,12.634038925000027],[7.047209740000028,12.637671470999976],[7.047359466999978,12.639824867000016],[7.046776771999987,12.645497321999983],[7.046272755000018,12.650032996999983],[7.045952320000026,12.652916908000009],[7.045152664,12.656115532000001],[7.043740748999994,12.661763190999977],[7.042698859999973,12.665930747999994],[7.042586803000006,12.669636726000022],[7.042412280999997,12.675392150999983],[7.042272567999987,12.67999839800001],[7.042132853999988,12.684604646000025],[7.042027473000019,12.688086510000005],[7.041885375999982,12.692773819000024],[7.040604115000008,12.701102257000002],[7.039511681000022,12.708200454999997],[7.0388736720000225,12.712347984000019],[7.037488936999978,12.72134876299998],[7.037004948000003,12.724495887999979],[7.034697532999985,12.735043526000027],[7.033926010000016,12.738571166999975],[7.033329964000018,12.741296767999984],[7.032249927999999,12.746233940000025],[7.031311034999987,12.750525475000018],[7.031000136999978,12.753426552000008],[7.028871058999982,12.773301124999989],[7.02841186500001,12.787982940999996],[7.028261185000019,12.792810439999982],[7.028057574999991,12.799329757999999],[7.02818107600001,12.802049636999982],[7.028547286999981,12.810107231000018],[7.028871058999982,12.817224502999977],[7.023177147000013,12.831866263999984],[7.0237169270000095,12.836007117999998],[7.024695396000027,12.843507767000006],[7.025617123000018,12.85057449300001],[7.025973319999991,12.853690147000009],[7.026851177000026,12.861371995000013],[7.0271797180000135,12.86424636800001],[7.027736187000016,12.869115829000009],[7.028871058999982,12.879043578999983],[7.030583858,12.883522986999992],[7.0320172309999975,12.887271881000004],[7.034158230000003,12.892871856999989],[7.035118103000002,12.89991187999999],[7.036237717000006,12.908121108999978],[7.036598206000008,12.910766602000024],[7.037804603999973,12.91961193100002],[7.038596629999972,12.925420760999998],[7.039038657999981,12.928661346000013],[7.039413928999977,12.938045502000023],[7.0395979880000255,12.94264984099999],[7.039851665000015,12.94899654400001],[7.0378766059999975,12.958543776999988],[7.037085532999981,12.962367057999984],[7.035439490999977,12.97032165500002],[7.034971236999979,12.972585677999973],[7.0347528460000035,12.976080894000006],[7.034158230000003,12.985600470999998],[7.032051989000024,12.995428770999979],[7.0319050780000225,12.996089376999976],[7.031802368000001,12.996067804000006],[7.024554823000017,12.994545404999997],[7.01730736799999,12.993022802999974],[7.01006000000001,12.991499999999974],[7,12.990979999999979],[6.991093346000014,12.991052430000025],[6.9821866870000235,12.99112455400001],[6.9732800229999725,12.991196374000026],[6.964373353999974,12.991267887999982],[6.955466678999983,12.99133909599999],[6.946559999999977,12.99141000100002],[6.940324965000002,12.990010074999987],[6.934090000000026,12.988609999999994],[6.928009999999972,12.98984999999999]]]},"properties":{"fid":687,"cty_nm":"Nigeria","iso3cd":"NGA","adm1nm":"Zamfara","adm2nm":"Zurmi","adm1cd":"NGA037","adm2cd":"NGA037014"}}]}