{"type":"FeatureCollection","features":[{"type":"Feature","id":488,"geometry":{"type":"Polygon","coordinates":[[[8.504345893999982,9.001431464999996],[8.498586654999997,9.01130580900002],[8.494181632999982,9.023639678999984],[8.490657806000002,9.037734984999986],[8.48661613500002,9.04278659800002],[8.479083060999983,9.052202224999974],[8.476561546000028,9.055354118000025],[8.474369049000018,9.069972991999975],[8.473918915000013,9.072973251000008],[8.471419334000018,9.076597214000003],[8.466701508000028,9.083438872999977],[8.462333678999983,9.089772224],[8.456299781999974,9.098521232999985],[8.454324722000024,9.101393700000017],[8.446608543000025,9.112617493000016],[8.441974640000012,9.11647892000002],[8.436967849999974,9.120651244999976],[8.430751800999985,9.125831603999984],[8.424182891999976,9.133338928],[8.418417931000022,9.139926909999986],[8.41295528400002,9.145178794999993],[8.401764870000022,9.15593910199999],[8.395512580999991,9.161951064999982],[8.391781806999973,9.168169021999972],[8.387311935000014,9.175717354000028],[8.38149642899998,9.177421569999979],[8.357630729999983,9.177808761999984],[8.34698677099999,9.177808761999984],[8.33658409100002,9.177808761999984],[8.332963942999982,9.177808761999984],[8.32767772699998,9.181332587999975],[8.31886863699998,9.186618805000023],[8.312985420000018,9.189559937000013],[8.304773330999978,9.193666457999996],[8.301258087000008,9.19476318400001],[8.288684844999977,9.198684691999972],[8.279224396000018,9.19807148000001],[8.267772675000003,9.197190284999976],[8.251033783000025,9.19102382699998],[8.248138428000004,9.182249069000022],[8.255879402000005,9.178689957000017],[8.254117011999995,9.174284935000003],[8.252280235,9.166937828000016],[8.25147437999999,9.163713454999993],[8.243545531999985,9.155784606999987],[8.241189957000017,9.148718834000022],[8.239850998000009,9.144701957999985],[8.238259314999993,9.139926909999986],[8.231598854000026,9.134035110000013],[8.229938506999986,9.132566451999992],[8.223494529999982,9.12686538700001],[8.215354918999992,9.119665145999988],[8.206232070999988,9.110542296999995],[8.201066017000016,9.105376244000013],[8.186074256999973,9.09038448299998],[8.181878089999998,9.086188316000005],[8.175385474999985,9.080265044999976],[8.160416602999987,9.066604614000028],[8.163818359000004,9.06328296700002],[8.169984817999989,9.05271148700001],[8.178793907,9.04037761699999],[8.185842514,9.031567574000007],[8.18408012399999,9.019234657000027],[8.18408012399999,9.010424613999987],[8.185842514,8.992805481000005],[8.186722755000005,8.97782897899998],[8.189366340999982,8.969900130999974],[8.192890166999973,8.961090087999992],[8.199056625000026,8.952280997999992],[8.202580452000007,8.939947127999972],[8.206104278999987,8.933780669999976],[8.210509300000012,8.92232799499999],[8.219319343999985,8.913517952000007],[8.231652259999976,8.902946471999996],[8.241343497999992,8.888851165999995],[8.247509955999988,8.878279685999985],[8.250152587999992,8.857135772999982],[8.25130653399998,8.853444099],[8.265129089000027,8.859779358000026],[8.280105590999995,8.871232033000013],[8.303010941000025,8.887088775999985],[8.326797484999986,8.89325618700002],[8.335606574999986,8.89501762399999],[8.367321967999999,8.888851165999995],[8.405203819000008,8.888851165999995],[8.442204474999983,8.890612601999976],[8.468633651999994,8.889732360999972],[8.500348090999978,8.885327339000014],[8.530156136000016,8.884634017999986],[8.528538704000027,8.89325618700002],[8.524271010999996,8.905349731000001],[8.523253441000008,8.908232688999988],[8.520809174000021,8.920042991999992],[8.51934814499998,8.92710495],[8.517967224000017,8.933780669999976],[8.517654418999996,8.936203003000003],[8.515280723999979,8.95459937999999],[8.514698982000027,8.961095810000018],[8.509158134000018,8.984876632999999],[8.508348464999983,8.987790108000013],[8.504345893999982,9.001431464999996]]]},"properties":{"fid":488,"cty_nm":"Nigeria","iso3cd":"NGA","adm1nm":"Nassarawa","adm2nm":"Akwanga","adm1cd":"NGA026","adm2cd":"NGA026001"}},{"type":"Feature","id":489,"geometry":{"type":"Polygon","coordinates":[[[9.273346901000025,8.463871002000019],[9.263910294000027,8.459594727000024],[9.261898993999978,8.461435317999985],[9.254297255999973,8.45916652699998],[9.244682312000009,8.458740234000004],[9.233145713999988,8.458228110999983],[9.21584034,8.457459449999988],[9.211994171000015,8.457288742000003],[9.202290534999975,8.458788872000014],[9.18462943999998,8.465726851999989],[9.182617187000005,8.467567443999997],[9.177026748999992,8.463459015000012],[9.174925803999997,8.467226028000027],[9.158065796000017,8.456825256000002],[9.156231880000007,8.454813004000016],[9.152475357000014,8.452715873999978],[9.148897170999987,8.446765900000003],[9.145819663999987,8.443388938999988],[9.138598441999989,8.438313483999991],[9.136755943000026,8.435445786000002],[9.132393836999995,8.428657531999988],[9.12845897699998,8.430414199999973],[9.12753677400002,8.433738708000021],[9.124434470999972,8.434096335999982],[9.121526717999984,8.438224792000028],[9.118428230000006,8.438163756999984],[9.111243247999994,8.438022613999976],[9.101093291999973,8.438851356999976],[9.097158432000015,8.440607070999988],[9.09680271100001,8.448313713000005],[9.098458289999996,8.454178809999974],[9.100202560000014,8.458116530999973],[9.103188515,8.464233397999976],[9.102123259999985,8.469862938000006],[9.101412772999993,8.473614693000002],[9.095366478000017,8.477988243000027],[9.08830356599998,8.483602523999991],[9.083287239000015,8.486323357000003],[9.080109596,8.488046645999987],[9.075792313000022,8.485990523999988],[9.069934844999977,8.487661361999983],[9.066352843999994,8.492520332000026],[9.063793181999984,8.493480681999984],[9.059874535000006,8.496867179999981],[9.059518814,8.504572868000025],[9.059162140000012,8.512280464000014],[9.054130553999983,8.51607131999998],[9.049360275000026,8.519665717999999],[9.043380737000007,8.518355369999995],[9.040200233000007,8.514883994999991],[9.036776542999974,8.512515068000027],[9.032154083000023,8.513010979],[9.026385306999998,8.51275443999998],[9.019470215000013,8.509875297999997],[9.013636588999987,8.512063026000021],[9.010276793999992,8.515272141000025],[9.005145072999994,8.513740540000015],[8.997275351999974,8.517252922000011],[8.994738579,8.519574164999995],[8.99061870600002,8.521105766000005],[8.988257407999981,8.522885323000025],[8.985726356999976,8.518421172999979],[8.983579636000002,8.510323524],[8.981432915000028,8.502226829999984],[8.978106498999978,8.49525737800002],[8.976010323000025,8.484859466999978],[8.975092888000006,8.47333431200002],[8.976440430000025,8.464154242999996],[8.980103493000001,8.455019950999997],[8.983693123000023,8.449336051999978],[8.989573479,8.444848061000016],[8.993069649000006,8.443765639999981],[8.99779319800001,8.439255714000012],[9.001359939999986,8.434721947000014],[8.998080254000001,8.425452231999998],[9.002853393999999,8.418641089999994],[9.005286216999991,8.412935257000015],[9.007742882000002,8.406078338999976],[9.008576392999998,8.400403976000007],[9.008988380000005,8.396784781999997],[9.009392737999974,8.393236160000015],[9.00951194800001,8.386543274000019],[9.009737968000024,8.373896598999977],[9.009882926999978,8.365772246999995],[9.010179520000008,8.363595963000023],[9.011896132999993,8.351009368999996],[9.01282596599998,8.344192505000024],[9.013074874999973,8.335975646999998],[9.013316153999995,8.328008651999994],[9.013003348999973,8.323318481000001],[9.01282596599998,8.320652008000025],[9.011196136000024,8.316227912999977],[9.009392737999974,8.311333655999988],[9.007671356000003,8.30987739599999],[9.003016472000013,8.305938721000018],[9.000985146000005,8.303230285999973],[8.998602866999988,8.300053595999998],[8.99418926200002,8.29367828400001],[8.98832988700002,8.289283752000017],[8.986341476000007,8.287792206000006],[8.98160743699998,8.28533840199998],[8.973099708999996,8.280926704000024],[8.964762688000008,8.280926704000024],[8.959122658000013,8.281416893000028],[8.961658478000004,8.270812035000006],[8.961519241000019,8.26713180500002],[8.960839271999987,8.260328292999986],[8.959953308000024,8.255546569999979],[8.952501297000026,8.252481461000002],[8.945738791999986,8.250147819999995],[8.942127228000004,8.243443489000015],[8.944259643999999,8.231074332999981],[8.947597503999987,8.222564696999996],[8.955934524999975,8.215208054000016],[8.960119247000023,8.21058654799998],[8.96158313799998,8.208106041000008],[8.96549797099999,8.201476097000011],[8.970402718000003,8.197061539000003],[8.976016044999994,8.19331932099999],[8.982172966000007,8.189214705999973],[8.987715720999972,8.18208789800002],[8.989039420999973,8.180386542999997],[8.991969109000024,8.175783157000012],[8.995905875999995,8.169597625999984],[9.000862122000001,8.16616630599998],[9.006937981000021,8.161959647999993],[9.008656502000008,8.160769463000008],[9.010766029000024,8.157675743000027],[9.014914513000008,8.151591300999996],[9.020133971999996,8.143936156999985],[9.023369789000014,8.13919067400002],[9.030155181999987,8.125901221999982],[9.035140038000009,8.116139411999995],[9.03950977300002,8.109897613999976],[9.042006492999974,8.106330872000001],[9.043380737000007,8.104427337999994],[9.04838180500002,8.097502707999979],[9.052303314000028,8.090373038999985],[9.053776740999979,8.087694167999985],[9.056192398000007,8.080205917],[9.057020186999978,8.077641486999994],[9.062466620999999,8.074473381000018],[9.067675591000011,8.067520141999978],[9.083541869999976,8.046343803000013],[9.093428612000025,8.034061431999987],[9.09842205000001,8.027856826999994],[9.114654540999993,8.008017540000026],[9.132690430000025,7.991333961000009],[9.14576625799998,7.970141888000001],[9.163802147000013,7.936775207999972],[9.17552566500001,7.916484356000012],[9.179125785999986,7.908083438999995],[9.18679142000002,7.911508560000016],[9.209753990000024,7.921768665000002],[9.220373154000015,7.926513194999984],[9.250726699999973,7.944725037000012],[9.281080245999988,7.95585489299998],[9.305362700999979,7.9690079690000175],[9.314585685999987,7.974054813000009],[9.319115639000017,7.976533413000027],[9.335517883000023,7.985507965000011],[9.339323044000025,7.990242003999981],[9.346026420999976,8.001879691999989],[9.35171318099998,8.00659370400001],[9.35969352699999,8.012503623999976],[9.36882972699999,8.018436431999987],[9.379050254999981,8.027843474999997],[9.387053490000028,8.032602310000016],[9.396162987000025,8.039684296000019],[9.404143332999979,8.045594214999994],[9.415376663000018,8.06192493399999],[9.414026260000014,8.071104049999974],[9.403423309000004,8.080102920999991],[9.398653029999991,8.086914062000005],[9.395036697000023,8.093748092999988],[9.392556189999993,8.101754189000019],[9.39221954300001,8.117857932999982],[9.391909598999973,8.132811546000028],[9.386946678000015,8.148825644999988],[9.39142990099998,8.155817032000016],[9.400613785000019,8.159449576999975],[9.406276703000003,8.165313721000018],[9.411823272999982,8.17692947400002],[9.405823708000014,8.187169074999986],[9.397533416999977,8.196212768999999],[9.390469551000024,8.201828003000003],[9.384363173999986,8.204757690000008],[9.382139205999977,8.205823898000006],[9.380124092000017,8.208586692999972],[9.374833106999972,8.211809157999994],[9.371249198999976,8.215107918000001],[9.364250183000024,8.218253135999987],[9.358958244000007,8.221475601000009],[9.353749274999984,8.222970963000023],[9.34674835200002,8.22611618000002],[9.341457366999975,8.229338645999974],[9.336165428000015,8.232561110999995],[9.329566956000008,8.236310005000007],[9.325902939000002,8.245444297999995],[9.323423386000002,8.25345134700001],[9.32551956200001,8.263849257999993],[9.33003044100002,8.269691466999973],[9.335693359000004,8.275555611000016],[9.34246635400001,8.283742904999997],[9.346857070999988,8.295336722999991],[9.350183486999981,8.302306175000012],[9.354546546999984,8.315049170999998],[9.356623650000017,8.326597214000003],[9.35995006600001,8.333567619000007],[9.363276482000003,8.340537071000028],[9.367830276000007,8.344078063999973],[9.376966476000007,8.350010871999984],[9.382753372000025,8.350123404999977],[9.38971710200002,8.349109650000003],[9.401406287999976,8.343584061000001],[9.408443450999982,8.339118957999972],[9.420156479000013,8.332443237000007],[9.43182373000002,8.32806873300001],[9.443512917000021,8.32254409799998],[9.452839851000022,8.319273948999978],[9.466866492999998,8.312644004999981],[9.475036621000015,8.309351920999973],[9.483206748999976,8.306058883999981],[9.492509842000004,8.303939818999993],[9.498296738000022,8.304052352999975],[9.50405693099998,8.305315971000027],[9.512203216999978,8.303174018999982],[9.518010139000012,8.302137374999973],[9.524929999999983,8.303422927999975],[9.535340308999992,8.303627014000028],[9.543439864999982,8.303785323999989],[9.546886443999995,8.305003166000006],[9.561973572,8.302996635],[9.566650390999996,8.300786972000026],[9.584076880999987,8.297676086000024],[9.592200278999996,8.29668426500001],[9.600370407000014,8.293391228000019],[9.609673499999985,8.291272162999974],[9.615386962999992,8.294836044000022],[9.617529869000009,8.302932739000028],[9.613750458000027,8.31781864200002],[9.612330437000026,8.330449104000024],[9.612112998999976,8.340802193000002],[9.611920356999974,8.350004195999986],[9.614020347999997,8.360402107000027],[9.61828708600001,8.377746581999986],[9.622797011999978,8.383587836999993],[9.620701789999998,8.385409354999979],[9.618506432000004,8.387319564999984],[9.613941193000016,8.390193939000028],[9.606160164000016,8.391778945999988],[9.598380088999988,8.393363953000005],[9.594533920000003,8.39319324500002],[9.588587760999985,8.396791457999996],[9.58099556000002,8.397718429999998],[9.573287963999974,8.39865970599999],[9.569181442000001,8.399789810000016],[9.559233665000022,8.401512146000016],[9.55715084100001,8.402318001000026],[9.553863524999997,8.403589248999992],[9.549492836000013,8.40527916000002],[9.545229912000025,8.407674788999998],[9.54155635799998,8.40986823999998],[9.53954982800002,8.411066054999992],[9.532260894999979,8.414120674000003],[9.527999878000003,8.415335654999978],[9.520290375000002,8.414955139000028],[9.510963440000012,8.41822433499999],[9.501660346999984,8.42034339899999],[9.488836288000016,8.424695969000027],[9.484160422999992,8.426905632],[9.470183372000008,8.431235313000002],[9.46317005200001,8.434550285],[9.456130028000018,8.439016342000002],[9.442103385999985,8.445646285999999],[9.436223030000008,8.450134277000018],[9.42689704899999,8.45340347299998],[9.416171073999976,8.458632469000008],[9.408212661999983,8.464071273999991],[9.396408081000004,8.469338417000017],[9.388538360999974,8.472849845999974],[9.38057994799999,8.478287696999985],[9.37279987300002,8.479872704000002],[9.366942406000021,8.481543541000008],[9.355316162000008,8.482957839999983],[9.351559639000016,8.480860710000002],[9.343868256000007,8.480519295000022],[9.336265563999973,8.478251456999999],[9.328753471000027,8.474056243999996],[9.321233748999987,8.469747542999983],[9.311624526999992,8.469434738000018],[9.307868957999972,8.46733760799998],[9.30494976,8.466616631000022],[9.298343658000022,8.464983940000025],[9.290740966999977,8.462716102999991],[9.288908004999996,8.460703850000016],[9.273346901000025,8.463871002000019]]]},"properties":{"fid":489,"cty_nm":"Nigeria","iso3cd":"NGA","adm1nm":"Nassarawa","adm2nm":"Awe","adm1cd":"NGA026","adm2cd":"NGA026002"}},{"type":"Feature","id":490,"geometry":{"type":"Polygon","coordinates":[[[8.502035141000022,8.397160530000008],[8.496824264999987,8.408722877999992],[8.495528220999972,8.411314963999985],[8.491829871999983,8.418712615999993],[8.489776611000025,8.422818183999993],[8.487692832999983,8.425848007000013],[8.480085373000009,8.436913489999995],[8.478046416999973,8.439389229000028],[8.473793983000007,8.444554329000027],[8.469102858999975,8.450250626000013],[8.467752457000017,8.45188999200002],[8.454977988999985,8.460700035000002],[8.449083327999972,8.463820456999997],[8.443136214999981,8.466969489999997],[8.440001488000007,8.468628883000008],[8.434254646,8.471240996999995],[8.430311202999974,8.473033905000023],[8.419477463000021,8.478670120000004],[8.413902283000027,8.481570244000011],[8.399477004999994,8.482724189999999],[8.392661094999994,8.483071327000005],[8.382286072,8.48360061599999],[8.369536400000015,8.484502792],[8.363357543999996,8.48448658000001],[8.331642150999983,8.490653038000005],[8.326581001000022,8.494116782999981],[8.320484161000024,8.498288155000012],[8.318551064000019,8.499610900999983],[8.314904212999977,8.502105712999992],[8.304332733000024,8.502986908000025],[8.288475037000012,8.500343322999981],[8.277809143000013,8.503711699999997],[8.271736144999977,8.505629538999983],[8.269063949999975,8.507077217000017],[8.25546932200001,8.514440535999995],[8.250593185000014,8.517082214000027],[8.246512413000005,8.52053546899998],[8.239140511000016,8.526772499000003],[8.237313271000005,8.528599739000015],[8.226924896000014,8.538988113000016],[8.221521377999977,8.544391631999986],[8.216480255000022,8.546779633000028],[8.204782486,8.552320479999992],[8.200926781000021,8.551970482000002],[8.190317154000013,8.551006316999974],[8.185401916999979,8.55055904400001],[8.17993545500002,8.545933723000019],[8.174082756000018,8.540981293000016],[8.174918175000016,8.538753509999992],[8.176327705000006,8.527477264000026],[8.178442001000008,8.517610549999972],[8.185489655000026,8.507039070000019],[8.198880196000005,8.483780861000014],[8.203108788000009,8.473209381000004],[8.205927848999977,8.456295012999988],[8.210509300000012,8.442199706999986],[8.212623596000014,8.43092346200001],[8.211918830999991,8.421056747000023],[8.207690238999987,8.407665253000005],[8.202756882000017,8.392160416000024],[8.191480636999984,8.379474640000012],[8.167517662000023,8.367493629000023],[8.15624141699999,8.368198394999979],[8.142850876000011,8.366084098999977],[8.126641273000018,8.366084098999977],[8.103383064000013,8.361150742000007],[8.085763930999974,8.352693557999999],[8.065325737000023,8.339302062999991],[8.058278083999994,8.32520675699999],[8.06109714500002,8.318159103000028],[8.06603050199999,8.315340042000003],[8.078011512999979,8.308292388999973],[8.091402054000014,8.306178093000028],[8.099859238000022,8.308997153999996],[8.115365027999985,8.309701920000009],[8.129460334999976,8.301949501000024],[8.146374702000003,8.299835205000022],[8.15624141699999,8.294197082999972],[8.163993834999985,8.278691292000019],[8.161879538999983,8.256843566999976],[8.166108130999987,8.237110137999991],[8.16822242699999,8.213147162999974],[8.16822242699999,8.187775611999996],[8.162584304999996,8.161699295000005],[8.152717590000009,8.151127814999995],[8.135098457000026,8.137736319999988],[8.112545012999988,8.125050545000022],[8.094221114999982,8.108840941999972],[8.084354400999985,8.10531711599998],[8.061801909999986,8.090517044000023],[8.059687613999984,8.082058906999976],[8.049820899999986,8.057392119999975],[8.047706603999984,8.029201508000028],[8.05052566500001,8.008057593999979],[8.052639961000011,7.9883241649999945],[8.055459023000026,7.965066433000004],[8.06109714500002,7.9326472280000075],[8.067440033000025,7.9129133220000085],[8.068856239000013,7.879503726999985],[8.072406768999997,7.877362251000022],[8.095201492000001,7.868988990999981],[8.113808631999973,7.863872050999987],[8.139393805999987,7.8615460400000075],[8.159862518000011,7.859685420999995],[8.175678253000001,7.855033397999989],[8.180357932999982,7.852580547000002],[8.183121680999989,7.853172778999976],[8.185447693000015,7.8522424700000215],[8.191029549000007,7.848986148999984],[8.21521949800001,7.834565162999979],[8.251503943999978,7.822470188000011],[8.274763107000012,7.814562320999983],[8.301744460999998,7.8024673460000145],[8.328724861000012,7.791768074000004],[8.345472336,7.784325122999974],[8.362218857000016,7.774556159999975],[8.372159004000025,7.770002364999982],[8.385478019999994,7.768043518000013],[8.403155326999979,7.766182899],[8.411993979999977,7.768508911000026],[8.411993979999977,7.776416778999987],[8.406876564000015,7.787116050999998],[8.401294708000023,7.795954703999996],[8.393851279999978,7.809910296999988],[8.392920494000009,7.820144653],[8.396642685000018,7.829448222999986],[8.404662131999999,7.836760520999974],[8.405386925000016,7.861023425999974],[8.397721290999982,7.879961491000017],[8.378783225999996,7.915582657000016],[8.363452911000024,7.946243762999984],[8.360296248999987,7.960672854999984],[8.360296248999987,7.98727607699999],[8.363452911000024,8.016584395999985],[8.371117592000019,8.046343803000013],[8.390506743999993,8.077907562000007],[8.426578522,8.112175940999975],[8.466258048999975,8.139229774],[8.486098288999983,8.149149894999994],[8.503683089999981,8.158167838999987],[8.512680053999986,8.157776833000014],[8.516013144999988,8.165183066999987],[8.519446372999994,8.177444458000025],[8.520916939000017,8.184801101999994],[8.516013144999988,8.195099830999993],[8.515522956999973,8.202946662999977],[8.509636879000027,8.216188430999978],[8.507675171000017,8.237277984999992],[8.508656502000008,8.260818481000001],[8.508166313000004,8.278964996000013],[8.510128021000014,8.292206764000014],[8.508166313000004,8.311823844999992],[8.508166313000004,8.326537131999999],[8.506694793999998,8.343212128000005],[8.506694793999998,8.357434273000024],[8.504978180000023,8.38686084699998],[8.502035141000022,8.397160530000008]]]},"properties":{"fid":490,"cty_nm":"Nigeria","iso3cd":"NGA","adm1nm":"Nassarawa","adm2nm":"Doma","adm1cd":"NGA026","adm2cd":"NGA026003"}},{"type":"Feature","id":491,"geometry":{"type":"Polygon","coordinates":[[[7.997314930000016,9.317783356000007],[7.997314930000016,9.324931144999994],[7.998341084000003,9.328625679000027],[8.001719475000016,9.340787888000023],[7.999076843000012,9.35400295300002],[7.993228912000006,9.359293938000008],[7.987177372000019,9.364768981999987],[7.980576514999996,9.370740891000025],[7.944075107999993,9.398877143999982],[7.9382896419999724,9.403336524999986],[7.92067050899999,9.405098914999996],[7.914795876000028,9.400461197000027],[7.903932095000016,9.391884803999972],[7.9016394619999915,9.389019012000006],[7.8898363110000105,9.374264717000017],[7.883907795000027,9.365042685999981],[7.881907940000019,9.361931801000026],[7.878435135000018,9.35653019],[7.865869045000011,9.33698272700002],[7.858121395000012,9.324931144999994],[7.854108333999989,9.319265366000025],[7.851168632999986,9.315114974999972],[7.8479523660000154,9.310574531999976],[7.843144893999977,9.303787231000001],[7.8378262520000135,9.295083999999974],[7.833454609,9.287930489000018],[7.826798439000015,9.276432990999979],[7.823763847000009,9.271191596999984],[7.819245337999973,9.269936561999998],[7.807906150999997,9.266786575000026],[7.799977779000017,9.26854896499998],[7.792929648999973,9.275596618999998],[7.788752079000005,9.282155991000025],[7.770024776000014,9.292334557000004],[7.763857841000004,9.295858382999995],[7.7585721020000165,9.302906036000024],[7.753286361999983,9.312597274999973],[7.748000622000006,9.321407318000013],[7.730054854999992,9.331963539000014],[7.667605877000028,9.30365085599999],[7.6033191679999845,9.161440848999973],[7.5886793139999895,9.129055977000007],[7.59226703600001,8.924564362000012],[7.594658852000009,8.856400489999999],[7.591669082999999,8.834875107000016],[7.56530141799999,8.785279274000004],[7.570485114999997,8.783134459999985],[7.5863423349999834,8.773444175999998],[7.60660505300001,8.765515327000003],[7.611890792999986,8.757586478999997],[7.625986098999988,8.74789619400002],[7.645367621999981,8.732919692999985],[7.655939101999991,8.732038498000009],[7.66298675500002,8.72499084499998],[7.676201343999992,8.716180801000007],[7.698225497999999,8.708251953000001],[7.709678172999986,8.710895537999988],[7.725535869999987,8.713538169999993],[7.743155003000027,8.707371711999997],[7.759893417000001,8.703847885000016],[7.791608333999989,8.699442863000002],[7.806584835000024,8.694156647],[7.831252097999993,8.680942534999986],[7.837418555999989,8.67301368699998],[7.845347403999995,8.669489860999988],[7.861205100999996,8.667727469999988],[7.876181601999974,8.660679817000016],[7.899967670000024,8.65451335900002],[7.914944171999991,8.655394553999997],[7.928158759999974,8.651980400000014],[7.928158759999974,8.659798621999983],[7.929039477999993,8.678298949999999],[7.924634932999993,8.685347557],[7.922873019999997,8.705609321999987],[7.925515652000001,8.717061995999984],[7.928158759999974,8.732919692999985],[7.932563304999974,8.739967346000014],[7.933444500000007,8.761110305999978],[7.933885098000019,8.77696800199999],[7.933885098000019,8.787539482],[7.931241989,8.79811096200001],[7.927718163000009,8.813968658000022],[7.926836966999986,8.821897507000017],[7.928598881000028,8.827182769999979],[7.927718163000009,8.835111617999985],[7.92067050899999,8.836874007999995],[7.913622856000018,8.842159271000014],[7.903932095000016,8.838635445000023],[7.894241333000025,8.833350182000004],[7.881026744999986,8.823658942999998],[7.867812157000003,8.810444831999973],[7.862526417000026,8.79987335200002],[7.855478763999997,8.786658287000023],[7.848431109999979,8.776086807000013],[7.833454609,8.773444175999998],[7.825525760999994,8.77520561199998],[7.814073086000008,8.778729439000017],[7.808787345999974,8.784015656000008],[7.802620411000021,8.78930187200001],[7.794691563000015,8.793705939999995],[7.781477451000001,8.796349524999982],[7.7753105159999905,8.798992156999986],[7.771786689999999,8.800753593000024],[7.7673816679999845,8.80868244200002],[7.766500950000022,8.817492485000002],[7.7673816679999845,8.827182769999979],[7.76914358099998,8.840397834999976],[7.773548602999995,8.849206923999986],[7.781477451000001,8.858016968000015],[7.7850012779999815,8.866827010999998],[7.795572757999992,8.874755859000004],[7.802620411000021,8.880922317999989],[7.8043823240000165,8.88620853399999],[7.805263518999993,8.894136429000014],[7.809668063999993,8.898541451000028],[7.81149244300002,8.900105476000022],[7.8123111720000225,8.909112929999992],[7.819358825999984,8.927613258000008],[7.832573414000024,8.935542107000003],[7.847549915000002,8.942589759999976],[7.864288330000022,8.951399803000015],[7.886312485000019,8.962852478000002],[7.892479419999972,8.969900130999974],[7.906574725999974,8.989281654000024],[7.916265488000022,9.00073432900001],[7.927718163000009,9.025401115000022],[7.93740892400001,9.048306464999996],[7.949742317000016,9.065044403000002],[7.970004559000017,9.073854445999984],[7.997314930000016,9.085307121000028],[8.010529517999998,9.092354774],[8.016695975999994,9.10292625400001],[8.021100998000009,9.111736297999983],[8.025506020000023,9.117902755999978],[8.038720130999991,9.136403083999994],[8.049291611000001,9.14080810500002],[8.063387870999975,9.145213126999977],[8.073078156000008,9.147855758999981],[8.084530830000006,9.15666580200002],[8.095983504999992,9.160189629000001],[8.098590850999983,9.162779807999982],[8.101268768000011,9.166356086999997],[8.102727889999983,9.171707153],[8.103912353999988,9.176047325000013],[8.102149962999988,9.197190284999976],[8.096864700000026,9.211285590999978],[8.094655036999995,9.21595096599998],[8.08893585200002,9.228024483000013],[8.083456038999998,9.236811638000006],[8.078225136000015,9.245200157],[8.077483176999976,9.250928879000014],[8.072877883999979,9.25743103000002],[8.062506675999998,9.272072792000017],[8.059301376000008,9.273084641000025],[8.04576778400002,9.27735805499998],[8.040239333999978,9.280972480999992],[8.031116485999974,9.286937713999976],[8.025481223999975,9.290622711000026],[8.02286243399999,9.292334557000004],[8.015777587999992,9.296869277999974],[8.006057739000028,9.303090096000005],[8.000838279999982,9.306430816999978],[7.997314930000016,9.314358711000011],[7.997314930000016,9.317783356000007]]]},"properties":{"fid":491,"cty_nm":"Nigeria","iso3cd":"NGA","adm1nm":"Nassarawa","adm2nm":"Karu","adm1cd":"NGA026","adm2cd":"NGA026004"}},{"type":"Feature","id":492,"geometry":{"type":"Polygon","coordinates":[[[8.959122658000013,8.281416893000028],[8.954709052999988,8.281416893000028],[8.944409370000017,8.279945374000022],[8.92969608300001,8.276021957000012],[8.915473937999991,8.274550438000006],[8.89095211,8.273079871999983],[8.884085654999978,8.276021957000012],[8.869863510000016,8.277493477000007],[8.858583450000026,8.284359931999973],[8.848773956000002,8.286321639999983],[8.827685356000018,8.289754867999989],[8.808068274999982,8.288283347999993],[8.800711632000002,8.283868789999985],[8.787469864000002,8.277983665000022],[8.76736164099998,8.265723228000013],[8.744801521,8.259346961999995],[8.72714614900002,8.258366584999976],[8.693305968999994,8.259838103999982],[8.661427498000023,8.264741898000011],[8.642300605999992,8.263270378000016],[8.621702194000022,8.259838103999982],[8.594728470000007,8.252481461000002],[8.588352203,8.253461838000021],[8.570206642000016,8.253461838000021],[8.550588607999998,8.254443169000012],[8.53832817099999,8.254933357000027],[8.529500008000014,8.253461838000021],[8.515276909000022,8.259346961999995],[8.508656502000008,8.260818481000001],[8.507675171000017,8.237277984999992],[8.509636879000027,8.216188430999978],[8.515522956999973,8.202946662999977],[8.516013144999988,8.195099830999993],[8.520916939000017,8.184801101999994],[8.519446372999994,8.177444458000025],[8.516013144999988,8.165183066999987],[8.512680053999986,8.157776833000014],[8.524424553000017,8.157265662999976],[8.560496329999978,8.140131950000011],[8.58800125099998,8.12885856600002],[8.637149810999972,8.116233825999984],[8.696668624999973,8.096394539000016],[8.780536652000023,8.075201988000003],[8.819765091000022,8.070241927999973],[8.841858864000017,8.067085265999992],[8.910846709999987,8.056263924000007],[8.971267699999999,8.057616234000022],[9.025375365999992,8.062576293999996],[9.050175667000019,8.075201988000003],[9.057020186999978,8.077641486999994],[9.056192398000007,8.080205917],[9.053776740999979,8.087694167999985],[9.052303314000028,8.090373038999985],[9.04838180500002,8.097502707999979],[9.043380737000007,8.104427337999994],[9.042006492999974,8.106330872000001],[9.03950977300002,8.109897613999976],[9.035140038000009,8.116139411999995],[9.030155181999987,8.125901221999982],[9.023369789000014,8.13919067400002],[9.020133971999996,8.143936156999985],[9.014914513000008,8.151591300999996],[9.010766029000024,8.157675743000027],[9.008656502000008,8.160769463000008],[9.006937981000021,8.161959647999993],[9.000862122000001,8.16616630599998],[8.995905875999995,8.169597625999984],[8.991969109000024,8.175783157000012],[8.989039420999973,8.180386542999997],[8.987715720999972,8.18208789800002],[8.982172966000007,8.189214705999973],[8.976016044999994,8.19331932099999],[8.970402718000003,8.197061539000003],[8.96549797099999,8.201476097000011],[8.96158313799998,8.208106041000008],[8.960119247000023,8.21058654799998],[8.955934524999975,8.215208054000016],[8.947597503999987,8.222564696999996],[8.944259643999999,8.231074332999981],[8.942127228000004,8.243443489000015],[8.945738791999986,8.250147819999995],[8.952501297000026,8.252481461000002],[8.959953308000024,8.255546569999979],[8.960839271999987,8.260328292999986],[8.961519241000019,8.26713180500002],[8.961658478000004,8.270812035000006],[8.959122658000013,8.281416893000028]]]},"properties":{"fid":492,"cty_nm":"Nigeria","iso3cd":"NGA","adm1nm":"Nassarawa","adm2nm":"Keana","adm1cd":"NGA026","adm2cd":"NGA026005"}},{"type":"Feature","id":493,"geometry":{"type":"Polygon","coordinates":[[[7.913622856000018,8.842159271000014],[7.912741660999984,8.849206923999986],[7.910098553000012,8.85185051000002],[7.902170180999974,8.860659598999973],[7.897765160000006,8.869469643000002],[7.885431767,8.876517295999975],[7.866931437999995,8.88444614399998],[7.851954937000016,8.887969971000018],[7.837859154,8.890612601999976],[7.8299307820000195,8.89501762399999],[7.817596911999999,8.895898819000024],[7.81149244300002,8.900105476000022],[7.809668063999993,8.898541451000028],[7.805263518999993,8.894136429000014],[7.8043823240000165,8.88620853399999],[7.802620411000021,8.880922317999989],[7.795572757999992,8.874755859000004],[7.7850012779999815,8.866827010999998],[7.781477451000001,8.858016968000015],[7.773548602999995,8.849206923999986],[7.76914358099998,8.840397834999976],[7.7673816679999845,8.827182769999979],[7.766500950000022,8.817492485000002],[7.7673816679999845,8.80868244200002],[7.771786689999999,8.800753593000024],[7.7753105159999905,8.798992156999986],[7.781477451000001,8.796349524999982],[7.794691563000015,8.793705939999995],[7.802620411000021,8.78930187200001],[7.808787345999974,8.784015656000008],[7.814073086000008,8.778729439000017],[7.825525760999994,8.77520561199998],[7.833454609,8.773444175999998],[7.848431109999979,8.776086807000013],[7.855478763999997,8.786658287000023],[7.862526417000026,8.79987335200002],[7.867812157000003,8.810444831999973],[7.881026744999986,8.823658942999998],[7.894241333000025,8.833350182000004],[7.903932095000016,8.838635445000023],[7.913622856000018,8.842159271000014]]]},"properties":{"fid":493,"cty_nm":"Nigeria","iso3cd":"NGA","adm1nm":"Nassarawa","adm2nm":"Keffi","adm1cd":"NGA026","adm2cd":"NGA026006"}},{"type":"Feature","id":494,"geometry":{"type":"Polygon","coordinates":[[[8.135277748000021,9.051707267999973],[8.128138541999988,9.049187659999973],[8.10787677799999,9.05271148700001],[8.102590561,9.06328296700002],[8.101373672000022,9.075447082999972],[8.10082817099999,9.080902100000003],[8.100702286,9.085691451999992],[8.100430489000018,9.096034050000014],[8.099947928999995,9.114378928999997],[8.099704741999972,9.123631477000004],[8.099066734000019,9.147855758999981],[8.098958969000023,9.151247024999975],[8.098590850999983,9.162779807999982],[8.095983504999992,9.160189629000001],[8.084530830000006,9.15666580200002],[8.073078156000008,9.147855758999981],[8.063387870999975,9.145213126999977],[8.049291611000001,9.14080810500002],[8.038720130999991,9.136403083999994],[8.025506020000023,9.117902755999978],[8.021100998000009,9.111736297999983],[8.016695975999994,9.10292625400001],[8.010529517999998,9.092354774],[7.997314930000016,9.085307121000028],[7.970004559000017,9.073854445999984],[7.949742317000016,9.065044403000002],[7.93740892400001,9.048306464999996],[7.927718163000009,9.025401115000022],[7.916265488000022,9.00073432900001],[7.906574725999974,8.989281654000024],[7.892479419999972,8.969900130999974],[7.886312485000019,8.962852478000002],[7.864288330000022,8.951399803000015],[7.847549915000002,8.942589759999976],[7.832573414000024,8.935542107000003],[7.819358825999984,8.927613258000008],[7.8123111720000225,8.909112929999992],[7.81149244300002,8.900105476000022],[7.817596911999999,8.895898819000024],[7.8299307820000195,8.89501762399999],[7.837859154,8.890612601999976],[7.851954937000016,8.887969971000018],[7.866931437999995,8.88444614399998],[7.885431767,8.876517295999975],[7.897765160000006,8.869469643000002],[7.902170180999974,8.860659598999973],[7.910098553000012,8.85185051000002],[7.912741660999984,8.849206923999986],[7.913622856000018,8.842159271000014],[7.92067050899999,8.836874007999995],[7.927718163000009,8.835111617999985],[7.928598881000028,8.827182769999979],[7.926836966999986,8.821897507000017],[7.927718163000009,8.813968658000022],[7.931241989,8.79811096200001],[7.933885098000019,8.787539482],[7.933885098000019,8.77696800199999],[7.933444500000007,8.761110305999978],[7.932563304999974,8.739967346000014],[7.928158759999974,8.732919692999985],[7.925515652000001,8.717061995999984],[7.922873019999997,8.705609321999987],[7.924634932999993,8.685347557],[7.929039477999993,8.678298949999999],[7.928158759999974,8.659798621999983],[7.928158759999974,8.651980400000014],[7.930361270999981,8.649227141999972],[7.94181346900001,8.643060683999977],[7.94798040400002,8.638655663000009],[7.954147338999974,8.635131836000028],[7.968242644999975,8.635131836000028],[7.977933407000023,8.63160800899999],[7.985862254999972,8.625441550999994],[8.001719475000016,8.621036530000026],[8.016695975999994,8.615750312999978],[8.025506020000023,8.610465050000016],[8.043125153000005,8.605178833000025],[8.065149307000013,8.593726157999981],[8.078363419000027,8.587559699999986],[8.08893585200002,8.578749657000003],[8.100388527000007,8.571702002999984],[8.116245269999979,8.568178176999993],[8.13034153000001,8.55936813400001],[8.145317078000005,8.55936813400001],[8.155008316000021,8.549677848999977],[8.167342185999985,8.540867805000005],[8.171746254000027,8.541749001000028],[8.174463272000025,8.544465064999997],[8.175022124999998,8.548382758999992],[8.175710677999973,8.553201675000025],[8.175799369999993,8.555518150000012],[8.176285743999983,8.56814289099998],[8.176591873000007,8.576107024999999],[8.180115699999988,8.591083527000023],[8.180491447000009,8.59346198999998],[8.181964874000016,8.602794646999996],[8.182758331000002,8.607821464999972],[8.186799049000001,8.619943619000026],[8.188925743000027,8.626321792999988],[8.189687729000013,8.628185271999996],[8.194380760000001,8.639656066999976],[8.196854590999976,8.645703315999981],[8.199422835999997,8.649556159999975],[8.205663680999976,8.658918380999978],[8.206682204999993,8.661770821000005],[8.21006870299999,8.671251297000026],[8.213697432999993,8.680582046999973],[8.216235160999986,8.687108994000027],[8.224066734000019,8.692143439999995],[8.228569031000006,8.695037841999977],[8.232393264999985,8.695037841999977],[8.239140511000016,8.695037841999977],[8.243448257000011,8.695334435000007],[8.246321678000015,8.695532798999977],[8.251914978000002,8.69591903700001],[8.254557610000006,8.701204299999972],[8.258962630999974,8.708251953000001],[8.258962630999974,8.718824386999984],[8.251914978000002,8.718824386999984],[8.242223739999986,8.721467017999998],[8.240462303000015,8.725872040000013],[8.238699913000005,8.73908615099998],[8.238699913000005,8.752301215999978],[8.242223739999986,8.760229111000001],[8.24662876100001,8.772562981000021],[8.24662876100001,8.783134459999985],[8.245747565999977,8.794587134999972],[8.249272345999998,8.804278373999978],[8.253676413999983,8.812206268000011],[8.252796172999979,8.821897507000017],[8.254557610000006,8.84304046599999],[8.25130653399998,8.853444099],[8.250152587999992,8.857135772999982],[8.247509955999988,8.878279685999985],[8.241343497999992,8.888851165999995],[8.231652259999976,8.902946471999996],[8.219319343999985,8.913517952000007],[8.210509300000012,8.92232799499999],[8.206104278999987,8.933780669999976],[8.202580452000007,8.939947127999972],[8.199056625000026,8.952280997999992],[8.192890166999973,8.961090087999992],[8.189366340999982,8.969900130999974],[8.186722755000005,8.97782897899998],[8.185842514,8.992805481000005],[8.18408012399999,9.010424613999987],[8.18408012399999,9.019234657000027],[8.185842514,9.031567574000007],[8.178793907,9.04037761699999],[8.169984817999989,9.05271148700001],[8.163818359000004,9.06328296700002],[8.160416602999987,9.066604614000028],[8.155383110000002,9.06307506600001],[8.149353027000018,9.058846474000006],[8.143115044000012,9.054472922999992],[8.139981270000021,9.053366660999984],[8.135277748000021,9.051707267999973]]]},"properties":{"fid":494,"cty_nm":"Nigeria","iso3cd":"NGA","adm1nm":"Nassarawa","adm2nm":"Kokona","adm1cd":"NGA026","adm2cd":"NGA026007"}},{"type":"Feature","id":495,"geometry":{"type":"Polygon","coordinates":[[[9.060153961000026,9.020597457999997],[9.056705475000001,9.023753166000006],[9.052770614999986,9.025508881000007],[9.049556731999985,9.026164054999981],[9.044990540000015,9.027093886999978],[9.03922176399999,9.026837349000004],[9.027773857,9.024398803999986],[9.023927689000004,9.024228096000002],[9.020171165000022,9.02213096600002],[9.016324997000027,9.021977424999989],[9.012277602999973,9.021788597000011],[9.008892059000004,9.02076625799998],[9.004336357,9.021059035999997],[9.000943183999993,9.021277428000019],[8.998668671000019,9.020369529999982],[8.995292663999976,9.019022941999992],[8.992649078,9.018939018000026],[8.989495277000003,9.018838882000011],[8.983613014000014,9.017694473000006],[8.977663039999982,9.016536712999994],[8.974201202000017,9.016228676000026],[8.969527244999995,9.016020775000015],[8.966815947999976,9.015042305000009],[8.963749886000016,9.015764235999995],[8.960741997000014,9.015630722000026],[8.954884529000026,9.017301558999975],[8.951128005999976,9.015204429999983],[8.943020821000005,9.015581130999976],[8.929887771999972,9.016190529000028],[8.924118996000004,9.01593589800001],[8.916338920999976,9.017520905000026],[8.907392501999993,9.01932334899999],[8.909130096000013,9.01647090900002],[8.905039787000021,9.002457618999983],[8.902870178,8.99551010099998],[8.897397040999977,8.980443954000009],[8.886236191000023,8.960662841999977],[8.877122879000012,8.95357990299999],[8.873893737999992,8.942008971999996],[8.867217063999988,8.929220199999975],[8.858176231000016,8.91868686700002],[8.851427077999972,8.909347534000005],[8.846966742999996,8.901206016999993],[8.837973594999994,8.888372420999985],[8.834600448999993,8.883703232000016],[8.830163002000006,8.87441062900001],[8.824522972000011,8.86739540100001],[8.820036888000004,8.860403061],[8.814299582999979,8.857989310999983],[8.806296348999979,8.853230476000022],[8.799476624000022,8.847343444999979],[8.791426659000024,8.844883918999983],[8.78566646600001,8.843620299999998],[8.776456832999997,8.841138839999985],[8.76953983300001,8.839853286999983],[8.766070366000008,8.839784622000025],[8.753366470000003,8.838385582],[8.744136809999986,8.83705425300002],[8.732589722,8.835678100999985],[8.725646972999982,8.835541724999985],[8.712923049999972,8.835292815999992],[8.708292960999984,8.835202217000017],[8.699040412999977,8.835021972999982],[8.692096709999987,8.834885596999982],[8.684000014999981,8.834727287000021],[8.67471981,8.835696219999988],[8.666620254999998,8.835537910000028],[8.659679412999992,8.835401535000017],[8.651628494000022,8.832942962999994],[8.644734383000014,8.830507278000027],[8.642829894999977,8.829318999999998],[8.63902187299999,8.826942443999997],[8.63954830199998,8.823658942999998],[8.640135765000025,8.820510864000028],[8.640862464999998,8.816611290000026],[8.649715424000021,8.814568520000023],[8.652315139999985,8.813968658000022],[8.663132668000003,8.803971290999982],[8.66748142199998,8.802784920000022],[8.67315006299998,8.801239013999975],[8.68138694800001,8.798992156999986],[8.694353104000015,8.794670105000023],[8.697244644000023,8.793705939999995],[8.700818061999996,8.790957450999997],[8.705965042000003,8.78699874900002],[8.70869731900001,8.784896850999985],[8.711515426999995,8.774188041999992],[8.713102341000024,8.768157959000007],[8.711339951000014,8.752301215999978],[8.706546783000022,8.733104706000006],[8.704634666000004,8.72930431399999],[8.699656487000027,8.721481322999978],[8.694602013000008,8.713538169999993],[8.677863120999973,8.691514014999996],[8.670436859000006,8.685148239],[8.665530204999982,8.680942534999986],[8.661743163999972,8.677844047999997],[8.657865523999988,8.674672127000008],[8.655838965999976,8.67301368699998],[8.645741462999979,8.667167663999976],[8.642668723999975,8.665388107000012],[8.639101028000027,8.66332244900002],[8.62620353699998,8.66256427799999],[8.624124526999992,8.662442207000026],[8.596814155999994,8.660679817000016],[8.592844963000005,8.661274909999975],[8.58459091200001,8.662512778999996],[8.579195023000011,8.66332244900002],[8.576488494999978,8.663086890999978],[8.558932303999995,8.661561011999993],[8.552252769000006,8.658380507999993],[8.548965453999983,8.656814574999999],[8.54043197599998,8.65275096900001],[8.535021782000001,8.65275096900001],[8.521050452999987,8.65275096900001],[8.514196395999988,8.652781487000027],[8.50838756600001,8.652807236000001],[8.503429412999992,8.652829170000018],[8.499171257,8.652384757999982],[8.492261886999984,8.651662826999996],[8.485812187000022,8.650989531999983],[8.479956626999979,8.648859978000019],[8.476121901999988,8.647465705999991],[8.474040031000015,8.646127701000012],[8.46919727300002,8.643013954000025],[8.46569728899999,8.640764235999995],[8.463788033000014,8.639536857999985],[8.460879325999997,8.63626384700001],[8.454380989000015,8.62895393399998],[8.448950767999975,8.624605179000014],[8.435596465999993,8.617512702999989],[8.431628226999976,8.616719246000002],[8.426787375999993,8.615750312999978],[8.423432349999985,8.615246773000024],[8.40916824300001,8.613107680999974],[8.404175758000008,8.610611915999982],[8.400358200000028,8.608702660000006],[8.39237022399999,8.608702660000006],[8.388905524999984,8.608702660000006],[8.38673591600002,8.608847618000027],[8.379706382999984,8.609315872000025],[8.375691414000016,8.609583854999983],[8.373452186999998,8.610437392999984],[8.360284804999992,8.615452765999976],[8.357191086,8.616631508000012],[8.346964835999984,8.617909430999987],[8.344266891000018,8.618247032],[8.336047172999997,8.619274139000026],[8.331860542000015,8.617778778000002],[8.326352118999978,8.615811348000022],[8.319465637000008,8.613351822000027],[8.316022873000009,8.612122536000015],[8.311380385999996,8.610465050000016],[8.302820205999978,8.598576546000004],[8.295522689999984,8.58844089500002],[8.29189205199998,8.581542015000025],[8.286712646000012,8.571702002999984],[8.282327651999992,8.567754745000002],[8.277903557000002,8.563773154999978],[8.269599915000015,8.559621811],[8.267332076999992,8.558487892000016],[8.258532523999975,8.559296608000011],[8.248831748999976,8.563773154999978],[8.243545531999985,8.566415786999983],[8.246627808000028,8.576280594000025],[8.247950553999999,8.580512047000013],[8.248800277999976,8.585612297000011],[8.24971198999998,8.591083527000023],[8.249407768000026,8.595650673000023],[8.248831748999976,8.604297637999991],[8.250752449000004,8.623824119999995],[8.25147437999999,8.632489204000024],[8.256760596999982,8.644822121000004],[8.252355576000014,8.65275096900001],[8.242664337000008,8.656274795999991],[8.242664337000008,8.67301368699998],[8.252355576000014,8.687108994000027],[8.251914978000002,8.69591903700001],[8.246321678000015,8.695532798999977],[8.243448257000011,8.695334435000007],[8.239140511000016,8.695037841999977],[8.232393264999985,8.695037841999977],[8.228569031000006,8.695037841999977],[8.224066734000019,8.692143439999995],[8.216235160999986,8.687108994000027],[8.213697432999993,8.680582046999973],[8.21006870299999,8.671251297000026],[8.206682204999993,8.661770821000005],[8.205663680999976,8.658918380999978],[8.199422835999997,8.649556159999975],[8.196854590999976,8.645703315999981],[8.194380760000001,8.639656066999976],[8.189687729000013,8.628185271999996],[8.188925743000027,8.626321792999988],[8.186799049000001,8.619943619000026],[8.182758331000002,8.607821464999972],[8.181964874000016,8.602794646999996],[8.180491447000009,8.59346198999998],[8.180115699999988,8.591083527000023],[8.176591873000007,8.576107024999999],[8.176285743999983,8.56814289099998],[8.175799369999993,8.555518150000012],[8.175710677999973,8.553201675000025],[8.175022124999998,8.548382758999992],[8.174463272000025,8.544465064999997],[8.174082756000018,8.540981293000016],[8.17993545500002,8.545933723000019],[8.185401916999979,8.55055904400001],[8.190317154000013,8.551006316999974],[8.200926781000021,8.551970482000002],[8.204782486,8.552320479999992],[8.216480255000022,8.546779633000028],[8.221521377999977,8.544391631999986],[8.226924896000014,8.538988113000016],[8.237313271000005,8.528599739000015],[8.239140511000016,8.526772499000003],[8.246512413000005,8.52053546899998],[8.250593185000014,8.517082214000027],[8.25546932200001,8.514440535999995],[8.269063949999975,8.507077217000017],[8.271736144999977,8.505629538999983],[8.277809143000013,8.503711699999997],[8.288475037000012,8.500343322999981],[8.304332733000024,8.502986908000025],[8.314904212999977,8.502105712999992],[8.318551064000019,8.499610900999983],[8.320484161000024,8.498288155000012],[8.326581001000022,8.494116782999981],[8.331642150999983,8.490653038000005],[8.363357543999996,8.48448658000001],[8.369536400000015,8.484502792],[8.382286072,8.48360061599999],[8.392661094999994,8.483071327000005],[8.399477004999994,8.482724189999999],[8.413902283000027,8.481570244000011],[8.419477463000021,8.478670120000004],[8.430311202999974,8.473033905000023],[8.434254646,8.471240996999995],[8.440001488000007,8.468628883000008],[8.443136214999981,8.466969489999997],[8.449083327999972,8.463820456999997],[8.454977988999985,8.460700035000002],[8.467752457000017,8.45188999200002],[8.469102858999975,8.450250626000013],[8.473793983000007,8.444554329000027],[8.478046416999973,8.439389229000028],[8.480085373000009,8.436913489999995],[8.487692832999983,8.425848007000013],[8.489776611000025,8.422818183999993],[8.491829871999983,8.418712615999993],[8.495528220999972,8.411314963999985],[8.496824264999987,8.408722877999992],[8.502035141000022,8.397160530000008],[8.509882926999978,8.395689011000002],[8.51722717299998,8.395339012000022],[8.520181655999977,8.395197868000025],[8.52409172099999,8.395895957999983],[8.531018257000028,8.397133827000005],[8.535614967000015,8.39822101599998],[8.542741776000014,8.400592803999984],[8.544981002999975,8.400951384999985],[8.549508095000022,8.401675223999973],[8.555003166000006,8.402554511999995],[8.558756828000014,8.402554511999995],[8.566282272000024,8.402554511999995],[8.572686195000017,8.405356407],[8.576981543999977,8.407235146000005],[8.581707954000024,8.409303664999982],[8.589823722999995,8.412854195000023],[8.592820168000003,8.417742728999997],[8.597158432000015,8.424820899999986],[8.599142074999975,8.428057670999976],[8.601137160999997,8.43020629900002],[8.603830338000023,8.433105468999997],[8.607479094999974,8.437376022000024],[8.607858657999998,8.439653396999972],[8.60904789,8.44678783400002],[8.610422133999975,8.455031394999992],[8.611287117000018,8.457995415000028],[8.613855361999981,8.466801642999997],[8.617844581999975,8.470581055000025],[8.623173714000018,8.475629807000018],[8.62872409800002,8.477572441000007],[8.632982254000012,8.479063033999978],[8.636190413999998,8.479063033999978],[8.63935756699999,8.479063033999978],[8.641673088000005,8.479001045000018],[8.645230292999997,8.478904724000017],[8.647451401000012,8.478844643000002],[8.650917053,8.478751182999986],[8.657504082000003,8.478572844999974],[8.664860724999983,8.47661113700002],[8.672850609000022,8.477467536999995],[8.676386832999981,8.477847098999973],[8.680554389999998,8.477591514999972],[8.685570717000019,8.478447914000014],[8.693632126000011,8.479824065999992],[8.697184563000008,8.480430603000002],[8.70066261300002,8.481024741999988],[8.702993392999986,8.481449127000019],[8.70605754899998,8.48200607299998],[8.711226463000003,8.480101585],[8.715375900000026,8.478572844999974],[8.71922779099998,8.476342201000023],[8.724694252000006,8.473177910000004],[8.728585242999998,8.468070029999978],[8.73254108399999,8.462878226999976],[8.739312171999984,8.460886954999978],[8.749216079999997,8.457974433999993],[8.753034592000006,8.454919814999982],[8.759024619999991,8.45012760200001],[8.76058578499999,8.448696136000024],[8.76362323799998,8.445912361000012],[8.770794867999996,8.439337729999977],[8.775613785000019,8.437211036999997],[8.78060340899998,8.430999756000006],[8.785284042,8.428605080000011],[8.795881270999985,8.423183440999992],[8.801692009000021,8.420210838000003],[8.803518295000003,8.418992995999986],[8.80904865299999,8.41530609099999],[8.81373596200001,8.412927627999977],[8.818922997000016,8.410295485999995],[8.825478553999972,8.406969070000002],[8.829401969999992,8.404026031],[8.833024979000015,8.403844832999994],[8.836483002000023,8.403672217999997],[8.839210509999987,8.403535842999986],[8.841185569999993,8.402955055000007],[8.847548485000004,8.401083946000028],[8.856866836999984,8.400592803999984],[8.86322689100001,8.401620864999984],[8.866620064000017,8.402169227999991],[8.871514320000017,8.402959823999993],[8.874753951999992,8.402843474999997],[8.878116608000028,8.402977942999996],[8.88286018399998,8.40206432299999],[8.885287285000004,8.403330803000017],[8.894140244000027,8.40794944800001],[8.901350020999985,8.407048224999983],[8.905910491999975,8.406477928000015],[8.909307479999995,8.406078338999976],[8.911346435999974,8.405838965999976],[8.91424751300002,8.405497550999996],[8.922094345000005,8.403045653999982],[8.927387237999994,8.40370750400001],[8.930297852000024,8.404070853999997],[8.933865546999982,8.404516220000005],[8.935997009000005,8.404794692999985],[8.941824913000005,8.405554771000027],[8.945145606999972,8.406004906000021],[8.947560309999972,8.406051635999972],[8.952186584000003,8.406142235000004],[8.955657004999978,8.40620994599999],[8.959852219000027,8.406291962000012],[8.963749886000016,8.406049728000028],[8.967555045999973,8.405812262999973],[8.969581603999984,8.405686377999984],[8.972396850999985,8.404812812999978],[8.977712630999974,8.40319728899999],[8.981437683000024,8.40206432299999],[8.988110542000015,8.401656150999997],[8.995113372999981,8.40122795100001],[9.000871657999994,8.400875091999978],[9.008576392999998,8.400403976000007],[9.007742882000002,8.406078338999976],[9.005286216999991,8.412935257000015],[9.002853393999999,8.418641089999994],[8.998080254000001,8.425452231999998],[9.001359939999986,8.434721947000014],[8.99779319800001,8.439255714000012],[8.993069649000006,8.443765639999981],[8.989573479,8.444848061000016],[8.983693123000023,8.449336051999978],[8.980103493000001,8.455019950999997],[8.976440430000025,8.464154242999996],[8.975092888000006,8.47333431200002],[8.976010323000025,8.484859466999978],[8.978106498999978,8.49525737800002],[8.981432915000028,8.502226829999984],[8.983579636000002,8.510323524],[8.985726356999976,8.518421172999979],[8.988257407999981,8.522885323000025],[8.982460021999998,8.527254104999997],[8.979003906000003,8.530584335000015],[8.97514438600001,8.537506103999988],[8.974966048999988,8.541358947999981],[8.978455543999985,8.549236297999983],[8.984020233000024,8.553231239000013],[8.984094620000008,8.558160782000016],[8.986068725999985,8.561980247000008],[8.987382889000003,8.564522742999998],[8.98630523700001,8.566468239000017],[8.983222007999984,8.572034836],[8.982412338000017,8.574304580999978],[8.981021881000004,8.578203201000008],[8.983180045999973,8.585113524999997],[8.983431816000007,8.59658050500002],[8.980529784999987,8.601173400999983],[8.977794646999996,8.605191230999992],[8.970023154999978,8.605570793000027],[8.96416664100002,8.608907699999975],[8.958310127000004,8.61224556000002],[8.951176642999997,8.621312140999976],[8.949756621999995,8.633942604000026],[8.947323799000003,8.639648437000005],[8.94449806199998,8.64666748000002],[8.942276000999982,8.652189254999996],[8.94178867300002,8.655583381999975],[8.94102382699998,8.659605026000008],[8.940459250999993,8.662574768000013],[8.940243721000002,8.667230605999976],[8.934799193999993,8.66788101200001],[8.932219504999978,8.671403885000018],[8.929218291999973,8.673177719000023],[8.925706863000016,8.677200316999972],[8.919826508000028,8.68168830899998],[8.913947104999977,8.6861763],[8.911806107000018,8.69877147699998],[8.910737991000019,8.702993392999986],[8.907656669999994,8.71021938299998],[8.902836799999989,8.71933078799998],[8.896886826000014,8.727269173000025],[8.892136574000006,8.732930183000008],[8.891933440999992,8.74035358399999],[8.896033287000023,8.748279572000001],[8.89937114700001,8.75097083999998],[8.904410362000021,8.755034447000014],[8.904689788999974,8.758125305000021],[8.901088715000014,8.763946533000023],[8.900554656999986,8.775506973000006],[8.903882979999992,8.779159546000017],[8.907889366000006,8.783555030999992],[8.915580750000004,8.783896446000028],[8.919151306000003,8.783295630999987],[8.923966408000013,8.78248500799998],[8.92904090899998,8.784493445999999],[8.932709693999982,8.785508155999992],[8.938326835999987,8.793672561999983],[8.945146561000001,8.799559593000026],[8.94903373699998,8.810478209999985],[8.95059680899999,8.815776825],[8.950968741999986,8.824192046999997],[8.951099396000018,8.82714271499998],[8.950065612999992,8.829829216000007],[8.949798584000007,8.835607529000015],[8.95530033099999,8.841644287000008],[8.957044601000007,8.84558296199998],[8.958789824999997,8.84952163700001],[8.966391563000002,8.851789473999986],[8.97399425499998,8.854057312000009],[8.98561954500002,8.852643012999977],[8.989554404999978,8.850887299000021],[8.999079703999996,8.853240966999977],[9.003014565,8.851485251999975],[9.010616302000017,8.853753089999998],[9.016206741000019,8.857862473000012],[9.018040656999972,8.859873772000014],[9.023541451000028,8.865909575999979],[9.025197029000026,8.871774673000004],[9.026763915999993,8.879566193000016],[9.02850818600001,8.883504867999989],[9.031820297000024,8.895235061999983],[9.039065360999984,8.905209540999977],[9.040810584999974,8.909148216000006],[9.044477463000021,8.913171767999984],[9.044300078999981,8.917024611999977],[9.045955658000025,8.922889709000003],[9.053290366999988,8.930936813000017],[9.06254768399998,8.93907070199998],[9.068227767999986,8.941252707999979],[9.071894645999976,8.945277213999987],[9.073461533,8.95306873300001],[9.071182250999982,8.96068954499998],[9.069081305999987,8.964458465999996],[9.067069054000001,8.966298102999986],[9.06836795800001,8.979869843000017],[9.070737839000003,8.987840651999988],[9.069836617000021,8.99186897300001],[9.069753647000027,8.995417594999992],[9.069081305999987,8.997752190000028],[9.066963196000017,9.007926940999994],[9.062741280000012,9.018228530999977],[9.060153961000026,9.020597457999997]]]},"properties":{"fid":495,"cty_nm":"Nigeria","iso3cd":"NGA","adm1nm":"Nassarawa","adm2nm":"Lafia","adm1cd":"NGA026","adm2cd":"NGA026008"}},{"type":"Feature","id":496,"geometry":{"type":"Polygon","coordinates":[[[7.928158759999974,8.651980400000014],[7.914944171999991,8.655394553999997],[7.899967670000024,8.65451335900002],[7.876181601999974,8.660679817000016],[7.861205100999996,8.667727469999988],[7.845347403999995,8.669489860999988],[7.837418555999989,8.67301368699998],[7.831252097999993,8.680942534999986],[7.806584835000024,8.694156647],[7.791608333999989,8.699442863000002],[7.759893417000001,8.703847885000016],[7.743155003000027,8.707371711999997],[7.725535869999987,8.713538169999993],[7.709678172999986,8.710895537999988],[7.698225497999999,8.708251953000001],[7.676201343999992,8.716180801000007],[7.66298675500002,8.72499084499998],[7.655939101999991,8.732038498000009],[7.645367621999981,8.732919692999985],[7.625986098999988,8.74789619400002],[7.611890792999986,8.757586478999997],[7.60660505300001,8.765515327000003],[7.5863423349999834,8.773444175999998],[7.570485114999997,8.783134459999985],[7.56530141799999,8.785279274000004],[7.541442871000015,8.740403174999983],[7.501979828000003,8.668651581000006],[7.496000766999998,8.654301642999997],[7.493228435999981,8.650736809000023],[7.499545097000009,8.650162696999985],[7.512379168999985,8.64695453600001],[7.517994403999978,8.638933182000017],[7.522005080999975,8.624494552999977],[7.522005080999975,8.615671157999998],[7.520400524000024,8.61085796399999],[7.519598484000028,8.605243683000026],[7.523609161000024,8.594013213999972],[7.522005080999975,8.573158264000028],[7.518796443999975,8.552302360999988],[7.514785766999978,8.537062644999992],[7.505160332000003,8.525832175999994],[7.499545097000009,8.507383346999973],[7.484304904999988,8.481715201999975],[7.465053558000022,8.457651138000017],[7.444198131999997,8.427169800000001],[7.432166100000018,8.407116889999998],[7.431364058999975,8.38144874599999],[7.438583374000018,8.354978560999996],[7.442594051000015,8.34535312700001],[7.442594051000015,8.334122658000013],[7.436978817000011,8.326101302999973],[7.432166100000018,8.317277907999994],[7.432166100000018,8.308454514000005],[7.434572697000021,8.300433159000022],[7.432166100000018,8.291609763999986],[7.431364058999975,8.283588409000004],[7.432166100000018,8.273962975000018],[7.432968615999982,8.268348693999997],[7.425749301999986,8.257920264999996],[7.41612386700001,8.245888709999974],[7.408904552000024,8.225834845999998],[7.399279117999981,8.205781936999983],[7.3928618429999915,8.192145347999997],[7.3880491259999985,8.168884277000018],[7.381631851000009,8.144820213000003],[7.381631851000009,8.118350028999998],[7.383236408000016,8.103911400000015],[7.389653205999991,8.087868689999993],[7.393663882999988,8.070221901000025],[7.400883197999974,8.050168991000021],[7.40448522600002,8.042964934999986],[7.432442187999982,8.045692443999997],[7.445786952999981,8.044860840000013],[7.45099544499999,8.046518326000012],[7.505344868000009,8.047198295999976],[7.542710304000025,8.043121337999992],[7.583472728999993,8.037686348000022],[7.6249141690000215,8.029534339999998],[7.665676116999975,8.019343375999995],[7.677225589999978,8.016626357999996],[7.676837921000015,8.014471054000012],[7.697466850000012,8.013662338000017],[7.738402843000017,8.006218909999973],[7.7607321739999975,8.00342845900002],[7.7825956340000175,7.998776436000014],[7.810972214000003,7.991333008000026],[7.838418006999973,7.985285759000021],[7.867259978999982,7.986216067999976],[7.877028941999981,7.9834251400000085],[7.903079032999983,7.969004154000004],[7.931921004999992,7.957374572999981],[7.9728569979999975,7.939232349000008],[7.9947209360000215,7.92295074499998],[8.040774344999988,7.896435261000022],[8.068856239000013,7.879503726999985],[8.067440033000025,7.9129133220000085],[8.06109714500002,7.9326472280000075],[8.055459023000026,7.965066433000004],[8.052639961000011,7.9883241649999945],[8.05052566500001,8.008057593999979],[8.047706603999984,8.029201508000028],[8.049820899999986,8.057392119999975],[8.059687613999984,8.082058906999976],[8.061801909999986,8.090517044000023],[8.084354400999985,8.10531711599998],[8.094221114999982,8.108840941999972],[8.112545012999988,8.125050545000022],[8.135098457000026,8.137736319999988],[8.152717590000009,8.151127814999995],[8.162584304999996,8.161699295000005],[8.16822242699999,8.187775611999996],[8.16822242699999,8.213147162999974],[8.166108130999987,8.237110137999991],[8.161879538999983,8.256843566999976],[8.163993834999985,8.278691292000019],[8.15624141699999,8.294197082999972],[8.146374702000003,8.299835205000022],[8.129460334999976,8.301949501000024],[8.115365027999985,8.309701920000009],[8.099859238000022,8.308997153999996],[8.091402054000014,8.306178093000028],[8.078011512999979,8.308292388999973],[8.06603050199999,8.315340042000003],[8.06109714500002,8.318159103000028],[8.058278083999994,8.32520675699999],[8.065325737000023,8.339302062999991],[8.085763930999974,8.352693557999999],[8.103383064000013,8.361150742000007],[8.126641273000018,8.366084098999977],[8.142850876000011,8.366084098999977],[8.15624141699999,8.368198394999979],[8.167517662000023,8.367493629000023],[8.191480636999984,8.379474640000012],[8.202756882000017,8.392160416000024],[8.207690238999987,8.407665253000005],[8.211918830999991,8.421056747000023],[8.212623596000014,8.43092346200001],[8.210509300000012,8.442199706999986],[8.205927848999977,8.456295012999988],[8.203108788000009,8.473209381000004],[8.198880196000005,8.483780861000014],[8.185489655000026,8.507039070000019],[8.178442001000008,8.517610549999972],[8.176327705000006,8.527477264000026],[8.174918175000016,8.538753509999992],[8.174082756000018,8.540981293000016],[8.174463272000025,8.544465064999997],[8.171746254000027,8.541749001000028],[8.167342185999985,8.540867805000005],[8.155008316000021,8.549677848999977],[8.145317078000005,8.55936813400001],[8.13034153000001,8.55936813400001],[8.116245269999979,8.568178176999993],[8.100388527000007,8.571702002999984],[8.08893585200002,8.578749657000003],[8.078363419000027,8.587559699999986],[8.065149307000013,8.593726157999981],[8.043125153000005,8.605178833000025],[8.025506020000023,8.610465050000016],[8.016695975999994,8.615750312999978],[8.001719475000016,8.621036530000026],[7.985862254999972,8.625441550999994],[7.977933407000023,8.63160800899999],[7.968242644999975,8.635131836000028],[7.954147338999974,8.635131836000028],[7.94798040400002,8.638655663000009],[7.94181346900001,8.643060683999977],[7.930361270999981,8.649227141999972],[7.928158759999974,8.651980400000014]]]},"properties":{"fid":496,"cty_nm":"Nigeria","iso3cd":"NGA","adm1nm":"Nassarawa","adm2nm":"Nassarawa","adm1cd":"NGA026","adm2cd":"NGA026009"}},{"type":"Feature","id":497,"geometry":{"type":"Polygon","coordinates":[[[8.530156136000016,8.884634017999986],[8.500348090999978,8.885327339000014],[8.468633651999994,8.889732360999972],[8.442204474999983,8.890612601999976],[8.405203819000008,8.888851165999995],[8.367321967999999,8.888851165999995],[8.335606574999986,8.89501762399999],[8.326797484999986,8.89325618700002],[8.303010941000025,8.887088775999985],[8.280105590999995,8.871232033000013],[8.265129089000027,8.859779358000026],[8.25130653399998,8.853444099],[8.254557610000006,8.84304046599999],[8.252796172999979,8.821897507000017],[8.253676413999983,8.812206268000011],[8.249272345999998,8.804278373999978],[8.245747565999977,8.794587134999972],[8.24662876100001,8.783134459999985],[8.24662876100001,8.772562981000021],[8.242223739999986,8.760229111000001],[8.238699913000005,8.752301215999978],[8.238699913000005,8.73908615099998],[8.240462303000015,8.725872040000013],[8.242223739999986,8.721467017999998],[8.251914978000002,8.718824386999984],[8.258962630999974,8.718824386999984],[8.258962630999974,8.708251953000001],[8.254557610000006,8.701204299999972],[8.251914978000002,8.69591903700001],[8.252355576000014,8.687108994000027],[8.242664337000008,8.67301368699998],[8.242664337000008,8.656274795999991],[8.252355576000014,8.65275096900001],[8.256760596999982,8.644822121000004],[8.25147437999999,8.632489204000024],[8.250752449000004,8.623824119999995],[8.248831748999976,8.604297637999991],[8.249407768000026,8.595650673000023],[8.24971198999998,8.591083527000023],[8.248800277999976,8.585612297000011],[8.247950553999999,8.580512047000013],[8.246627808000028,8.576280594000025],[8.243545531999985,8.566415786999983],[8.248831748999976,8.563773154999978],[8.258532523999975,8.559296608000011],[8.267332076999992,8.558487892000016],[8.269599915000015,8.559621811],[8.277903557000002,8.563773154999978],[8.282327651999992,8.567754745000002],[8.286712646000012,8.571702002999984],[8.29189205199998,8.581542015000025],[8.295522689999984,8.58844089500002],[8.302820205999978,8.598576546000004],[8.311380385999996,8.610465050000016],[8.316022873000009,8.612122536000015],[8.319465637000008,8.613351822000027],[8.326352118999978,8.615811348000022],[8.331860542000015,8.617778778000002],[8.336047172999997,8.619274139000026],[8.344266891000018,8.618247032],[8.346964835999984,8.617909430999987],[8.357191086,8.616631508000012],[8.360284804999992,8.615452765999976],[8.373452186999998,8.610437392999984],[8.375691414000016,8.609583854999983],[8.379706382999984,8.609315872000025],[8.38673591600002,8.608847618000027],[8.388905524999984,8.608702660000006],[8.39237022399999,8.608702660000006],[8.400358200000028,8.608702660000006],[8.404175758000008,8.610611915999982],[8.40916824300001,8.613107680999974],[8.423432349999985,8.615246773000024],[8.426787375999993,8.615750312999978],[8.431628226999976,8.616719246000002],[8.435596465999993,8.617512702999989],[8.448950767999975,8.624605179000014],[8.454380989000015,8.62895393399998],[8.460879325999997,8.63626384700001],[8.463788033000014,8.639536857999985],[8.46569728899999,8.640764235999995],[8.46919727300002,8.643013954000025],[8.474040031000015,8.646127701000012],[8.476121901999988,8.647465705999991],[8.479956626999979,8.648859978000019],[8.485812187000022,8.650989531999983],[8.492261886999984,8.651662826999996],[8.499171257,8.652384757999982],[8.503429412999992,8.652829170000018],[8.50838756600001,8.652807236000001],[8.514196395999988,8.652781487000027],[8.521050452999987,8.65275096900001],[8.535021782000001,8.65275096900001],[8.54043197599998,8.65275096900001],[8.548965453999983,8.656814574999999],[8.552252769000006,8.658380507999993],[8.558932303999995,8.661561011999993],[8.576488494999978,8.663086890999978],[8.579195023000011,8.66332244900002],[8.58459091200001,8.662512778999996],[8.592844963000005,8.661274909999975],[8.596814155999994,8.660679817000016],[8.624124526999992,8.662442207000026],[8.62620353699998,8.66256427799999],[8.639101028000027,8.66332244900002],[8.642668723999975,8.665388107000012],[8.645741462999979,8.667167663999976],[8.655838965999976,8.67301368699998],[8.657865523999988,8.674672127000008],[8.661743163999972,8.677844047999997],[8.665530204999982,8.680942534999986],[8.670436859000006,8.685148239],[8.677863120999973,8.691514014999996],[8.694602013000008,8.713538169999993],[8.699656487000027,8.721481322999978],[8.704634666000004,8.72930431399999],[8.706546783000022,8.733104706000006],[8.711339951000014,8.752301215999978],[8.713102341000024,8.768157959000007],[8.711515426999995,8.774188041999992],[8.70869731900001,8.784896850999985],[8.705965042000003,8.78699874900002],[8.700818061999996,8.790957450999997],[8.697244644000023,8.793705939999995],[8.694353104000015,8.794670105000023],[8.68138694800001,8.798992156999986],[8.67315006299998,8.801239013999975],[8.66748142199998,8.802784920000022],[8.663132668000003,8.803971290999982],[8.652315139999985,8.813968658000022],[8.649715424000021,8.814568520000023],[8.640862464999998,8.816611290000026],[8.640135765000025,8.820510864000028],[8.63954830199998,8.823658942999998],[8.636457442999983,8.823658942999998],[8.632933616999992,8.821897507000017],[8.620600700000011,8.816611290000026],[8.602910042000019,8.813309668999977],[8.60048580199998,8.81163120299999],[8.592409133999979,8.806039810000016],[8.579195023000011,8.79987335200002],[8.570384978999982,8.802515984000024],[8.557170868000014,8.805158614999982],[8.552765846,8.80868244200002],[8.543075562000013,8.812206268000011],[8.533988953000005,8.818140984000024],[8.530202866000025,8.820613861000027],[8.520170211999982,8.821897507000017],[8.509598731999972,8.824540137999975],[8.504312514999981,8.835992813000018],[8.500348090999978,8.837755202999972],[8.506514548999974,8.847445488000005],[8.51346397399999,8.853699683999992],[8.515324593000003,8.855374336000011],[8.519729614000028,8.862421988999984],[8.525896072000023,8.872993468999994],[8.531182289000014,8.87915992699999],[8.530156136000016,8.884634017999986]]]},"properties":{"fid":497,"cty_nm":"Nigeria","iso3cd":"NGA","adm1nm":"Nassarawa","adm2nm":"Nassarawa-Eggon","adm1cd":"NGA026","adm2cd":"NGA026010"}},{"type":"Feature","id":498,"geometry":{"type":"Polygon","coordinates":[[[9.008576392999998,8.400403976000007],[9.000871657999994,8.400875091999978],[8.995113372999981,8.40122795100001],[8.988110542000015,8.401656150999997],[8.981437683000024,8.40206432299999],[8.977712630999974,8.40319728899999],[8.972396850999985,8.404812812999978],[8.969581603999984,8.405686377999984],[8.967555045999973,8.405812262999973],[8.963749886000016,8.406049728000028],[8.959852219000027,8.406291962000012],[8.955657004999978,8.40620994599999],[8.952186584000003,8.406142235000004],[8.947560309999972,8.406051635999972],[8.945145606999972,8.406004906000021],[8.941824913000005,8.405554771000027],[8.935997009000005,8.404794692999985],[8.933865546999982,8.404516220000005],[8.930297852000024,8.404070853999997],[8.927387237999994,8.40370750400001],[8.922094345000005,8.403045653999982],[8.91424751300002,8.405497550999996],[8.911346435999974,8.405838965999976],[8.909307479999995,8.406078338999976],[8.905910491999975,8.406477928000015],[8.901350020999985,8.407048224999983],[8.894140244000027,8.40794944800001],[8.885287285000004,8.403330803000017],[8.88286018399998,8.40206432299999],[8.878116608000028,8.402977942999996],[8.874753951999992,8.402843474999997],[8.871514320000017,8.402959823999993],[8.866620064000017,8.402169227999991],[8.86322689100001,8.401620864999984],[8.856866836999984,8.400592803999984],[8.847548485000004,8.401083946000028],[8.841185569999993,8.402955055000007],[8.839210509999987,8.403535842999986],[8.836483002000023,8.403672217999997],[8.833024979000015,8.403844832999994],[8.829401969999992,8.404026031],[8.825478553999972,8.406969070000002],[8.818922997000016,8.410295485999995],[8.81373596200001,8.412927627999977],[8.80904865299999,8.41530609099999],[8.803518295000003,8.418992995999986],[8.801692009000021,8.420210838000003],[8.795881270999985,8.423183440999992],[8.785284042,8.428605080000011],[8.78060340899998,8.430999756000006],[8.775613785000019,8.437211036999997],[8.770794867999996,8.439337729999977],[8.76362323799998,8.445912361000012],[8.76058578499999,8.448696136000024],[8.759024619999991,8.45012760200001],[8.753034592000006,8.454919814999982],[8.749216079999997,8.457974433999993],[8.739312171999984,8.460886954999978],[8.73254108399999,8.462878226999976],[8.728585242999998,8.468070029999978],[8.724694252000006,8.473177910000004],[8.71922779099998,8.476342201000023],[8.715375900000026,8.478572844999974],[8.711226463000003,8.480101585],[8.70605754899998,8.48200607299998],[8.702993392999986,8.481449127000019],[8.70066261300002,8.481024741999988],[8.697184563000008,8.480430603000002],[8.693632126000011,8.479824065999992],[8.685570717000019,8.478447914000014],[8.680554389999998,8.477591514999972],[8.676386832999981,8.477847098999973],[8.672850609000022,8.477467536999995],[8.664860724999983,8.47661113700002],[8.657504082000003,8.478572844999974],[8.650917053,8.478751182999986],[8.647451401000012,8.478844643000002],[8.645230292999997,8.478904724000017],[8.641673088000005,8.479001045000018],[8.63935756699999,8.479063033999978],[8.636190413999998,8.479063033999978],[8.632982254000012,8.479063033999978],[8.62872409800002,8.477572441000007],[8.623173714000018,8.475629807000018],[8.617844581999975,8.470581055000025],[8.613855361999981,8.466801642999997],[8.611287117000018,8.457995415000028],[8.610422133999975,8.455031394999992],[8.60904789,8.44678783400002],[8.607858657999998,8.439653396999972],[8.607479094999974,8.437376022000024],[8.603830338000023,8.433105468999997],[8.601137160999997,8.43020629900002],[8.599142074999975,8.428057670999976],[8.597158432000015,8.424820899999986],[8.592820168000003,8.417742728999997],[8.589823722999995,8.412854195000023],[8.581707954000024,8.409303664999982],[8.576981543999977,8.407235146000005],[8.572686195000017,8.405356407],[8.566282272000024,8.402554511999995],[8.558756828000014,8.402554511999995],[8.555003166000006,8.402554511999995],[8.549508095000022,8.401675223999973],[8.544981002999975,8.400951384999985],[8.542741776000014,8.400592803999984],[8.535614967000015,8.39822101599998],[8.531018257000028,8.397133827000005],[8.52409172099999,8.395895957999983],[8.520181655999977,8.395197868000025],[8.51722717299998,8.395339012000022],[8.509882926999978,8.395689011000002],[8.502035141000022,8.397160530000008],[8.504978180000023,8.38686084699998],[8.506694793999998,8.357434273000024],[8.506694793999998,8.343212128000005],[8.508166313000004,8.326537131999999],[8.508166313000004,8.311823844999992],[8.510128021000014,8.292206764000014],[8.508166313000004,8.278964996000013],[8.508656502000008,8.260818481000001],[8.515276909000022,8.259346961999995],[8.529500008000014,8.253461838000021],[8.53832817099999,8.254933357000027],[8.550588607999998,8.254443169000012],[8.570206642000016,8.253461838000021],[8.588352203,8.253461838000021],[8.594728470000007,8.252481461000002],[8.621702194000022,8.259838103999982],[8.642300605999992,8.263270378000016],[8.661427498000023,8.264741898000011],[8.693305968999994,8.259838103999982],[8.72714614900002,8.258366584999976],[8.744801521,8.259346961999995],[8.76736164099998,8.265723228000013],[8.787469864000002,8.277983665000022],[8.800711632000002,8.283868789999985],[8.808068274999982,8.288283347999993],[8.827685356000018,8.289754867999989],[8.848773956000002,8.286321639999983],[8.858583450000026,8.284359931999973],[8.869863510000016,8.277493477000007],[8.884085654999978,8.276021957000012],[8.89095211,8.273079871999983],[8.915473937999991,8.274550438000006],[8.92969608300001,8.276021957000012],[8.944409370000017,8.279945374000022],[8.954709052999988,8.281416893000028],[8.959122658000013,8.281416893000028],[8.964762688000008,8.280926704000024],[8.973099708999996,8.280926704000024],[8.98160743699998,8.28533840199998],[8.986341476000007,8.287792206000006],[8.98832988700002,8.289283752000017],[8.99418926200002,8.29367828400001],[8.998602866999988,8.300053595999998],[9.000985146000005,8.303230285999973],[9.003016472000013,8.305938721000018],[9.007671356000003,8.30987739599999],[9.009392737999974,8.311333655999988],[9.011196136000024,8.316227912999977],[9.01282596599998,8.320652008000025],[9.013003348999973,8.323318481000001],[9.013316153999995,8.328008651999994],[9.013074874999973,8.335975646999998],[9.01282596599998,8.344192505000024],[9.011896132999993,8.351009368999996],[9.010179520000008,8.363595963000023],[9.009882926999978,8.365772246999995],[9.009737968000024,8.373896598999977],[9.00951194800001,8.386543274000019],[9.009392737999974,8.393236160000015],[9.008988380000005,8.396784781999997],[9.008576392999998,8.400403976000007]]]},"properties":{"fid":498,"cty_nm":"Nigeria","iso3cd":"NGA","adm1nm":"Nassarawa","adm2nm":"Obi","adm1cd":"NGA026","adm2cd":"NGA026011"}},{"type":"Feature","id":499,"geometry":{"type":"Polygon","coordinates":[[[7.40448522600002,8.042964934999986],[7.400883197999974,8.050168991000021],[7.393663882999988,8.070221901000025],[7.389653205999991,8.087868689999993],[7.383236408000016,8.103911400000015],[7.381631851000009,8.118350028999998],[7.381631851000009,8.144820213000003],[7.3880491259999985,8.168884277000018],[7.3928618429999915,8.192145347999997],[7.399279117999981,8.205781936999983],[7.408904552000024,8.225834845999998],[7.41612386700001,8.245888709999974],[7.425749301999986,8.257920264999996],[7.432968615999982,8.268348693999997],[7.432166100000018,8.273962975000018],[7.431364058999975,8.283588409000004],[7.432166100000018,8.291609763999986],[7.434572697000021,8.300433159000022],[7.432166100000018,8.308454514000005],[7.432166100000018,8.317277907999994],[7.436978817000011,8.326101302999973],[7.442594051000015,8.334122658000013],[7.442594051000015,8.34535312700001],[7.438583374000018,8.354978560999996],[7.431364058999975,8.38144874599999],[7.432166100000018,8.407116889999998],[7.444198131999997,8.427169800000001],[7.465053558000022,8.457651138000017],[7.484304904999988,8.481715201999975],[7.499545097000009,8.507383346999973],[7.505160332000003,8.525832175999994],[7.514785766999978,8.537062644999992],[7.518796443999975,8.552302360999988],[7.522005080999975,8.573158264000028],[7.523609161000024,8.594013213999972],[7.519598484000028,8.605243683000026],[7.520400524000024,8.61085796399999],[7.522005080999975,8.615671157999998],[7.522005080999975,8.624494552999977],[7.517994403999978,8.638933182000017],[7.512379168999985,8.64695453600001],[7.499545097000009,8.650162696999985],[7.493228435999981,8.650736809000023],[7.479258537000021,8.632776260000014],[7.477623462999986,8.631333351000023],[7.443030834000012,8.593281746000002],[7.4181270600000175,8.569902420000005],[7.389157295000018,8.545507430999976],[7.368616581000026,8.529129028],[7.3423995969999964,8.510438919000023],[7.312413215999982,8.500782012999991],[7.2711839680000026,8.49246597299998],[7.210765362000018,8.480960846000016],[7.162991046999991,8.473337173000004],[7.1167411800000195,8.46622180899999],[7.084213734000002,8.463680266999972],[7.057121753999979,8.462965011999984],[7.025258064000013,8.461647986999992],[6.991440773000022,8.459823608000022],[6.984174728000028,8.459377288999974],[6.969562531000008,8.391315459999987],[6.9576125140000045,8.374769211],[6.955773829999998,8.359142302999999],[6.951177597000026,8.346272468999985],[6.941985129999978,8.322372437000013],[6.934631347999982,8.310421943999984],[6.934631347999982,8.301229476999993],[6.941065788000003,8.292956351999976],[6.953016280999975,8.283763884999985],[6.9594507219999855,8.275490761000015],[6.9649662969999895,8.265378951999992],[6.970481872999983,8.245155334000003],[6.972320556999989,8.224931717000004],[6.979674338999985,8.211143493999998],[6.992543696999974,8.195515633000014],[7.000817299000005,8.181727409000018],[7.002655505999996,8.167018890000008],[6.997139930999992,8.153230667000003],[6.983351230999972,8.115541457999996],[6.987028598999984,8.092559814000026],[6.987028598999984,8.077852248999989],[6.977376461000006,8.050274849000004],[6.970941544000027,8.030051231000016],[6.972780227999976,8.019939422999983],[6.979214667999997,8.000635147000025],[6.978295326000023,7.985927581999988],[6.963587760999985,7.960188388999995],[6.960829735000004,7.942722796999988],[6.957152843000017,7.929853438999999],[6.952556609999988,7.917903422999984],[6.954395293999994,7.905033587999981],[6.959910392999973,7.89676046400001],[6.9626684190000105,7.887567997000019],[6.963587760999985,7.879294872000003],[6.96654653500002,7.8790612220000185],[6.979474545000016,7.887680053999986],[7.006289004999985,7.9025235180000095],[7.0354971890000115,7.92311334599998],[7.072845459000007,7.942744731999994],[7.117855071999998,7.959024906000025],[7.195903300999987,7.993021488000011],[7.253840922999984,8.015047073000005],[7.305553912999983,8.02558135999999],[7.393178463000027,8.04186153400002],[7.40448522600002,8.042964934999986]]]},"properties":{"fid":499,"cty_nm":"Nigeria","iso3cd":"NGA","adm1nm":"Nassarawa","adm2nm":"Toto","adm1cd":"NGA026","adm2cd":"NGA026012"}},{"type":"Feature","id":500,"geometry":{"type":"Polygon","coordinates":[[[8.907392501999993,9.01932334899999],[8.898164748999989,9.021048545999975],[8.894920349000017,9.02236080199998],[8.88839244799999,9.022071837999988],[8.88535499599999,9.021609306000016],[8.875513076999994,9.025360106999983],[8.865810393999993,9.026860236999994],[8.861964225999998,9.02668952900001],[8.850249290000022,9.030030251000028],[8.844481468000026,9.029773712000008],[8.838712692000001,9.029518127000017],[8.823241234000022,9.030761718999997],[8.81172561599999,9.03030204800001],[8.806030272999976,9.032741547],[8.798154830999977,9.031578063999973],[8.794041633999996,9.037186623000025],[8.789928436000025,9.042796135000003],[8.789750099000003,9.046648978999997],[8.789483070000017,9.052428245999977],[8.793061255999987,9.058379172999992],[8.794805526999994,9.06231784800002],[8.796550750999984,9.06625556900002],[8.799438477000024,9.071156502000008],[8.795664787000021,9.075638771000001],[8.791902542000003,9.083423615000015],[8.784123421000004,9.085009575000015],[8.78018856,9.086765289000027],[8.778176308000013,9.088605880999978],[8.774152755999978,9.092288016999987],[8.768846511999982,9.095305442999972],[8.768506049999985,9.097863196999981],[8.76409339899999,9.101494789000014],[8.760068892999982,9.105176926000013],[8.761635780000006,9.112968444999979],[8.761457442999983,9.116821288999972],[8.761279106000018,9.120674133000023],[8.764768600000025,9.128550528999995],[8.767522811999982,9.136285782000016],[8.767901420999976,9.144135474999985],[8.767710685999987,9.149915695000004],[8.767553329000009,9.15742015799998],[8.764998435999985,9.16524124099999],[8.76106452900001,9.166996955999991],[8.755027771000016,9.17252063799998],[8.748991966000006,9.178043365000008],[8.746224402999985,9.178644179999992],[8.739396095000018,9.180125237000027],[8.733431816000007,9.181214333000014],[8.72171688100002,9.184555053999986],[8.71201324499998,9.186054230000025],[8.708078383999975,9.18780994399998],[8.696332932000018,9.187096596000004],[8.690773009999987,9.187042236000025],[8.687015533000022,9.184944153000004],[8.681159019000006,9.18661499000001],[8.67731285100001,9.186444283000014],[8.673289298999975,9.190126419000023],[8.66752147699998,9.189869880999993],[8.663496970999972,9.193552970999974],[8.661484717999997,9.195393561999992],[8.657807349999985,9.207689285000015],[8.656348228000013,9.197079658999996],[8.65477466599998,9.187271118000012],[8.65338802299999,9.183591842999988],[8.649191856000016,9.171326636999993],[8.645145415999991,9.163964271999987],[8.641136168999992,9.157826424000007],[8.635703087000024,9.146783829000015],[8.630307198000025,9.13696670500002],[8.628921509000008,9.133287429999996],[8.626185416999988,9.127152443],[8.623450278999996,9.121018409999976],[8.620715141000005,9.11488437700001],[8.61678028099999,9.111198424999998],[8.610223770000005,9.105054854999992],[8.604977608000013,9.100140571999987],[8.594523429999981,9.091536522000013],[8.586617470000022,9.082938194000008],[8.579985619000013,9.074343681000016],[8.57605171199998,9.070657729999994],[8.570730208999976,9.063291549999974],[8.566833496000015,9.060831070000006],[8.564023018,9.052246093999997],[8.562450409000007,9.042438506999986],[8.559677124000018,9.035079001999975],[8.559490203999985,9.028950690999977],[8.554131508000012,9.020359039000027],[8.547574042999997,9.014216422999993],[8.541091918999996,9.010523795999973],[8.533261299000003,9.004377364999982],[8.521719932999986,9.001897811999982],[8.51403904,9.000653267000018],[8.508942604000026,9.000640868999994],[8.504345893999982,9.001431464999996],[8.508348464999983,8.987790108000013],[8.509158134000018,8.984876632999999],[8.514698982000027,8.961095810000018],[8.515280723999979,8.95459937999999],[8.517654418999996,8.936203003000003],[8.517967224000017,8.933780669999976],[8.51934814499998,8.92710495],[8.520809174000021,8.920042991999992],[8.523253441000008,8.908232688999988],[8.524271010999996,8.905349731000001],[8.528538704000027,8.89325618700002],[8.530156136000016,8.884634017999986],[8.531182289000014,8.87915992699999],[8.525896072000023,8.872993468999994],[8.519729614000028,8.862421988999984],[8.515324593000003,8.855374336000011],[8.51346397399999,8.853699683999992],[8.506514548999974,8.847445488000005],[8.500348090999978,8.837755202999972],[8.504312514999981,8.835992813000018],[8.509598731999972,8.824540137999975],[8.520170211999982,8.821897507000017],[8.530202866000025,8.820613861000027],[8.533988953000005,8.818140984000024],[8.543075562000013,8.812206268000011],[8.552765846,8.80868244200002],[8.557170868000014,8.805158614999982],[8.570384978999982,8.802515984000024],[8.579195023000011,8.79987335200002],[8.592409133999979,8.806039810000016],[8.60048580199998,8.81163120299999],[8.602910042000019,8.813309668999977],[8.620600700000011,8.816611290000026],[8.632933616999992,8.821897507000017],[8.636457442999983,8.823658942999998],[8.63954830199998,8.823658942999998],[8.63902187299999,8.826942443999997],[8.642829894999977,8.829318999999998],[8.644734383000014,8.830507278000027],[8.651628494000022,8.832942962999994],[8.659679412999992,8.835401535000017],[8.666620254999998,8.835537910000028],[8.67471981,8.835696219999988],[8.684000014999981,8.834727287000021],[8.692096709999987,8.834885596999982],[8.699040412999977,8.835021972999982],[8.708292960999984,8.835202217000017],[8.712923049999972,8.835292815999992],[8.725646972999982,8.835541724999985],[8.732589722,8.835678100999985],[8.744136809999986,8.83705425300002],[8.753366470000003,8.838385582],[8.766070366000008,8.839784622000025],[8.76953983300001,8.839853286999983],[8.776456832999997,8.841138839999985],[8.78566646600001,8.843620299999998],[8.791426659000024,8.844883918999983],[8.799476624000022,8.847343444999979],[8.806296348999979,8.853230476000022],[8.814299582999979,8.857989310999983],[8.820036888000004,8.860403061],[8.824522972000011,8.86739540100001],[8.830163002000006,8.87441062900001],[8.834600448999993,8.883703232000016],[8.837973594999994,8.888372420999985],[8.846966742999996,8.901206016999993],[8.851427077999972,8.909347534000005],[8.858176231000016,8.91868686700002],[8.867217063999988,8.929220199999975],[8.873893737999992,8.942008971999996],[8.877122879000012,8.95357990299999],[8.886236191000023,8.960662841999977],[8.897397040999977,8.980443954000009],[8.902870178,8.99551010099998],[8.905039787000021,9.002457618999983],[8.909130096000013,9.01647090900002],[8.907392501999993,9.01932334899999]]]},"properties":{"fid":500,"cty_nm":"Nigeria","iso3cd":"NGA","adm1nm":"Nassarawa","adm2nm":"Wamba","adm1cd":"NGA026","adm2cd":"NGA026013"}}]}