{"type":"FeatureCollection","features":[{"type":"Feature","id":267,"geometry":{"type":"Polygon","coordinates":[[[11.022908211000015,10.375184058999992],[10.99153327900001,10.377703666999992],[10.981073379999998,10.378621101000022],[10.968886375000011,10.378918648000024],[10.956107139999972,10.37978267699998],[10.938013076999994,10.385163307000028],[10.921030045000009,10.392889976999982],[10.910510063000004,10.396705627000017],[10.898889542000006,10.397596358999976],[10.893080710999982,10.398041724999985],[10.881461143000024,10.398932457],[10.869285583000021,10.398649216000024],[10.856567383000026,10.396614075000002],[10.847303391000025,10.395819663999987],[10.837447166000004,10.395590782],[10.835072517000015,10.395102500999997],[10.834033965999993,10.381135941000025],[10.83386421199998,10.365008353999997],[10.833729743999982,10.352337836999993],[10.833607674000007,10.340818404999993],[10.83116245299999,10.331632614],[10.829841613999974,10.31782436399999],[10.828570366000008,10.308624268000017],[10.826063155999975,10.293679236999992],[10.831812859000024,10.282085418999998],[10.845745087000012,10.26693153399998],[10.857159615,10.23568153399998],[10.851166724999985,10.224235534999991],[10.839326858999982,10.215169907000018],[10.835629462999975,10.204093933000024],[10.830290794000007,10.196922302000019],[10.823796271999981,10.188199042999997],[10.819883346999973,10.181147575000011],[10.81722640999999,10.169485092000002],[10.818640709000022,10.157336235000002],[10.818917274,10.144064903000015],[10.817753792000019,10.141707419999989],[10.815175055999987,10.128833771000018],[10.811818123000023,10.122956276000025],[10.806177138999999,10.115283965999993],[10.796998024000004,10.110430716999986],[10.79063320199998,10.109703063999973],[10.78017330199998,10.11061954500002],[10.77028083800002,10.112131119000026],[10.760685921000004,10.113011359999973],[10.749928474,10.114559174000021],[10.740652083999976,10.114344597000013],[10.730204581999999,10.114681243999996],[10.718596457999979,10.114992142000006],[10.700672150000003,10.112256049999985],[10.693126677999999,10.097455978000028],[10.684513091999975,10.080558777000022],[10.689924239999982,10.071404457000028],[10.695251465000013,10.066307068000015],[10.714216232000012,10.051123619000009],[10.717475890999992,10.049853325000015],[10.727671622999992,10.041537285000004],[10.740003586,10.034282684000004],[10.75116443600001,10.027581214999998],[10.763508796999986,10.01974773400002],[10.775261879000027,10.012479782000014],[10.788445473000024,10.006125450000013],[10.794776916999979,10.000296592999973],[10.802899361000016,9.990977287000021],[10.812171936000027,9.979338645999974],[10.824990273000026,9.969960212999979],[10.841357231000018,9.962840079999978],[10.857723236000027,9.955719948000024],[10.865881919999993,9.94985675800001],[10.875178337000023,9.940522193999982],[10.906676291999986,9.920537948999993],[10.928464889999987,9.909826279000015],[10.933035851,9.901291846999982],[10.936322211999993,9.882806777999974],[10.938279152000007,9.872410774000002],[10.940864562999991,9.859709740000028],[10.941662787999974,9.849287987000025],[10.944345473999988,9.831948280000006],[10.950119971999982,9.805400847999977],[10.955904960999987,9.806115149999982],[10.960506439000028,9.807961464000016],[10.964529036999977,9.809795380000025],[10.973769188000006,9.811749458000008],[10.979039192000016,9.813121796000019],[10.989966392999975,9.813865662000012],[10.996343613000022,9.814013481000018],[11.005631446999985,9.813649177999991],[11.013168334999989,9.8138237],[11.020077705000006,9.816304206999973],[11.027492522999978,9.822277068999995],[11.03319454199999,9.82704925500002],[11.038894653,9.831822395000017],[11.044015883999975,9.836581229999979],[11.050114631999975,9.85006427799999],[11.051672935,9.858800888000019],[11.053725242999974,9.871609687999978],[11.055814742999985,9.882678985999974],[11.057395934999988,9.890255927999988],[11.061828612999989,9.900219917000015],[11.067975998000009,9.911382675000027],[11.07130909,9.918420792000006],[11.075778007999986,9.926645279000013],[11.084824561999994,9.93787574800001],[11.096878052000022,9.943955420999998],[11.10667324100001,9.94708347300002],[11.11937999700001,9.949698447999992],[11.129816054999992,9.949940680999987],[11.14137458800002,9.951949119999995],[11.151774406000015,9.95392990099998],[11.165097236999998,9.954819679000025],[11.177235602999986,9.956841468999983],[11.187006950000011,9.96112823499999],[11.195026397999982,9.965954780999994],[11.204133033999994,9.974286079000024],[11.210957527000005,9.980825423999988],[11.224110602999986,9.989830971000004],[11.237360001000013,9.994198799000003],[11.255937576000008,9.993469237999989],[11.273511886999984,9.985177039999996],[11.278790474000004,9.98239898700001],[11.284721375000004,9.976156235000019],[11.291143417,9.968338012999993],[11.299324035999973,9.971274375999997],[11.307971953999981,9.97379493699998],[11.323480605999976,9.98111534100002],[11.332659721000027,9.985968590000027],[11.342479706000006,9.987936973999979],[11.355161667000004,9.991711617000021],[11.373689651000007,9.993301391999978],[11.389368057000013,9.992505074000007],[11.401688576000026,9.985830307000015],[11.409914017000006,9.980800628999987],[11.416943549999985,9.977483748999987],[11.446319580000022,9.959604263000017],[11.458132744000011,9.949437140999976],[11.480320930000005,9.94241142300001],[11.489645957999983,9.940307616999974],[11.500698090000014,9.9388237],[11.506495475999998,9.938958168],[11.515783310000018,9.938593863999984],[11.523356438000008,9.93702983899999],[11.523296356000003,9.939928054999996],[11.522510528999987,9.949770926999975],[11.52280044600002,9.963698387000022],[11.523185730000023,9.972988128999987],[11.526373863000003,9.986983298999974],[11.533511162000025,10.006290435999972],[11.538511276000008,10.016846656999974],[11.539426804000016,10.02160453800002],[11.530756950000011,10.027108192000014],[11.520151138000017,10.034982680999974],[11.512529373000007,10.038866042999985],[11.492720603999999,10.043046951000008],[11.471837043999983,10.043142319000026],[11.456232070999988,10.040459633000012],[11.445832252999992,10.03847885099998],[11.43136215200002,10.036982535999982],[11.423789023999973,10.038548470000023],[11.411022186000025,10.038830757000028],[11.40404129000001,10.039829253999983],[11.395283699000004,10.042526244999976],[11.37832546200002,10.049093245999984],[11.371912002999977,10.050684928999999],[11.364906311000027,10.052842139999996],[11.355532645999972,10.057265282000003],[11.347863196999981,10.063467978999995],[11.337813376999975,10.072514533999993],[11.330722809000008,10.07873153700001],[11.324804305999976,10.084394454999995],[11.320069312999976,10.088924408000025],[11.315889358999982,10.094628333999992],[11.308751105999988,10.103162766000025],[11.304016112999989,10.107693671999982],[11.298072815000012,10.11451625799998],[11.293313979999994,10.120205879000025],[11.289122581000015,10.126489638999999],[11.283166885000014,10.133892059000004],[11.277235985000004,10.140134810999996],[11.270713806000003,10.146944045999987],[11.264166832,10.154912948999993],[11.256460189999984,10.162854195000023],[11.248199462999992,10.169623375000015],[11.235865593000028,10.176877975000025],[11.22585296599999,10.184185981999974],[11.213556289999985,10.18970108000002],[11.209413528000027,10.193666457999996],[11.201683043999992,10.20276641800001],[11.199834823999993,10.207943915999977],[11.196790695000004,10.214834213000017],[11.19261074100001,10.220537186000001],[11.190182686000014,10.225701332000028],[11.190037727000004,10.232658386000026],[11.190496445000008,10.238470077999978],[11.192706107999982,10.243741035000028],[11.196595192000018,10.251952171000028],[11.199976920999973,10.256670951999979],[11.204518317999998,10.261416435000001],[11.209650993000025,10.265596389999985],[11.211209296999982,10.274333000000013],[11.211039543000027,10.282449722000024],[11.207910538000021,10.293397903000027],[11.203671455000006,10.30200004599999],[11.200675010999987,10.306571007000002],[11.197614670000007,10.31315422099999],[11.195311546000028,10.313406944000008],[11.192352294999978,10.316238403],[11.191120147999982,10.319690703999981],[11.189876556000002,10.323721885999987],[11.186227798000004,10.331757545000016],[11.179850578000014,10.33160972600001],[11.173521995999977,10.329142569999988],[11.167808533000027,10.324950218000026],[11.16603279100002,10.32278346999999],[11.173123359999977,10.32043266300002],[11.180817604000026,10.313071250999997],[11.18320941899998,10.309645653000018],[11.18619346600002,10.305654526000012],[11.192751884000018,10.297106742999972],[11.198706626999979,10.289704323000024],[11.201147079000009,10.283960342],[11.200737000000004,10.275830268999982],[11.197898865000013,10.272864341999991],[11.191641807999986,10.266918181999984],[11.186545372000012,10.260999679999998],[11.178549766999993,10.25501346599998],[11.17519187900001,10.249135017000015],[11.172463417000017,10.24095153799999],[11.165541648999977,10.239050865000024],[11.157219886999997,10.248718262000011],[11.151252747000001,10.256701469000006],[11.143003464000003,10.262889862000009],[11.137095450999993,10.267972945999986],[11.130017280999994,10.273609161000024],[11.12581443800002,10.280471802000022],[11.122794150999994,10.286202430999992],[11.122105598000019,10.291406630999973],[11.12140464800001,10.297190666000006],[11.121247292000021,10.304729462000012],[11.122853279000026,10.311145781999983],[11.123951911999995,10.31407165500002],[11.126645087999975,10.323994636999998],[11.118347168000014,10.332503319000011],[11.113467216000004,10.343990325999982],[11.109843253999998,10.350867271000027],[11.099249840000027,10.35816192599998],[11.090565680999987,10.357379912999988],[11.074356078999983,10.355843543999981],[11.05981254599999,10.357827186999998],[11.045826911999995,10.360982895000006],[11.035885811000014,10.364811896999981],[11.026524543999983,10.368655204999982],[11.022908211000015,10.375184058999992]]]},"properties":{"fid":267,"cty_nm":"Nigeria","iso3cd":"NGA","adm1nm":"Gombe","adm2nm":"Akko","adm1cd":"NGA016","adm2cd":"NGA016001"}},{"type":"Feature","id":268,"geometry":{"type":"Polygon","coordinates":[[[11.82860374500001,10.053877831000023],[11.825482367999996,10.051927567000007],[11.816169738999974,10.05345153799999],[11.809139252000023,10.056768417],[11.80033397699998,10.061784744000022],[11.791432380999993,10.071438789000013],[11.782602310000016,10.07761478399999],[11.767431258999977,10.081903458],[11.747647285000028,10.08492374399998],[11.73372077900001,10.085181235999983],[11.726762771999972,10.08502006499998],[11.716352463000021,10.083618163999972],[11.706483841000022,10.083969115999992],[11.697195052999973,10.084333420000007],[11.689053535000028,10.085305214000016],[11.683799743999998,10.086922646000005],[11.669898032999981,10.086020469999994],[11.657794952000017,10.082259178000015],[11.64795112600001,10.081451415999993],[11.639266968000015,10.080669403000002],[11.63233375499999,10.079348563999986],[11.623698235000006,10.076248168999996],[11.615074158000027,10.072567939999999],[11.599010468000017,10.064075469999977],[11.588707924000005,10.05745506300002],[11.58079624200002,10.047410964999983],[11.571702002999984,10.038498877999984],[11.565434455999991,10.033132552999973],[11.553367615000013,10.027632713000003],[11.545915604000015,10.023399353000002],[11.539426804000016,10.02160453800002],[11.538511276000008,10.016846656999974],[11.533511162000025,10.006290435999972],[11.526373863000003,9.986983298999974],[11.523185730000023,9.972988128999987],[11.52280044600002,9.963698387000022],[11.522510528999987,9.949770926999975],[11.523296356000003,9.939928054999996],[11.523356438000008,9.93702983899999],[11.52347755400001,9.931232452000017],[11.523634910999988,9.923694610999974],[11.523817061999978,9.914999007999995],[11.52398681599999,9.906882285999984],[11.527006148999988,9.901151657000014],[11.53589630099998,9.892077445999973],[11.555343628000003,9.877447127999972],[11.565912247000028,9.871312140999976],[11.574211121000019,9.862804412999992],[11.577992439000013,9.84839057900001],[11.578343390999976,9.831577300999982],[11.579116821000014,9.82231426200002],[11.578815459999987,9.808966637000026],[11.576725959999976,9.797897338999974],[11.576365470999974,9.787447928999995],[11.574807167000017,9.778711319000024],[11.569891929999983,9.764096259999974],[11.56847953800002,9.748402596000005],[11.566921234000006,9.739665031000015],[11.556208610999988,9.724915504000023],[11.54821300499998,9.718930243999978],[11.53675079300001,9.712283134000018],[11.527559279999991,9.708009720000007],[11.520082473999992,9.70493602800002],[11.504538535999984,9.699355125000011],[11.496433258000025,9.698587417999988],[11.48832893399998,9.697818756000004],[11.467432975999998,9.698493957999972],[11.458712578000018,9.699452399999984],[11.454642295999975,9.699937820000002],[11.446573257000011,9.697430611000016],[11.436270713999988,9.690811156999985],[11.432321548000004,9.68549919100002],[11.426656723000008,9.678986549000001],[11.424398422000024,9.676033974000006],[11.41873455000001,9.669522285000028],[11.417067528000018,9.666003226999976],[11.414265633000014,9.661297798000021],[11.412031173999992,9.657185555000012],[11.408130646000018,9.649555206000002],[11.40646362299998,9.646036148000007],[11.403734207000014,9.63785171500001],[11.401548386000002,9.631421089000014],[11.400522232000014,9.625016211999991],[11.393831252999973,9.612100601000009],[11.391774177999991,9.604997635000018],[11.391125679000027,9.602757454000027],[11.38838481900001,9.59515285499998],[11.382212638999988,9.58514881100001],[11.380015372999992,9.579297065999981],[11.376186371000017,9.568187713999976],[11.375667571999998,9.565275192000001],[11.374652862999994,9.558291435000001],[11.374762535000002,9.553073883000025],[11.37385177599998,9.546802521000018],[11.381297112000027,9.545684814000026],[11.393471718,9.54596710200002],[11.405684470999972,9.544509887999993],[11.420153617999972,9.54600620299999],[11.427641869000013,9.548500061000027],[11.42959880799998,9.549625397],[11.433946608999975,9.552126884000018],[11.44189357800002,9.560431479999977],[11.442859650000003,9.569734573000005],[11.444465637000008,9.576152802000024],[11.447883606000005,9.579132080000022],[11.452939033999996,9.584775924999974],[11.461077690000025,9.592765808000024],[11.468048096000018,9.59847068800002],[11.473844527999972,9.600746155000024],[11.484278678999999,9.604154586999982],[11.49122238199999,9.604138374000001],[11.501655578999987,9.607546806000016],[11.506284714000003,9.607536315999994],[11.515543938000008,9.607515335000016],[11.527322769000023,9.608237266999993],[11.545625686999983,9.60515880600002],[11.56298637399999,9.60511875200001],[11.571093559000019,9.606244086999993],[11.578042983999978,9.607372284000007],[11.583835602000022,9.608503342000006],[11.588470459000007,9.60963726],[11.598887444000013,9.609613419000027],[11.60816192599998,9.613024712000026],[11.615117073000022,9.615296364000017],[11.624402999999973,9.620996475000027],[11.63252544400001,9.625554084999976],[11.636013984999977,9.628978728999982],[11.645288467,9.632390021999981],[11.654569626000011,9.636945723999986],[11.660382271000003,9.642653465000024],[11.663881301999993,9.648365974],[11.672015190000025,9.655212402000018],[11.677817344999994,9.658631324999988],[11.683626174999972,9.663194655999973],[11.688261032000014,9.664328575000013],[11.696383475999994,9.66888618500002],[11.699039459000005,9.671813965000013],[11.700855255000022,9.673814773999993],[11.706865311000001,9.676787375999993],[11.711619376999977,9.680097579999995],[11.716515540999978,9.683506965999982],[11.718504906000021,9.684776306000003],[11.724423408999996,9.68904590599999],[11.72657680499998,9.690556526000023],[11.731227875000002,9.695122718999983],[11.735877990999995,9.69968891100001],[11.73819255799998,9.699683188999984],[11.746321678000015,9.705385207999996],[11.74980926500001,9.708809852999991],[11.755633353999997,9.71680545800001],[11.756587981999985,9.718674659999976],[11.757968903000005,9.721377372999996],[11.763777732999984,9.725940703999981],[11.768417358000022,9.728218078999987],[11.775382996000019,9.732779503000017],[11.778871535999997,9.736203193999984],[11.785837173000004,9.740764618000014],[11.79745864900002,9.751034736999998],[11.803272246999995,9.756742476999989],[11.812546730000008,9.760153769999988],[11.820670128000017,9.764712334000023],[11.823396682999999,9.766050339000003],[11.827630043,9.76812839500002],[11.833433151000008,9.771548270999972],[11.835753441000008,9.772686958000008],[11.840398788000016,9.77610874200002],[11.847374915999978,9.782958031000021],[11.850863457000003,9.786381720999998],[11.853193282999996,9.789809226999978],[11.85668182400002,9.793233870999984],[11.857850074999988,9.795519829],[11.85786056500001,9.797807692999982],[11.854462624000007,9.813834190000023],[11.853325843999983,9.818412781000006],[11.849880219,9.824141501999975],[11.848738669999989,9.827576636999993],[11.840700149999975,9.841324805999989],[11.837286948999974,9.853919028999996],[11.836150169000007,9.85849857300002],[11.836172104000013,9.863074303000019],[11.836197852999987,9.868795395000006],[11.839738845999989,9.883661270000005],[11.843243599000004,9.890518187999987],[11.844410896,9.892804146000003],[11.84674739799999,9.89737606],[11.847920418000001,9.900805472999991],[11.850267410000015,9.907665253000005],[11.851440430000025,9.911094665999997],[11.85262394,9.916812897],[11.853808403000016,9.922531128000003],[11.854986191000023,9.92710495],[11.853945732,9.95227909099998],[11.852820396000027,9.959146499999974],[11.851694107000014,9.96601390799998],[11.850584984000022,9.976313591000007],[11.850605965,9.980891228000019],[11.850626944999988,9.985466957000028],[11.852990149999982,9.995759009999972],[11.855346680000025,10.004907607999996],[11.854205132000004,10.008342743000014],[11.851922034999973,10.015213012999993],[11.849638938999988,10.022083281999983],[11.84734535199999,10.026664734000008],[11.84505653399998,10.032390593999992],[11.843910216999973,10.034681320000004],[11.843921661000024,10.036970139000005],[11.843942642000002,10.041546821999987],[11.843390465000027,10.044589996000013],[11.838540077000005,10.045049667],[11.833379745000002,10.048069954000027],[11.831230163999976,10.052479743999982],[11.82860374500001,10.053877831000023]]]},"properties":{"fid":268,"cty_nm":"Nigeria","iso3cd":"NGA","adm1nm":"Gombe","adm2nm":"Balanga","adm1cd":"NGA016","adm2cd":"NGA016002"}},{"type":"Feature","id":269,"geometry":{"type":"Polygon","coordinates":[[[11.291143417,9.968338012999993],[11.284721375000004,9.976156235000019],[11.278790474000004,9.98239898700001],[11.273511886999984,9.985177039999996],[11.255937576000008,9.993469237999989],[11.237360001000013,9.994198799000003],[11.224110602999986,9.989830971000004],[11.210957527000005,9.980825423999988],[11.204133033999994,9.974286079000024],[11.195026397999982,9.965954780999994],[11.187006950000011,9.96112823499999],[11.177235602999986,9.956841468999983],[11.165097236999998,9.954819679000025],[11.151774406000015,9.95392990099998],[11.14137458800002,9.951949119999995],[11.129816054999992,9.949940680999987],[11.11937999700001,9.949698447999992],[11.10667324100001,9.94708347300002],[11.096878052000022,9.943955420999998],[11.084824561999994,9.93787574800001],[11.075778007999986,9.926645279000013],[11.07130909,9.918420792000006],[11.067975998000009,9.911382675000027],[11.061828612999989,9.900219917000015],[11.057395934999988,9.890255927999988],[11.055814742999985,9.882678985999974],[11.053725242999974,9.871609687999978],[11.051672935,9.858800888000019],[11.050114631999975,9.85006427799999],[11.044015883999975,9.836581229999979],[11.038894653,9.831822395000017],[11.03319454199999,9.82704925500002],[11.027492522999978,9.822277068999995],[11.020077705000006,9.816304206999973],[11.013168334999989,9.8138237],[11.005631446999985,9.813649177999991],[10.996343613000022,9.814013481000018],[10.989966392999975,9.813865662000012],[10.979039192000016,9.813121796000019],[10.973769188000006,9.811749458000008],[10.964529036999977,9.809795380000025],[10.960506439000028,9.807961464000016],[10.955904960999987,9.806115149999982],[10.950119971999982,9.805400847999977],[10.950881003999996,9.796717644000012],[10.949975967,9.784515381000006],[10.949649810999972,9.772327422999979],[10.949288367999998,9.76187801399999],[10.948938370000008,9.750849723999977],[10.949796676999995,9.737527847000024],[10.95003890999999,9.725933075],[10.95028019,9.714367867000021],[10.953191757000013,9.713825225999983],[10.960777283000027,9.711681365999993],[10.968350410000028,9.710116385999982],[10.977945327999976,9.707723617999989],[10.98237419100002,9.705221176000009],[10.988810538999985,9.70247077900001],[11.008125305000021,9.694217681999987],[11.015155791999973,9.690900802999977],[11.023332595999989,9.688190459999987],[11.035580634999974,9.684994698000025],[11.056572914000014,9.679680824000002],[11.062406539999984,9.67807578999998],[11.07056045500002,9.676525115999993],[11.089160918999994,9.674636840999995],[11.09668541000002,9.67539119700001],[11.10535812400002,9.676753044000009],[11.113993644999994,9.679853438999999],[11.121458054000016,9.683506965999982],[11.128306388999988,9.688885689000017],[11.134043694000013,9.691919326999994],[11.145554543000003,9.696247100999983],[11.154769896999994,9.69936084699998],[11.163949012999979,9.704214095999987],[11.173152924000021,9.70790767699998],[11.181197166000004,9.71157455399998],[11.188069343999985,9.715794562999974],[11.198396682999999,9.721254348999992],[11.205245018000028,9.726634026],[11.20916938800002,9.733105658999989],[11.213070868999978,9.740736007999999],[11.216391563000002,9.748353957999996],[11.219700812999974,9.756551742999989],[11.225738524999997,9.772933006000017],[11.231717109999977,9.792212485999983],[11.233842849999974,9.801543235999986],[11.23648738899999,9.813784598999973],[11.239796637999973,9.821982384000023],[11.241293907,9.833618163999972],[11.24160671200002,9.846385956000006],[11.241835594000008,9.863212584999985],[11.242185592999988,9.874241829000027],[11.242523193000011,9.885850905999973],[11.242812157000003,9.899778366000021],[11.244175911000013,9.917791367000007],[11.245904922000022,9.924029350000012],[11.249031066999976,9.935305594999988],[11.252364159000024,9.942342757999995],[11.256881713999974,9.94824791000002],[11.277498245000004,9.960907936000012],[11.287233352999976,9.966934203999983],[11.291143417,9.968338012999993]]]},"properties":{"fid":269,"cty_nm":"Nigeria","iso3cd":"NGA","adm1nm":"Gombe","adm2nm":"Billiri","adm1cd":"NGA016","adm2cd":"NGA016003"}},{"type":"Feature","id":270,"geometry":{"type":"Polygon","coordinates":[[[11.116630553999983,10.859142302999999],[11.112921715000027,10.870077132999995],[11.108562468999992,10.884476661999997],[11.103656768999997,10.897124290000022],[11.099814415000026,10.914436340000009],[11.100236892999988,10.92198658000001],[11.102326392999998,10.933055878000005],[11.107108116000006,10.954048156999988],[11.112566947999994,10.97041606900001],[11.120948791999979,10.985692024000002],[11.129269599999986,11.00386619599999],[11.133098602000018,11.014975547999995],[11.138581276000025,11.030184745999975],[11.136563301000024,11.04347801199998],[11.128820419000022,11.053159714000003],[11.11228466,11.067276955000011],[11.102923393000026,11.071120262000022],[11.088320732,11.076002120999988],[11.078983306999987,11.078684807000002],[11.069128035999995,11.078456878999987],[11.055744171000015,11.080466269999988],[11.046951293999996,11.084902763000002],[11.038084984000022,11.092817307000018],[11.02867603300001,11.09897995],[11.015727043000027,11.107959746999995],[11.00921630900001,11.11418914799998],[10.999155045000009,11.123815535999995],[10.988428116000023,11.137488365000024],[10.972979545999976,11.15511131300002],[10.964644432,11.165358543000025],[10.957506179999996,11.173893928999973],[10.952166556999998,11.179570198000022],[10.949585915,11.182710648000011],[10.936313628999983,11.169010162000006],[10.924461365000013,11.158791542000017],[10.904365540000015,11.14637374900002],[10.897173882000004,11.132639885000003],[10.874583244000007,11.106428145999985],[10.870926856999972,11.093800545000022],[10.863735199000018,11.080067634999978],[10.851907729999994,11.072153091000018],[10.840165137999975,11.072301864999986],[10.83084392500001,11.079333304999977],[10.822697639000012,11.086348534000024],[10.809939384000018,11.101487159999976],[10.807864188999986,11.103156090000027],[10.804117202999976,11.106169700999999],[10.793634414999985,11.114366530999973],[10.779591559999972,11.119153023000024],[10.769010544000025,11.11813545199999],[10.761953354000013,11.117072104999977],[10.732378960000005,11.096710205000022],[10.72052669499999,11.086491584999976],[10.712209701999996,11.077380179999977],[10.70148277300001,11.062539101000027],[10.688335418999998,11.040816307],[10.677669524999999,11.031735420000018],[10.670490265000012,11.019152641000005],[10.658723830999975,11.016998290999993],[10.648155212000006,11.01713180500002],[10.641073226999993,11.013765335000016],[10.630407332999994,11.004682541000022],[10.618556022999996,10.994465827999989],[10.610226630999989,10.984202385000003],[10.602950095999972,10.962405204999982],[10.615489006000018,10.926531791999992],[10.628272057000004,10.913697243000001],[10.63461494400002,10.903776169000025],[10.638669014000016,10.897436142000004],[10.645520209999972,10.878916740000022],[10.642976761,10.860515593999992],[10.629999161,10.85491943400001],[10.617764473000022,10.858255385999996],[10.610171318000027,10.867843628000003],[10.606733322000025,10.875951767000004],[10.599773406999986,10.884104729],[10.593951225000012,10.888786315999994],[10.589278220999972,10.891150475000018],[10.58575534800002,10.891194343999985],[10.579859734000024,10.888965606999989],[10.576300620999973,10.88555431399999],[10.57144546500001,10.87063884700001],[10.568975448999993,10.859148978999997],[10.564107895000006,10.843081473999973],[10.559265137000011,10.829318047000015],[10.551976204000027,10.806368828000018],[10.550655365000011,10.79256153099999],[10.543489455999975,10.78113079100001],[10.53874301899998,10.776582717999986],[10.533985137999991,10.770882606999976],[10.526629447999994,10.763833046000002],[10.524493216999986,10.761786460999986],[10.510170936999998,10.740078926000024],[10.501792908000027,10.725208281999983],[10.495824814000002,10.716066360000013],[10.481477736999977,10.692054749000022],[10.473125458000027,10.679488182],[10.476351738000005,10.672318458999996],[10.478861809000023,10.666742324999973],[10.49521636999998,10.658471107000025],[10.509245872000008,10.652532577999978],[10.516180991999988,10.650169372999983],[10.525551796000002,10.639653205999991],[10.532486915999982,10.629197121000004],[10.539386749000016,10.615283965999993],[10.545124053999984,10.602539062000005],[10.549674987999992,10.58865642500001],[10.553050994999978,10.574789047000024],[10.55877590199998,10.560891151000021],[10.566886902000022,10.550419807000026],[10.577321052999991,10.537614822000023],[10.588965416000008,10.528250694000008],[10.61693954499998,10.508310317999985],[10.63918971999999,10.502268791000006],[10.660314560000018,10.500848770000005],[10.691982268999993,10.496991158000014],[10.704874991999986,10.494524001999991],[10.728274344999988,10.486162186000001],[10.749374390000014,10.48243904100002],[10.765764235999995,10.477622985999972],[10.779782295000018,10.470533370999988],[10.789127350000001,10.465806007000026],[10.805457115000024,10.455230712999992],[10.819402695000008,10.441228867000007],[10.83325004599999,10.418011664999995],[10.835403441999972,10.399551391999978],[10.835072517000015,10.395102500999997],[10.837447166000004,10.395590782],[10.847303391000025,10.395819663999987],[10.856567383000026,10.396614075000002],[10.869285583000021,10.398649216000024],[10.881461143000024,10.398932457],[10.893080710999982,10.398041724999985],[10.898889542000006,10.397596358999976],[10.910510063000004,10.396705627000017],[10.921030045000009,10.392889976999982],[10.938013076999994,10.385163307000028],[10.956107139999972,10.37978267699998],[10.968886375000011,10.378918648000024],[10.981073379999998,10.378621101000022],[10.99153327900001,10.377703666999992],[11.022908211000015,10.375184058999992],[11.020497321999983,10.379536628999972],[11.01918029799998,10.38704586],[11.017247199999986,10.396282196000016],[11.008779526000012,10.412906647],[11.003874779,10.425554276000014],[10.998451233000026,10.435289382999997],[10.991264343000012,10.446143150000012],[10.984717369000009,10.454112053000017],[10.978725433000022,10.463253021000014],[10.973917960999984,10.471262932000002],[10.969109534999973,10.479271889000017],[10.961235046000013,10.495329857000002],[10.955810546999999,10.505064963999985],[10.949239730999977,10.514193535000004],[10.940204619999975,10.530224799999985],[10.934176444999991,10.541105270000003],[10.93054103899999,10.548562049999987],[10.923955917,10.586112022000009],[10.92313385,10.597693443000026],[10.926406859999986,10.607630729999983],[10.931358337000006,10.620506287000012],[10.948399543999983,10.63772296899998],[10.958726882999997,10.643182754999998],[10.970793723999975,10.648683548000008],[10.982895851000023,10.652443886000015],[10.996145248000005,10.656811714000014],[11.008284569000011,10.658834457000012],[11.024445533999994,10.662689209000007],[11.039483070000017,10.664777755999978],[11.047007560999987,10.665533066000023],[11.077771186999996,10.664505958999996],[11.08535671200002,10.662362099000006],[11.092273712000008,10.662887572999978],[11.09268856,10.67239284499999],[11.094076157000018,10.689246178000019],[11.094908713999985,10.704925537000008],[11.097541809000006,10.717748642000004],[11.097709656000006,10.737474442000007],[11.097431183000026,10.750808715999995],[11.097756386000015,10.762997627000004],[11.099748610999995,10.778704643000026],[11.101209641000025,10.792079925999985],[11.103238105999992,10.806047439999986],[11.105846405000023,10.820029259000023],[11.10961437200001,10.834037781000006],[11.115097046000017,10.849246025000014],[11.116630553999983,10.859142302999999]]]},"properties":{"fid":270,"cty_nm":"Nigeria","iso3cd":"NGA","adm1nm":"Gombe","adm2nm":"Dukku","adm1cd":"NGA016","adm2cd":"NGA016004"}},{"type":"Feature","id":271,"geometry":{"type":"Polygon","coordinates":[[[11.400138855000023,11.089087485999983],[11.39435481999999,11.091974257999993],[11.390812874000005,11.089980125000011],[11.380606650999994,11.078722954],[11.375558852999973,11.070485114999997],[11.37633228300001,11.061222075999979],[11.380088806000003,11.047968863999984],[11.378531456000019,11.039232254000012],[11.36938858000002,11.032640457000014],[11.361380576999977,11.02723312400002],[11.353348731999972,11.022986412000023],[11.344773293000003,11.016986846999998],[11.341898918000027,11.015760422000028],[11.331027984999992,11.008547782999983],[11.326571464999972,10.999743462000026],[11.327429771000027,10.986422538999989],[11.333518028000015,10.972642898999993],[11.338893890000008,10.965227126999991],[11.342215538000005,10.94500255600002],[11.342844008999975,10.942696570999999],[11.34607029,10.927110672000026],[11.347230910999997,10.899294853000015],[11.34749698600001,10.886540412999977],[11.34777545899999,10.87320613899999],[11.349164963000021,10.862216949000015],[11.354287148000026,10.83913421599999],[11.35677623700002,10.831071854000015],[11.35581016499998,10.821768760999987],[11.354771614000015,10.815943718000028],[11.352054596000016,10.807180404999997],[11.34866046899998,10.803041457999996],[11.340121269000008,10.795302391000007],[11.326871872000027,10.790934563000008],[11.317038535999984,10.789546966999978],[11.308898925999983,10.790517807000015],[11.292605400000014,10.793040276],[11.284463882000011,10.794011115999979],[11.278062820000002,10.795022963999998],[11.271080971000004,10.79602146100001],[11.256514548999974,10.799162865000028],[11.247781754000016,10.800700188000008],[11.237889289999998,10.802210807999984],[11.230919837999977,10.802629470999989],[11.216980933999992,10.803465843000026],[11.2057724,10.812486648999993],[11.181771277999985,10.82295131699999],[11.174754142999973,10.825688361999994],[11.168895721000013,10.828453063999973],[11.160090446000027,10.833468437000022],[11.15243244200002,10.839091300999996],[11.141851425000027,10.845806121999999],[11.133613586000024,10.851415633999977],[11.12363624599999,10.856985092000002],[11.116630553999983,10.859142302999999],[11.115097046000017,10.849246025000014],[11.10961437200001,10.834037781000006],[11.105846405000023,10.820029259000023],[11.103238105999992,10.806047439999986],[11.101209641000025,10.792079925999985],[11.099748610999995,10.778704643000026],[11.097756386000015,10.762997627000004],[11.097431183000026,10.750808715999995],[11.097709656000006,10.737474442000007],[11.097541809000006,10.717748642000004],[11.094908713999985,10.704925537000008],[11.094076157000018,10.689246178000019],[11.09268856,10.67239284499999],[11.092273712000008,10.662887572999978],[11.096360206999975,10.663198470999987],[11.104428290999977,10.66570472699999],[11.112533568999993,10.666472435000003],[11.123500824000018,10.669047356000021],[11.136774063000018,10.67225646999998],[11.14666652699998,10.670744895999974],[11.157187462000024,10.666929245000006],[11.16186141999998,10.66529846200001],[11.172382355000025,10.661480903999973],[11.182347298000025,10.656492232999994],[11.198145866000004,10.649897575000011],[11.209862708999992,10.644369125000026],[11.219803809999974,10.640539169000022],[11.23091602300002,10.636157035999986],[11.240844727000024,10.632906913999989],[11.253067970000018,10.630870818999995],[11.262416840000014,10.62760734599999],[11.276379584999972,10.625611305000007],[11.290354729,10.623035431000005],[11.301974297000015,10.622144698999989],[11.310682297000028,10.621767044000023],[11.32052612299998,10.622574805999989],[11.33851146699999,10.622412682000004],[11.353609085000016,10.621602058000008],[11.364648819000024,10.620698929000014],[11.373370170999976,10.619739531999983],[11.389023780999992,10.620103835999998],[11.402394295000022,10.618674278000015],[11.412238120999973,10.61948203999998],[11.423217772999976,10.621477126999991],[11.435935974000017,10.623512268000013],[11.44751930199999,10.624361038000018],[11.460226058999979,10.62697601299999],[11.471277236999981,10.625493049999989],[11.491074561999994,10.621891974999983],[11.506293297000013,10.615283965999993],[11.512423515000023,10.61306476599998],[11.51474857300002,10.612222671999973],[11.516113281000003,10.617252350000001],[11.517301558999975,10.622234343999992],[11.518379211000024,10.626751899999988],[11.519313812000007,10.630667685999981],[11.521450995999999,10.639417648000006],[11.524185181000007,10.660006522999993],[11.52271938299998,10.66147995],[11.521214484999973,10.666885375999982],[11.516460418999998,10.683965682999997],[11.515070915000024,10.69495391800001],[11.515468596999995,10.703663826000025],[11.516857146999996,10.720517158999996],[11.516614914000002,10.732112884999992],[11.518564223999988,10.739901542999974],[11.519826889,10.744948387000022],[11.522167206000006,10.74946498899999],[11.526517867999985,10.757863998000005],[11.52696228000002,10.773483275999979],[11.528401374999987,10.778790474000004],[11.528509139999983,10.782502174000001],[11.528603553999972,10.78573989900002],[11.528738976,10.790397643999995],[11.530296325999984,10.799135207999996],[11.532677649999982,10.804135323000025],[11.53261947599998,10.807447432999993],[11.534076690999996,10.812563895999972],[11.534790993000001,10.816131591999977],[11.536177635000001,10.823053360000017],[11.53643989599999,10.828774452000005],[11.534410476999994,10.833539963000021],[11.53814601900001,10.839920043999996],[11.539074898000024,10.850962638999988],[11.53648853300001,10.86366367300002],[11.534164428999986,10.867039680000005],[11.531390190000025,10.871069907999981],[11.528674125999999,10.876823424999998],[11.528417586999979,10.879737853999984],[11.528128623999976,10.883029937999993],[11.527787208999996,10.886913300000003],[11.527377129000001,10.891585350000014],[11.528904914999998,10.893401145999974],[11.529788016999987,10.897920608999982],[11.531003951999992,10.904140471999995],[11.531873702999974,10.91808033000001],[11.53150558499999,10.923272133000012],[11.531051635999972,10.929661751000026],[11.530697823000025,10.932335853999973],[11.530362129000025,10.934866904999978],[11.528695106999976,10.93894290899999],[11.527306556999974,10.942336081999997],[11.521278381000002,10.953218460000016],[11.519598960999986,10.956843375999995],[11.517026901000008,10.962398528999984],[11.513415337000026,10.96869564100001],[11.509260177999977,10.97323989900002],[11.504500388999986,10.978930472999991],[11.494970321999972,10.990889548999974],[11.488483428999984,10.995959282000001],[11.48254108399999,11.002781868],[11.475329398999975,11.014795303000028],[11.470545769000012,11.021645546000002],[11.456896782000001,11.036409377999973],[11.452182769999979,11.042204857000002],[11.448561668000025,11.046656609000024],[11.443259238999985,11.050594330000024],[11.439234734000024,11.053138733000026],[11.434853553999972,11.055908203000001],[11.429089546,11.062446593999994],[11.427465439000002,11.064084052999988],[11.424053191999974,11.067524909999975],[11.420797348000008,11.070808410999973],[11.417252540999982,11.07377243000002],[11.415101051000022,11.076471329000015],[11.412119865000022,11.080209732000014],[11.407191276999981,11.083399772999996],[11.402456283999982,11.08793067900001],[11.400138855000023,11.089087485999983]]]},"properties":{"fid":271,"cty_nm":"Nigeria","iso3cd":"NGA","adm1nm":"Gombe","adm2nm":"Funakaye","adm1cd":"NGA016","adm2cd":"NGA016005"}},{"type":"Feature","id":272,"geometry":{"type":"Polygon","coordinates":[[[11.16603279100002,10.32278346999999],[11.164415358999975,10.320810317999985],[11.159233093000012,10.318950653000002],[11.147082329,10.317508697999983],[11.137793541000008,10.31787300100001],[11.126645087999975,10.323994636999998],[11.123951911999995,10.31407165500002],[11.122853279000026,10.311145781999983],[11.121247292000021,10.304729462000012],[11.12140464800001,10.297190666000006],[11.122105598000019,10.291406630999973],[11.122794150999994,10.286202430999992],[11.12581443800002,10.280471802000022],[11.130017280999994,10.273609161000024],[11.137095450999993,10.267972945999986],[11.143003464000003,10.262889862000009],[11.151252747000001,10.256701469000006],[11.157219886999997,10.248718262000011],[11.165541648999977,10.239050865000024],[11.172463417000017,10.24095153799999],[11.17519187900001,10.249135017000015],[11.178549766999993,10.25501346599998],[11.186545372000012,10.260999679999998],[11.191641807999986,10.266918181999984],[11.197898865000013,10.272864341999991],[11.200737000000004,10.275830268999982],[11.201147079000009,10.283960342],[11.198706626999979,10.289704323000024],[11.192751884000018,10.297106742999972],[11.18619346600002,10.305654526000012],[11.18320941899998,10.309645653000018],[11.180817604000026,10.313071250999997],[11.173123359999977,10.32043266300002],[11.16603279100002,10.32278346999999]]]},"properties":{"fid":272,"cty_nm":"Nigeria","iso3cd":"NGA","adm1nm":"Gombe","adm2nm":"Gombe","adm1cd":"NGA016","adm2cd":"NGA016006"}},{"type":"Feature","id":273,"geometry":{"type":"Polygon","coordinates":[[[11.523356438000008,9.93702983899999],[11.515783310000018,9.938593863999984],[11.506495475999998,9.938958168],[11.500698090000014,9.9388237],[11.489645957999983,9.940307616999974],[11.480320930000005,9.94241142300001],[11.458132744000011,9.949437140999976],[11.446319580000022,9.959604263000017],[11.416943549999985,9.977483748999987],[11.409914017000006,9.980800628999987],[11.401688576000026,9.985830307000015],[11.389368057000013,9.992505074000007],[11.373689651000007,9.993301391999978],[11.355161667000004,9.991711617000021],[11.342479706000006,9.987936973999979],[11.332659721000027,9.985968590000027],[11.323480605999976,9.98111534100002],[11.307971953999981,9.97379493699998],[11.299324035999973,9.971274375999997],[11.291143417,9.968338012999993],[11.287233352999976,9.966934203999983],[11.277498245000004,9.960907936000012],[11.256881713999974,9.94824791000002],[11.252364159000024,9.942342757999995],[11.249031066999976,9.935305594999988],[11.245904922000022,9.924029350000012],[11.252763748000007,9.923211098000024],[11.26100158700001,9.917601585],[11.265809058999992,9.909592627999984],[11.273624419999976,9.896432876999995],[11.279725074999988,9.882073402000003],[11.283493996000004,9.868239403000018],[11.287757874000022,9.858477591999986],[11.295139312999993,9.838347435000003],[11.292602538999972,9.82088756600001],[11.291722298000025,9.80752563499999],[11.288497925000001,9.795269965999978],[11.287484168999981,9.788286208999978],[11.292412758000012,9.774479865999979],[11.303078651000021,9.763706206999984],[11.314855576000014,9.75527858700002],[11.326077461000011,9.745678902000009],[11.334350586000028,9.73832988700002],[11.342153548999988,9.725749968999992],[11.346937179999998,9.71890068099998],[11.350573540000028,9.711443900999996],[11.35655307799999,9.702882767000006],[11.363075256000002,9.696073532000014],[11.366083145000005,9.690922736999994],[11.369091034000007,9.685771941999974],[11.373270035000019,9.68006896999998],[11.378609657000027,9.674391747000016],[11.385687828000016,9.668755530999988],[11.393309593000026,9.664872168999977],[11.401498795000009,9.661581993000027],[11.406788826000025,9.658224105999977],[11.412031173999992,9.657185555000012],[11.414265633000014,9.661297798000021],[11.417067528000018,9.666003226999976],[11.41873455000001,9.669522285000028],[11.424398422000024,9.676033974000006],[11.426656723000008,9.678986549000001],[11.432321548000004,9.68549919100002],[11.436270713999988,9.690811156999985],[11.446573257000011,9.697430611000016],[11.454642295999975,9.699937820000002],[11.458712578000018,9.699452399999984],[11.467432975999998,9.698493957999972],[11.48832893399998,9.697818756000004],[11.496433258000025,9.698587417999988],[11.504538535999984,9.699355125000011],[11.520082473999992,9.70493602800002],[11.527559279999991,9.708009720000007],[11.53675079300001,9.712283134000018],[11.54821300499998,9.718930243999978],[11.556208610999988,9.724915504000023],[11.566921234000006,9.739665031000015],[11.56847953800002,9.748402596000005],[11.569891929999983,9.764096259999974],[11.574807167000017,9.778711319000024],[11.576365470999974,9.787447928999995],[11.576725959999976,9.797897338999974],[11.578815459999987,9.808966637000026],[11.579116821000014,9.82231426200002],[11.578343390999976,9.831577300999982],[11.577992439000013,9.84839057900001],[11.574211121000019,9.862804412999992],[11.565912247000028,9.871312140999976],[11.555343628000003,9.877447127999972],[11.53589630099998,9.892077445999973],[11.527006148999988,9.901151657000014],[11.52398681599999,9.906882285999984],[11.523817061999978,9.914999007999995],[11.523634910999988,9.923694610999974],[11.52347755400001,9.931232452000017],[11.523356438000008,9.93702983899999]]]},"properties":{"fid":273,"cty_nm":"Nigeria","iso3cd":"NGA","adm1nm":"Gombe","adm2nm":"Kaltungo","adm1cd":"NGA016","adm2cd":"NGA016007"}},{"type":"Feature","id":274,"geometry":{"type":"Polygon","coordinates":[[[11.51474857300002,10.612222671999973],[11.512423515000023,10.61306476599998],[11.506293297000013,10.615283965999993],[11.491074561999994,10.621891974999983],[11.471277236999981,10.625493049999989],[11.460226058999979,10.62697601299999],[11.44751930199999,10.624361038000018],[11.435935974000017,10.623512268000013],[11.423217772999976,10.621477126999991],[11.412238120999973,10.61948203999998],[11.402394295000022,10.618674278000015],[11.389023780999992,10.620103835999998],[11.373370170999976,10.619739531999983],[11.364648819000024,10.620698929000014],[11.353609085000016,10.621602058000008],[11.33851146699999,10.622412682000004],[11.32052612299998,10.622574805999989],[11.310682297000028,10.621767044000023],[11.301974297000015,10.622144698999989],[11.290354729,10.623035431000005],[11.276379584999972,10.625611305000007],[11.262416840000014,10.62760734599999],[11.253067970000018,10.630870818999995],[11.240844727000024,10.632906913999989],[11.23091602300002,10.636157035999986],[11.219803809999974,10.640539169000022],[11.209862708999992,10.644369125000026],[11.198145866000004,10.649897575000011],[11.182347298000025,10.656492232999994],[11.172382355000025,10.661480903999973],[11.16186141999998,10.66529846200001],[11.157187462000024,10.666929245000006],[11.14666652699998,10.670744895999974],[11.136774063000018,10.67225646999998],[11.123500824000018,10.669047356000021],[11.112533568999993,10.666472435000003],[11.104428290999977,10.66570472699999],[11.096360206999975,10.663198470999987],[11.092273712000008,10.662887572999978],[11.08535671200002,10.662362099000006],[11.077771186999996,10.664505958999996],[11.047007560999987,10.665533066000023],[11.039483070000017,10.664777755999978],[11.024445533999994,10.662689209000007],[11.008284569000011,10.658834457000012],[10.996145248000005,10.656811714000014],[10.982895851000023,10.652443886000015],[10.970793723999975,10.648683548000008],[10.958726882999997,10.643182754999998],[10.948399543999983,10.63772296899998],[10.931358337000006,10.620506287000012],[10.926406859999986,10.607630729999983],[10.92313385,10.597693443000026],[10.923955917,10.586112022000009],[10.93054103899999,10.548562049999987],[10.934176444999991,10.541105270000003],[10.940204619999975,10.530224799999985],[10.949239730999977,10.514193535000004],[10.955810546999999,10.505064963999985],[10.961235046000013,10.495329857000002],[10.969109534999973,10.479271889000017],[10.973917960999984,10.471262932000002],[10.978725433000022,10.463253021000014],[10.984717369000009,10.454112053000017],[10.991264343000012,10.446143150000012],[10.998451233000026,10.435289382999997],[11.003874779,10.425554276000014],[11.008779526000012,10.412906647],[11.017247199999986,10.396282196000016],[11.01918029799998,10.38704586],[11.020497321999983,10.379536628999972],[11.022908211000015,10.375184058999992],[11.026524543999983,10.368655204999982],[11.035885811000014,10.364811896999981],[11.045826911999995,10.360982895000006],[11.05981254599999,10.357827186999998],[11.074356078999983,10.355843543999981],[11.090565680999987,10.357379912999988],[11.099249840000027,10.35816192599998],[11.109843253999998,10.350867271000027],[11.113467216000004,10.343990325999982],[11.118347168000014,10.332503319000011],[11.126645087999975,10.323994636999998],[11.137793541000008,10.31787300100001],[11.147082329,10.317508697999983],[11.159233093000012,10.318950653000002],[11.164415358999975,10.320810317999985],[11.16603279100002,10.32278346999999],[11.167808533000027,10.324950218000026],[11.173521995999977,10.329142569999988],[11.179850578000014,10.33160972600001],[11.186227798000004,10.331757545000016],[11.189876556000002,10.323721885999987],[11.191120147999982,10.319690703999981],[11.192352294999978,10.316238403],[11.195311546000028,10.313406944000008],[11.197614670000007,10.31315422099999],[11.20403289799998,10.312449454999978],[11.224275589000001,10.315238953000005],[11.238709449999988,10.318473815999994],[11.25543785100001,10.322922706999975],[11.268639565,10.329609871000002],[11.280535697999994,10.343226432999984],[11.28331375099998,10.34909153000001],[11.294111251999993,10.359783172999983],[11.304413795000016,10.366401671999995],[11.315924644000006,10.370729445999984],[11.330359459000022,10.37396431000002],[11.343632698000022,10.377172470000005],[11.357474326999977,10.380973815999994],[11.375313758999994,10.387768745000017],[11.396547317999989,10.398701668000001],[11.406293869000024,10.404149055000005],[11.414314269999977,10.408974648000026],[11.420546532000003,10.416080475000001],[11.428457260000016,10.426124572999981],[11.434677124000018,10.433809279999991],[11.439182281,10.440294266000024],[11.448833465999996,10.450379371999986],[11.455656051999995,10.456917762999979],[11.463071823000007,10.462890625],[11.467033386000026,10.467622757000015],[11.469231605999994,10.473473549000005],[11.473180770999988,10.478786469],[11.480042458000014,10.483585358000028],[11.490923882000004,10.490218163000009],[11.492968559000019,10.493533134000018],[11.497095107999996,10.50022220599999],[11.505513190999977,10.513758659000018],[11.509450911999977,10.51965045899999],[11.510863303999997,10.535344124000005],[11.513145447,10.537137031999976],[11.516515732000016,10.542435646000001],[11.518121719000021,10.548853873999974],[11.519147873000009,10.555257797000024],[11.519557953000003,10.563387870999975],[11.521873474000017,10.568999290000022],[11.516513824000015,10.570278168000016],[11.514617919999978,10.57777500200001],[11.512721062000026,10.585270881999975],[11.513373375000015,10.594977379],[11.512397765999992,10.599837303000015],[11.512864112999978,10.603256225999985],[11.513420105000023,10.607329369000013],[11.51474857300002,10.612222671999973]]]},"properties":{"fid":274,"cty_nm":"Nigeria","iso3cd":"NGA","adm1nm":"Gombe","adm2nm":"Kwami","adm1cd":"NGA016","adm2cd":"NGA016008"}},{"type":"Feature","id":275,"geometry":{"type":"Polygon","coordinates":[[[11.400138855000023,11.089087485999983],[11.398739814999999,11.092800140000008],[11.39544010200001,11.09449005099998],[11.39233016999998,11.097310065999977],[11.389229774,11.10011959100001],[11.38593006100001,11.101819992000003],[11.383990288000007,11.104450225999983],[11.382049560999974,11.107069969000008],[11.380120277000003,11.109700202999989],[11.378379822,11.113459587000023],[11.376440048000006,11.116089821000003],[11.373330115999977,11.118900299000018],[11.371399879000023,11.121529579000025],[11.368289947999983,11.124349594000023],[11.365189552000004,11.12716960900002],[11.364609717999997,11.130729674999998],[11.364040375000002,11.134300231999987],[11.362099648000026,11.136930466000024],[11.360360146000005,11.140680313000018],[11.358619690000012,11.144439696999996],[11.355509757999982,11.14725017500001],[11.353580475000001,11.14988040899999],[11.352230071999998,11.155890465000027],[11.349519729999997,11.160960197000009],[11.34893989599999,11.164520263999975],[11.345840453999983,11.167340278999973],[11.343899727000007,11.16996955899998],[11.343330383000023,11.173529625000015],[11.34177970899998,11.178409575999979],[11.340040207000015,11.182169913999985],[11.338299751000022,11.185919762000026],[11.336560249000001,11.189680098999986],[11.334620475999998,11.192310333000023],[11.332690238999987,11.19493007699998],[11.330949782999994,11.198690413999998],[11.329199791000008,11.202440261999982],[11.328630447000023,11.206009864999999],[11.32668971999999,11.208640098999979],[11.326120376999995,11.212200165000013],[11.323209763000023,11.21615028399998],[11.321470261000002,11.219900130999974],[11.320890426999995,11.223469733999991],[11.319149971000002,11.227219581999975],[11.317219733999991,11.229849815000023],[11.315469742000005,11.233599663000007],[11.313730239999984,11.237360001000013],[11.310830115999977,11.241299629000025],[11.309089660999973,11.245059966999975],[11.305789947999983,11.246749878000003],[11.30385017399999,11.249380111999983],[11.300550461,11.251070023000011],[11.296079636000002,11.252949715],[11.292579650999983,11.253520012000024],[11.28656005900001,11.253339767],[11.283829689000015,11.251460075000011],[11.279740333999996,11.248649596999996],[11.275850295999987,11.24697017699998],[11.273119925999993,11.245100020999985],[11.270199776000027,11.24209976200001],[11.262809752999999,11.240980148000006],[11.259110451000026,11.240420341000004],[11.254449844000021,11.241180419999978],[11.250949859999992,11.24174022699998],[11.247260094000012,11.241180419999978],[11.242589951000014,11.24193954499998],[11.23793029799998,11.242699623000021],[11.233460426000022,11.244580268999982],[11.230159759999992,11.24627018000001],[11.226860046000013,11.247960090999982],[11.223560333000023,11.24965000200001],[11.220459937999976,11.252470016000018],[11.216959953000014,11.253040313999975],[11.212490081999988,11.25492000600002],[11.210550307999995,11.25755024],[11.207249640999976,11.259240149999982],[11.20258998899999,11.260000229000013],[11.197930336000013,11.260749816999976],[11.193059920999985,11.260379790999991],[11.186269760000016,11.262639998999987],[11.18179988899999,11.264519690999975],[11.17850017500001,11.266220093000015],[11.175000190999981,11.266779900000017],[11.170140265999976,11.266409873999976],[11.166640282000003,11.266980171],[11.163140296999984,11.267550468000024],[11.159649849000004,11.268110275000026],[11.154979706000006,11.268870354],[11.15050983399999,11.27075004599999],[11.147410392999973,11.273570060999987],[11.14410972600001,11.275259972000015],[11.141010284000004,11.278079987000012],[11.137700080999991,11.279769896999994],[11.133040428000015,11.280529976000025],[11.130319595000003,11.27865028399998],[11.12158012399999,11.283539771999983],[11.118470192000018,11.28635978699998],[11.113809586000002,11.287110328999972],[11.110509872000023,11.288809775999994],[11.107210158999976,11.290499687000022],[11.10177040100001,11.293689728000004],[11.098469733999991,11.295390128999998],[11.096529960999987,11.298009872000023],[11.092069626000011,11.299900055000023],[11.088959693999982,11.302709579000009],[11.085860251999975,11.305529594000006],[11.080619812000009,11.309849739000015],[11.078680038000016,11.312479972999995],[11.074790000999997,11.310799599000006],[11.071490288000007,11.312490463000017],[11.066430092000019,11.310990333999996],[11.062740325999982,11.310440062999987],[11.058850287999974,11.308750153000005],[11.05494976,11.307069778000027],[11.05125999500001,11.306509972000015],[11.041729927000006,11.306889533999993],[11.03687000299999,11.30652046199998],[11.032979964999981,11.304840087999992],[11.030059814000026,11.301839828000027],[11.028300285,11.298649787999977],[11.019749640999976,11.297730446000003],[11.017020226,11.295849799999985],[11.012749671999984,11.298859596],[11.007315635999987,11.295865058999993],[11.01163005799998,11.294783591999987],[11.022173882000004,11.292346000999999],[11.023275375000026,11.285419463999972],[11.019845008999994,11.277661324000007],[11.013649939999993,11.263651847999995],[11.000440598000012,11.236169814999982],[10.984992981000005,11.219084740000028],[10.970719336999991,11.201984406000008],[10.951748848000022,11.184943198999974],[10.949585915,11.182710648000011],[10.952166556999998,11.179570198000022],[10.957506179999996,11.173893928999973],[10.964644432,11.165358543000025],[10.972979545999976,11.15511131300002],[10.988428116000023,11.137488365000024],[10.999155045000009,11.123815535999995],[11.00921630900001,11.11418914799998],[11.015727043000027,11.107959746999995],[11.02867603300001,11.09897995],[11.038084984000022,11.092817307000018],[11.046951293999996,11.084902763000002],[11.055744171000015,11.080466269999988],[11.069128035999995,11.078456878999987],[11.078983306999987,11.078684807000002],[11.088320732,11.076002120999988],[11.102923393000026,11.071120262000022],[11.11228466,11.067276955000011],[11.128820419000022,11.053159714000003],[11.136563301000024,11.04347801199998],[11.138581276000025,11.030184745999975],[11.133098602000018,11.014975547999995],[11.129269599999986,11.00386619599999],[11.120948791999979,10.985692024000002],[11.112566947999994,10.97041606900001],[11.107108116000006,10.954048156999988],[11.102326392999998,10.933055878000005],[11.100236892999988,10.92198658000001],[11.099814415000026,10.914436340000009],[11.103656768999997,10.897124290000022],[11.108562468999992,10.884476661999997],[11.112921715000027,10.870077132999995],[11.116630553999983,10.859142302999999],[11.12363624599999,10.856985092000002],[11.133613586000024,10.851415633999977],[11.141851425000027,10.845806121999999],[11.15243244200002,10.839091300999996],[11.160090446000027,10.833468437000022],[11.168895721000013,10.828453063999973],[11.174754142999973,10.825688361999994],[11.181771277999985,10.82295131699999],[11.2057724,10.812486648999993],[11.216980933999992,10.803465843000026],[11.230919837999977,10.802629470999989],[11.237889289999998,10.802210807999984],[11.247781754000016,10.800700188000008],[11.256514548999974,10.799162865000028],[11.271080971000004,10.79602146100001],[11.278062820000002,10.795022963999998],[11.284463882000011,10.794011115999979],[11.292605400000014,10.793040276],[11.308898925999983,10.790517807000015],[11.317038535999984,10.789546966999978],[11.326871872000027,10.790934563000008],[11.340121269000008,10.795302391000007],[11.34866046899998,10.803041457999996],[11.352054596000016,10.807180404999997],[11.354771614000015,10.815943718000028],[11.35581016499998,10.821768760999987],[11.35677623700002,10.831071854000015],[11.354287148000026,10.83913421599999],[11.349164963000021,10.862216949000015],[11.34777545899999,10.87320613899999],[11.34749698600001,10.886540412999977],[11.347230910999997,10.899294853000015],[11.34607029,10.927110672000026],[11.342844008999975,10.942696570999999],[11.342215538000005,10.94500255600002],[11.338893890000008,10.965227126999991],[11.333518028000015,10.972642898999993],[11.327429771000027,10.986422538999989],[11.326571464999972,10.999743462000026],[11.331027984999992,11.008547782999983],[11.341898918000027,11.015760422000028],[11.344773293000003,11.016986846999998],[11.353348731999972,11.022986412000023],[11.361380576999977,11.02723312400002],[11.36938858000002,11.032640457000014],[11.378531456000019,11.039232254000012],[11.380088806000003,11.047968863999984],[11.37633228300001,11.061222075999979],[11.375558852999973,11.070485114999997],[11.380606650999994,11.078722954],[11.390812874000005,11.089980125000011],[11.39435481999999,11.091974257999993],[11.400138855000023,11.089087485999983]]]},"properties":{"fid":275,"cty_nm":"Nigeria","iso3cd":"NGA","adm1nm":"Gombe","adm2nm":"Nafada","adm1cd":"NGA016","adm2cd":"NGA016009"}},{"type":"Feature","id":276,"geometry":{"type":"Polygon","coordinates":[[[11.412031173999992,9.657185555000012],[11.406788826000025,9.658224105999977],[11.401498795000009,9.661581993000027],[11.393309593000026,9.664872168999977],[11.385687828000016,9.668755530999988],[11.378609657000027,9.674391747000016],[11.373270035000019,9.68006896999998],[11.369091034000007,9.685771941999974],[11.366083145000005,9.690922736999994],[11.363075256000002,9.696073532000014],[11.35655307799999,9.702882767000006],[11.350573540000028,9.711443900999996],[11.346937179999998,9.71890068099998],[11.342153548999988,9.725749968999992],[11.334350586000028,9.73832988700002],[11.326077461000011,9.745678902000009],[11.314855576000014,9.75527858700002],[11.303078651000021,9.763706206999984],[11.292412758000012,9.774479865999979],[11.287484168999981,9.788286208999978],[11.288497925000001,9.795269965999978],[11.291722298000025,9.80752563499999],[11.292602538999972,9.82088756600001],[11.295139312999993,9.838347435000003],[11.287757874000022,9.858477591999986],[11.283493996000004,9.868239403000018],[11.279725074999988,9.882073402000003],[11.273624419999976,9.896432876999995],[11.265809058999992,9.909592627999984],[11.26100158700001,9.917601585],[11.252763748000007,9.923211098000024],[11.245904922000022,9.924029350000012],[11.244175911000013,9.917791367000007],[11.242812157000003,9.899778366000021],[11.242523193000011,9.885850905999973],[11.242185592999988,9.874241829000027],[11.241835594000008,9.863212584999985],[11.24160671200002,9.846385956000006],[11.241293907,9.833618163999972],[11.239796637999973,9.821982384000023],[11.23648738899999,9.813784598999973],[11.233842849999974,9.801543235999986],[11.231717109999977,9.792212485999983],[11.225738524999997,9.772933006000017],[11.219700812999974,9.756551742999989],[11.216391563000002,9.748353957999996],[11.213070868999978,9.740736007999999],[11.20916938800002,9.733105658999989],[11.205245018000028,9.726634026],[11.198396682999999,9.721254348999992],[11.188069343999985,9.715794562999974],[11.181197166000004,9.71157455399998],[11.173152924000021,9.70790767699998],[11.163949012999979,9.704214095999987],[11.154769896999994,9.69936084699998],[11.145554543000003,9.696247100999983],[11.134043694000013,9.691919326999994],[11.128306388999988,9.688885689000017],[11.121458054000016,9.683506965999982],[11.113993644999994,9.679853438999999],[11.10535812400002,9.676753044000009],[11.09668541000002,9.67539119700001],[11.089160918999994,9.674636840999995],[11.07056045500002,9.676525115999993],[11.062406539999984,9.67807578999998],[11.056572914000014,9.679680824000002],[11.035580634999974,9.684994698000025],[11.023332595999989,9.688190459999987],[11.015155791999973,9.690900802999977],[11.008125305000021,9.694217681999987],[10.988810538999985,9.70247077900001],[10.98237419100002,9.705221176000009],[10.977945327999976,9.707723617999989],[10.968350410000028,9.710116385999982],[10.960777283000027,9.711681365999993],[10.953191757000013,9.713825225999983],[10.95028019,9.714367867000021],[10.950426101999994,9.707380295000007],[10.950100899000006,9.69519233699998],[10.951502800000014,9.683623313999988],[10.957796097000028,9.659987450000017],[10.960938453999972,9.64846038799999],[10.966554642000006,9.629448890999981],[10.96909141499998,9.619067191999989],[10.971616745000006,9.60926437400002],[10.973549843,9.600028991999977],[10.974893570000006,9.592890738999984],[10.975506783000014,9.589633941999978],[10.977499962000024,9.578269004999981],[10.978140831000019,9.574613570999986],[10.979952812000022,9.571175574999984],[10.984711646999983,9.565485001000013],[10.992382050000003,9.559283257000004],[11.008193016000007,9.552108765000014],[11.020428658000014,9.549492836000013],[11.02739810899999,9.549074173000008],[11.035526275999985,9.548683166999979],[11.062135695999984,9.552200316999972],[11.070856094000021,9.551242828],[11.080131531000006,9.55145835899998],[11.08883953100002,9.551079749999985],[11.09753704100001,9.551281929000027],[11.109132767000006,9.551550865000024],[11.117840767000018,9.551173210000002],[11.126549721000004,9.550794601000007],[11.139316559000008,9.550511359999973],[11.150912285000004,9.550780296000028],[11.161347389000014,9.551022530000012],[11.171167373999992,9.55298995999999],[11.182134627999972,9.55556488000002],[11.191942214999983,9.558113097999978],[11.198839188000022,9.561172484999986],[11.210349082999983,9.565500258999975],[11.222452164000003,9.569261551000011],[11.227089881999973,9.569368361999977],[11.24406147000002,9.56222152700002],[11.254666327999985,9.554347038000003],[11.269281386999978,9.548886299000003],[11.274511336999979,9.548427581999988],[11.278014182999982,9.547348976000023],[11.293075562000013,9.54827785499998],[11.29829311399999,9.548398971999973],[11.311049460999982,9.548694610999974],[11.320324898000024,9.548910141000022],[11.32903289799998,9.548532486],[11.337729453999998,9.548734664999984],[11.346438407999983,9.548356055999989],[11.353419303999999,9.547357558999977],[11.367914199999973,9.547694206000017],[11.37385177599998,9.546802521000018],[11.374762535000002,9.553073883000025],[11.374652862999994,9.558291435000001],[11.375667571999998,9.565275192000001],[11.376186371000017,9.568187713999976],[11.380015372999992,9.579297065999981],[11.382212638999988,9.58514881100001],[11.38838481900001,9.59515285499998],[11.391125679000027,9.602757454000027],[11.391774177999991,9.604997635000018],[11.393831252999973,9.612100601000009],[11.400522232000014,9.625016211999991],[11.401548386000002,9.631421089000014],[11.403734207000014,9.63785171500001],[11.40646362299998,9.646036148000007],[11.408130646000018,9.649555206000002],[11.412031173999992,9.657185555000012]]]},"properties":{"fid":276,"cty_nm":"Nigeria","iso3cd":"NGA","adm1nm":"Gombe","adm2nm":"Shomgom","adm1cd":"NGA016","adm2cd":"NGA016010"}},{"type":"Feature","id":277,"geometry":{"type":"Polygon","coordinates":[[[11.640150070000004,10.609040259999972],[11.632863998000005,10.609519958000021],[11.62881755799998,10.608846663999998],[11.624216079999997,10.606999396999981],[11.613828658999978,10.604437828000016],[11.602257728999973,10.603010177999977],[11.59366989099999,10.597590446000027],[11.58330726600002,10.59386920899999],[11.57289505,10.592467307999982],[11.561311722000028,10.591618537999977],[11.551528931000007,10.587911605999977],[11.548359871000002,10.58525943799998],[11.544994353999982,10.582441329999995],[11.537276268000028,10.575980185999981],[11.532735824999975,10.571234703000016],[11.527589798000008,10.567634582999972],[11.521873474000017,10.568999290000022],[11.519557953000003,10.563387870999975],[11.519147873000009,10.555257797000024],[11.518121719000021,10.548853873999974],[11.516515732000016,10.542435646000001],[11.513145447,10.537137031999976],[11.510863303999997,10.535344124000005],[11.509450911999977,10.51965045899999],[11.505513190999977,10.513758659000018],[11.497095107999996,10.50022220599999],[11.492968559000019,10.493533134000018],[11.490923882000004,10.490218163000009],[11.480042458000014,10.483585358000028],[11.473180770999988,10.478786469],[11.469231605999994,10.473473549000005],[11.467033386000026,10.467622757000015],[11.463071823000007,10.462890625],[11.455656051999995,10.456917762999979],[11.448833465999996,10.450379371999986],[11.439182281,10.440294266000024],[11.434677124000018,10.433809279999991],[11.428457260000016,10.426124572999981],[11.420546532000003,10.416080475000001],[11.414314269999977,10.408974648000026],[11.406293869000024,10.404149055000005],[11.396547317999989,10.398701668000001],[11.375313758999994,10.387768745000017],[11.357474326999977,10.380973815999994],[11.343632698000022,10.377172470000005],[11.330359459000022,10.37396431000002],[11.315924644000006,10.370729445999984],[11.304413795000016,10.366401671999995],[11.294111251999993,10.359783172999983],[11.28331375099998,10.34909153000001],[11.280535697999994,10.343226432999984],[11.268639565,10.329609871000002],[11.25543785100001,10.322922706999975],[11.238709449999988,10.318473815999994],[11.224275589000001,10.315238953000005],[11.20403289799998,10.312449454999978],[11.197614670000007,10.31315422099999],[11.200675010999987,10.306571007000002],[11.203671455000006,10.30200004599999],[11.207910538000021,10.293397903000027],[11.211039543000027,10.282449722000024],[11.211209296999982,10.274333000000013],[11.209650993000025,10.265596389999985],[11.204518317999998,10.261416435000001],[11.199976920999973,10.256670951999979],[11.196595192000018,10.251952171000028],[11.192706107999982,10.243741035000028],[11.190496445000008,10.238470077999978],[11.190037727000004,10.232658386000026],[11.190182686000014,10.225701332000028],[11.19261074100001,10.220537186000001],[11.196790695000004,10.214834213000017],[11.199834823999993,10.207943915999977],[11.201683043999992,10.20276641800001],[11.209413528000027,10.193666457999996],[11.213556289999985,10.18970108000002],[11.22585296599999,10.184185981999974],[11.235865593000028,10.176877975000025],[11.248199462999992,10.169623375000015],[11.256460189999984,10.162854195000023],[11.264166832,10.154912948999993],[11.270713806000003,10.146944045999987],[11.277235985000004,10.140134810999996],[11.283166885000014,10.133892059000004],[11.289122581000015,10.126489638999999],[11.293313979999994,10.120205879000025],[11.298072815000012,10.11451625799998],[11.304016112999989,10.107693671999982],[11.308751105999988,10.103162766000025],[11.315889358999982,10.094628333999992],[11.320069312999976,10.088924408000025],[11.324804305999976,10.084394454999995],[11.330722809000008,10.07873153700001],[11.337813376999975,10.072514533999993],[11.347863196999981,10.063467978999995],[11.355532645999972,10.057265282000003],[11.364906311000027,10.052842139999996],[11.371912002999977,10.050684928999999],[11.37832546200002,10.049093245999984],[11.395283699000004,10.042526244999976],[11.40404129000001,10.039829253999983],[11.411022186000025,10.038830757000028],[11.423789023999973,10.038548470000023],[11.43136215200002,10.036982535999982],[11.445832252999992,10.03847885099998],[11.456232070999988,10.040459633000012],[11.471837043999983,10.043142319000026],[11.492720603999999,10.043046951000008],[11.512529373000007,10.038866042999985],[11.520151138000017,10.034982680999974],[11.530756950000011,10.027108192000014],[11.539426804000016,10.02160453800002],[11.545915604000015,10.023399353000002],[11.553367615000013,10.027632713000003],[11.565434455999991,10.033132552999973],[11.571702002999984,10.038498877999984],[11.58079624200002,10.047410964999983],[11.588707924000005,10.05745506300002],[11.599010468000017,10.064075469999977],[11.615074158000027,10.072567939999999],[11.623698235000006,10.076248168999996],[11.63233375499999,10.079348563999986],[11.639266968000015,10.080669403000002],[11.64795112600001,10.081451415999993],[11.657794952000017,10.082259178000015],[11.669898032999981,10.086020469999994],[11.683799743999998,10.086922646000005],[11.689053535000028,10.085305214000016],[11.697195052999973,10.084333420000007],[11.706483841000022,10.083969115999992],[11.716352463000021,10.083618163999972],[11.726762771999972,10.08502006499998],[11.73372077900001,10.085181235999983],[11.747647285000028,10.08492374399998],[11.767431258999977,10.081903458],[11.782602310000016,10.07761478399999],[11.791432380999993,10.071438789000013],[11.80033397699998,10.061784744000022],[11.809139252000023,10.056768417],[11.816169738999974,10.05345153799999],[11.825482367999996,10.051927567000007],[11.82860374500001,10.053877831000023],[11.822365761000015,10.062295914000003],[11.817014694000022,10.068552017000002],[11.811083794000012,10.074794768999993],[11.807842255000025,10.08486938499999],[11.806796073999976,10.087003707999997],[11.799268723000012,10.093589783000027],[11.774412154999993,10.119248389999996],[11.75997924799998,10.13368129700001],[11.757574080999973,10.140897751000011],[11.748753548000025,10.155330658000025],[11.739933968000003,10.16415023799999],[11.72309494000001,10.16655635799998],[11.698238372999981,10.167357444999993],[11.681400299000018,10.172970771999985],[11.67661762199998,10.174118041999975],[11.661355018999984,10.177781105000008],[11.637300491000019,10.186601639000003],[11.61805629700001,10.193016052000019],[11.59720897699998,10.201836586000013],[11.585983275999979,10.224287032999996],[11.581172943000013,10.245134354000015],[11.573154449000015,10.261171341000022],[11.561126709000007,10.274802207999983],[11.54749584199999,10.286027907999994],[11.538676262000024,10.294847488000016],[11.533062934999975,10.300460815000008],[11.533864974999972,10.311686516000009],[11.54348659499999,10.326118468999994],[11.567541122000023,10.339750289999984],[11.602020263999975,10.356588364000004],[11.624470711000015,10.381444930999976],[11.635479927000006,10.394550322999976],[11.634939194000026,10.39901256600001],[11.634141922000026,10.409435271999996],[11.635131836000028,10.41757869700001],[11.63609790800001,10.426881789999982],[11.63527584100001,10.438463210999998],[11.635082244999978,10.447739601000023],[11.636035918999994,10.457622528000002],[11.635866164999982,10.465739250000013],[11.636904716000004,10.471563339],[11.638523102000022,10.477401733000022],[11.64057636299998,10.490210532999981],[11.640370368999982,10.500066757000013],[11.643630981000001,10.510582924000005],[11.647495269999979,10.51995277399999],[11.650200843999983,10.529296875],[11.648750305000021,10.543184279999991],[11.642770767000002,10.551745415000028],[11.639074326000014,10.562100410000028],[11.63831329300001,10.570783614999982],[11.638772011000015,10.576595306000002],[11.639218330000006,10.582985877999988],[11.638753891000022,10.587132454000027],[11.638505936000001,10.589349747000028],[11.640003203999981,10.600985526999978],[11.640150070000004,10.609040259999972]]]},"properties":{"fid":277,"cty_nm":"Nigeria","iso3cd":"NGA","adm1nm":"Gombe","adm2nm":"Yamaltu/Deba","adm1cd":"NGA016","adm2cd":"NGA016011"}}]}