{"type":"FeatureCollection","features":[{"type":"Feature","id":1,"geometry":{"type":"Polygon","coordinates":[[[7.385290623000003,5.0601477619999855],[7.3924555780000105,5.0627746580000235],[7.398077965000027,5.070712089999972],[7.400393009000027,5.078979968999988],[7.402708054000016,5.088571071999979],[7.402377129000001,5.098162173999981],[7.401715754999998,5.104776382000011],[7.397747040000013,5.1130447389999745],[7.3924555780000105,5.12131261799999],[7.388486861999979,5.126935005000007],[7.382203102000005,5.133549212999981],[7.369635582000001,5.134541511999998],[7.365308285000026,5.134108543000025],[7.361540317999982,5.132310867000001],[7.357000351000011,5.130892276999987],[7.35111284300001,5.125495434000015],[7.343263148999995,5.1210799219999785],[7.332468987000027,5.114701748000016],[7.320203304000017,5.102926731000025],[7.327964783000027,5.099484920999998],[7.334578991000001,5.099153995999984],[7.344501019000006,5.100477219000027],[7.349131107000005,5.103784083999983],[7.356406688999982,5.110729218000017],[7.363021374000027,5.116351603999988],[7.369305134000001,5.120320320000019],[7.376911640000003,5.118997573999991],[7.38253402700002,5.115359782999974],[7.384849072000009,5.110729218000017],[7.386502742999994,5.099153995999984],[7.387494564000008,5.089563370000008],[7.387494564000008,5.081956386999991],[7.38617181799998,5.073688506999986],[7.385510445000023,5.064759254000023],[7.385290623000003,5.0601477619999855]]]},"properties":{"fid":1,"cty_nm":"Nigeria","iso3cd":"NGA","adm1nm":"Abia","adm2nm":"Aba North","adm1cd":"NGA001","adm2cd":"NGA001001"}},{"type":"Feature","id":2,"geometry":{"type":"Polygon","coordinates":[[[7.385290623000003,5.0601477619999855],[7.385510445000023,5.064759254000023],[7.38617181799998,5.073688506999986],[7.387494564000008,5.081956386999991],[7.387494564000008,5.089563370000008],[7.386502742999994,5.099153995999984],[7.384849072000009,5.110729218000017],[7.38253402700002,5.115359782999974],[7.376911640000003,5.118997573999991],[7.369305134000001,5.120320320000019],[7.363021374000027,5.116351603999988],[7.356406688999982,5.110729218000017],[7.349131107000005,5.103784083999983],[7.344501019000006,5.100477219000027],[7.334578991000001,5.099153995999984],[7.327964783000027,5.099484920999998],[7.320203304000017,5.102926731000025],[7.317869185999996,5.099694729000021],[7.3138256070000125,5.0940952299999935],[7.3113722800000005,5.085754871000006],[7.3089189529999885,5.080358027999978],[7.306681156000025,5.077480315999992],[7.307129383000017,5.074680805000014],[7.307129383000017,5.069058417999997],[7.3087825779999775,5.062444210000024],[7.314074516000005,5.055168152000022],[7.325318813000024,5.053183556000022],[7.337224960000015,5.052191734000019],[7.349461555000005,5.052191734000019],[7.361036776999981,5.055498600000021],[7.367981911000015,5.055498600000021],[7.376250266999989,5.057483196000021],[7.38253402700002,5.059136867999996],[7.385290623000003,5.0601477619999855]]]},"properties":{"fid":2,"cty_nm":"Nigeria","iso3cd":"NGA","adm1nm":"Abia","adm2nm":"Aba South","adm1cd":"NGA001","adm2cd":"NGA001002"}},{"type":"Feature","id":3,"geometry":{"type":"Polygon","coordinates":[[[7.904579162999994,5.5686755180000205],[7.899524212000017,5.562123299000007],[7.895391941000014,5.551447392],[7.886782645999972,5.545937537999976],[7.874385356999994,5.543871403000026],[7.856822013999988,5.539738655000008],[7.842014312999993,5.532506942999987],[7.824106692999976,5.519765376999999],[7.814119816000016,5.510467052000024],[7.808265686000027,5.507023334999985],[7.805510520999974,5.510467052000024],[7.803100109000013,5.522520064999981],[7.803788661999988,5.5352621079999835],[7.801033974000006,5.548003673999972],[7.795523643000024,5.55833482700001],[7.791047096,5.575209141000016],[7.788980483999978,5.583818436000001],[7.783814907000021,5.595182895999983],[7.779338359999997,5.608957766999993],[7.772795200000019,5.624798774999988],[7.76831817599998,5.634785652000005],[7.764185904999977,5.64408397699998],[7.759364604999973,5.655103682999993],[7.755232334000027,5.664746283999989],[7.749377728000013,5.672666549999974],[7.737324715,5.678865432999999],[7.7201061249999725,5.682653426999991],[7.709774971000002,5.682997704000002],[7.7011656760000164,5.677143574000013],[7.688423634000003,5.671289444000024],[7.676026343999979,5.669911861000003],[7.664317607999976,5.672666549999974],[7.656798363000007,5.678161621000015],[7.656225204000009,5.667845725999996],[7.661735057999977,5.662680148999982],[7.669311047000008,5.655103682999993],[7.676543235999986,5.65028238299999],[7.679642199999989,5.64339494699999],[7.679297924000025,5.630309104999981],[7.67378807099999,5.623076916000002],[7.664834498999994,5.621355057000017],[7.656913756999984,5.620666503999985],[7.648648739000009,5.616878509999992],[7.639350890999992,5.609646320000024],[7.6341853139999785,5.6013817790000076],[7.636251449999975,5.592772484000022],[7.641417026999989,5.5786528589999875],[7.647271155999988,5.5703878400000235],[7.652092456999981,5.563500404000024],[7.661046027999987,5.552824973999975],[7.669655322999972,5.543527126000015],[7.676198483000007,5.535606384000005],[7.682053089000021,5.529752254000016],[7.6913509369999815,5.5245866779999915],[7.695939064000015,5.518277645000012],[7.70194101300001,5.517550944999982],[7.704908848000002,5.517574787000001],[7.707765101999996,5.518753052000022],[7.710626124999976,5.519352912999977],[7.711226940000017,5.5164718629999925],[7.710693836000019,5.512427806999995],[7.713566780000008,5.511874198999976],[7.7170009609999966,5.512478827999985],[7.7192888260000245,5.513073921],[7.723285197999985,5.514838219000012],[7.726707934999979,5.516596794000009],[7.729568958000016,5.517197131999978],[7.734149933000026,5.517811774999984],[7.742755890000012,5.517303943999991],[7.745627879999972,5.516749859000015],[7.748500824000018,5.516195773999982],[7.751385212000002,5.514488219999976],[7.754848003000006,5.512207984999975],[7.757159232999982,5.510495186000014],[7.758902073000002,5.50820016900002],[7.760077000000024,5.5053238869999745],[7.759550095000009,5.500701903999982],[7.760157107999987,5.497243880999974],[7.759630202999972,5.492622852000011],[7.760225773000002,5.4903187749999915],[7.761395930999981,5.488019942999983],[7.7631330489999755,5.486302852999984],[7.7654609680000135,5.482859135000012],[7.768929005000018,5.480000973000017],[7.774117946999979,5.477157116000001],[7.775856018000013,5.475440025000012],[7.778172015999985,5.473149776000014],[7.779921054999988,5.470277785999997],[7.781095982000011,5.467401981000023],[7.7828621859999885,5.462799071999996],[7.784060001,5.457613944999991],[7.784661770000014,5.454733848999979],[7.786410809000017,5.4518618579999725],[7.787598133000017,5.447832108],[7.7887787820000085,5.444377899000017],[7.792839049999998,5.4397940640000115],[7.7986059190000105,5.436378002000026],[7.80901193599999,5.427803992999998],[7.821098803999973,5.423285007000004],[7.838315964000003,5.421692848000021],[7.8503508570000236,5.422367096000016],[7.853218078999987,5.422389984000006],[7.85608387000002,5.422412871999995],[7.858384132000026,5.421854972999995],[7.861256122999976,5.421300888000019],[7.863561152999978,5.420166015999996],[7.865297794000014,5.418447970999978],[7.866485119000004,5.414418221000005],[7.867660999000009,5.411540984999988],[7.868268012999977,5.40808296199998],[7.871191978000013,5.402336121000019],[7.872947216,5.39888715699999],[7.876439095000023,5.393721104000008],[7.883984089000023,5.384547234000024],[7.8761119839999765,5.368900775999975],[7.877982615999997,5.367052077999972],[7.880370140000025,5.366795539999998],[7.890454768999973,5.365587233999975],[7.901881218000028,5.36334085499999],[7.912165164999976,5.361089230000005],[7.920156001999999,5.361125946000016],[7.93386983900001,5.357740879000005],[7.941861152999991,5.357778071999974],[7.9498572350000245,5.356665134000025],[7.957847118000018,5.356701851000025],[7.962419033000003,5.355573176999997],[7.968125820000012,5.355598927000017],[7.972698212000012,5.354471207000017],[7.977263927000024,5.354492187999995],[7.982965945999979,5.355668068],[7.985239029000013,5.357976913000016],[7.986370087000012,5.360280991000025],[7.987501144000021,5.362585067999987],[7.98633909199998,5.367177009999978],[7.986322879999989,5.370625018999988],[7.9840130810000005,5.376361846999998],[7.980556965000005,5.383243084000014],[7.978248119,5.388978957999996],[7.973660945999995,5.393556117999992],[7.972493171999986,5.399298191000014],[7.969031810999979,5.407328129000007],[7.964424133000023,5.4165019989999905],[7.959815978999984,5.425675868999974],[7.9586482049999745,5.431417941999996],[7.956337928999972,5.437153815999977],[7.954034804999992,5.441740990000028],[7.950583934999997,5.447473048999996],[7.947137832999999,5.452054976999989],[7.943693160999999,5.456635951999999],[7.939105987999994,5.461213111999996],[7.9345030779999774,5.469237803999988],[7.931040763999988,5.4772682189999955],[7.928716183000006,5.486453056000016],[7.926406859999986,5.492188930999987],[7.924092770000016,5.4990749359999995],[7.921782969999981,5.504810809999981],[7.920620917999997,5.509404182000026],[7.914861201999997,5.520872116000021],[7.907942772000013,5.535781859999986],[7.907911776999981,5.542678833000025],[7.90672779099998,5.551867962000017],[7.906692028000009,5.559915065999974],[7.905980109999973,5.564770221999993],[7.904579162999994,5.5686755180000205]]]},"properties":{"fid":3,"cty_nm":"Nigeria","iso3cd":"NGA","adm1nm":"Abia","adm2nm":"Arochukwu","adm1cd":"NGA001","adm2cd":"NGA001003"}},{"type":"Feature","id":4,"geometry":{"type":"Polygon","coordinates":[[[7.683955192999974,5.822346209999978],[7.6571168899999975,5.823951244],[7.631418704999987,5.825854778000007],[7.617618084000014,5.827282428999979],[7.6047687529999735,5.8306136130000255],[7.597154617000001,5.8339447980000045],[7.584781169999985,5.837275981999994],[7.570980549000012,5.841083050000009],[7.566697598000019,5.8439388279999775],[7.5519447330000276,5.843462944000009],[7.549080371999992,5.8305244449999805],[7.546136379000018,5.821692944000006],[7.545646191000003,5.812371254000027],[7.548589705999973,5.801577568000027],[7.549080371999992,5.794218063000017],[7.551533699000004,5.789311886000007],[7.558402060999981,5.783915042999979],[7.564289570000028,5.775083542000004],[7.568214893000004,5.761345862999974],[7.569196223999995,5.748589992999996],[7.568705559000023,5.738777160999973],[7.564289570000028,5.725039959000014],[7.564289570000028,5.716208457999983],[7.560364723000021,5.712774276999994],[7.545646191000003,5.713264942000023],[7.528473854000026,5.714246273000015],[7.50835847899998,5.711302279999984],[7.48578977599999,5.703452110000001],[7.466164589000016,5.6995272639999826],[7.473524094000027,5.688733577999983],[7.475635051999973,5.681345463000014],[7.479411602000027,5.6681270600000175],[7.492658614999982,5.64752101900001],[7.50247096999999,5.634764671000028],[7.5147366520000105,5.612686633999999],[7.52700233500002,5.603364467999995],[7.550061702999983,5.588645934999988],[7.571649074999982,5.57883357999998],[7.579989909999995,5.566567898000017],[7.58195209500002,5.553320885000005],[7.579989909999995,5.539583205999975],[7.580971240999986,5.527317524000011],[7.57764720900002,5.5119442939999885],[7.594217776999983,5.506711483000004],[7.605257033999976,5.505528449999986],[7.6067943570000125,5.507577895999987],[7.619371414,5.500503540000011],[7.6235375399999725,5.496211051999978],[7.625438212999995,5.491595744999984],[7.628192902000023,5.480299950000017],[7.632876395999972,5.471208572000023],[7.6427946090000205,5.452474594000023],[7.648028850999992,5.44503641099999],[7.651240825999992,5.440418720000025],[7.653473854000026,5.442708014999994],[7.655248164999989,5.444222926999998],[7.656886100999998,5.4456210139999826],[7.660308837999992,5.447381020000023],[7.663176060000012,5.447402953999983],[7.667761803000019,5.447441100999981],[7.669498920000024,5.445723057000009],[7.671810149999999,5.444009780999977],[7.674120903000016,5.442296982000016],[7.675851822000027,5.441156863999993],[7.678156853000019,5.440021992000027],[7.6821761130000255,5.439476967000019],[7.6856279369999925,5.4383511539999745],[7.6890740389999905,5.437800884000012],[7.691372870999999,5.437242985000012],[7.693109988999993,5.435524939999993],[7.6954150199999845,5.434390068000027],[7.697731018000013,5.432099818999973],[7.700029850000021,5.431540966],[7.700563907999992,5.435585021999998],[7.700534821000019,5.4384708399999795],[7.699938773999975,5.440774917999988],[7.699899196999979,5.4448151589999725],[7.701015949000009,5.447709083999996],[7.701567173000001,5.450022220999983],[7.702679156999977,5.453494072000012],[7.703195095000012,5.459270000000004],[7.703166007999982,5.462154865000002],[7.703144072999976,5.464464188000022],[7.703114986000003,5.467349051999975],[7.703653812000027,5.470816135000007],[7.703614234999975,5.474855900000023],[7.704714775000014,5.4794821739999975],[7.704679966000015,5.4829449650000015],[7.704071999000007,5.486402988000009],[7.702318192000007,5.4898509980000085],[7.699989796000011,5.4932951929999945],[7.6976737979999825,5.495584964999978],[7.694784163999998,5.497869967999975],[7.693047046999993,5.499588012999993],[7.691304206999973,5.501883029999988],[7.690116881999984,5.505912781000006],[7.691235065000001,5.508808136000027],[7.691780090000009,5.511697769000023],[7.692903995999984,5.514016151000021],[7.694026946999998,5.516333103000022],[7.695939064000015,5.518277645000012],[7.6913509369999815,5.5245866779999915],[7.682053089000021,5.529752254000016],[7.676198483000007,5.535606384000005],[7.669655322999972,5.543527126000015],[7.661046027999987,5.552824973999975],[7.652092456999981,5.563500404000024],[7.647271155999988,5.5703878400000235],[7.641417026999989,5.5786528589999875],[7.636251449999975,5.592772484000022],[7.6341853139999785,5.6013817790000076],[7.639350890999992,5.609646320000024],[7.648648739000009,5.616878509999992],[7.656913756999984,5.620666503999985],[7.664834498999994,5.621355057000017],[7.67378807099999,5.623076916000002],[7.679297924000025,5.630309104999981],[7.679642199999989,5.64339494699999],[7.676543235999986,5.65028238299999],[7.669311047000008,5.655103682999993],[7.661735057999977,5.662680148999982],[7.656225204000009,5.667845725999996],[7.656798363000007,5.678161621000015],[7.656913756999984,5.680243014999974],[7.664145469999994,5.692640304999998],[7.674821377000001,5.7088260649999825],[7.683430671999986,5.722256184000003],[7.692728519000013,5.734998226000016],[7.700649261000024,5.741541385999994],[7.705125808999981,5.748428821999994],[7.709258556000009,5.757382393],[7.7096028330000195,5.768057822999992],[7.713390827000012,5.779766559999985],[7.713735104000023,5.789064884000027],[7.7149405480000155,5.80318403199999],[7.714596271999994,5.810415745],[7.71307897600002,5.81800079300001],[7.704230309000025,5.819192410000028],[7.683955192999974,5.822346209999978]]]},"properties":{"fid":4,"cty_nm":"Nigeria","iso3cd":"NGA","adm1nm":"Abia","adm2nm":"Bende","adm1cd":"NGA001","adm2cd":"NGA001004"}},{"type":"Feature","id":5,"geometry":{"type":"Polygon","coordinates":[[[7.57764720900002,5.5119442939999885],[7.575573921,5.512598991000004],[7.561346054000012,5.512108325999975],[7.552023888000008,5.509164333000001],[7.542587280000021,5.503124714000023],[7.534852027999989,5.482670783999993],[7.530927180999981,5.460592747000021],[7.525039672999981,5.447836398999982],[7.515809536000006,5.438166618000025],[7.5078678130000185,5.434589386000027],[7.509830475000001,5.4277205469999785],[7.511301994000007,5.415945529999988],[7.5122833249999985,5.410058021999987],[7.510811328999978,5.40318965900002],[7.510321139999974,5.390923977],[7.510321139999974,5.380129813999986],[7.512773991000017,5.37277078599999],[7.525039672999981,5.364920616000006],[7.5392680169999835,5.36197709999999],[7.547117710000009,5.358051777000014],[7.553005218999999,5.3546175960000255],[7.553005218999999,5.347748755999987],[7.547117710000009,5.344805241000017],[7.544332981000025,5.344552039999996],[7.53632402400001,5.343823910000026],[7.52700233500002,5.341370583000014],[7.519642830000009,5.337936400999979],[7.517680168000027,5.332048892999978],[7.521114825999973,5.323217392000004],[7.5270276069999795,5.318238258000008],[7.530436516000009,5.315367698999978],[7.532069682999975,5.3141155239999875],[7.540698050999993,5.309052943999973],[7.5435590739999725,5.309654235999972],[7.546436787000005,5.308523177999973],[7.549321174999989,5.306815147000009],[7.551620006999997,5.306255817000022],[7.556207180000001,5.30629301099998],[7.559055805000014,5.30804681799998],[7.5607647900000075,5.309216021999987],[7.562449931999993,5.312692164999987],[7.564692019999995,5.317903995999984],[7.566382884999996,5.320804119000002],[7.568091869,5.321971893000011],[7.572082996000006,5.324313163999989],[7.575521945999981,5.324339866999992],[7.578973770000005,5.323214054000005],[7.581851959000005,5.322082996000006],[7.58301591899999,5.32036113700002],[7.587619781000001,5.31866693500001],[7.591633796999986,5.318698883000025],[7.595057010999994,5.320457934999979],[7.596765041000026,5.3216271399999755],[7.599036216999991,5.323953152000001],[7.601316929000006,5.325126171000022],[7.603020190999985,5.326870917999997],[7.606465816000025,5.326322079000022],[7.607642173999977,5.323445796999977],[7.609962940000003,5.320579052000028],[7.612835883999992,5.320024966999995],[7.615707874000009,5.319470882000019],[7.6180129050000005,5.3183350560000235],[7.62203311899998,5.317790984999988],[7.625466824,5.318396091000011],[7.628890038000009,5.320155144000012],[7.630599022000013,5.321321963999992],[7.634605884999985,5.321931839000001],[7.6380457879999994,5.321959972000002],[7.641475200999992,5.32314205199998],[7.645483017000004,5.323750973000017],[7.648910999000009,5.324934005999978],[7.650613785000019,5.326679230000025],[7.652317046999997,5.328423977],[7.6545820239999784,5.331327914999974],[7.6562838550000265,5.333073139000021],[7.658548832000008,5.3359770769999955],[7.6608080859999745,5.339457988999982],[7.662517071000025,5.340625762999991],[7.663646221000022,5.342367172000024],[7.665349006999975,5.3441119189999995],[7.6664729120000175,5.346429824999973],[7.6675910949999775,5.349325179999994],[7.668140887999982,5.351636886999984],[7.6698207860000025,5.3556909559999895],[7.670938969000019,5.358585834999985],[7.672625064999977,5.362061976999996],[7.673742770999979,5.364956855999992],[7.675990104999983,5.369593142999975],[7.676528931000007,5.373060226000007],[7.677055836000022,5.377680779000002],[7.6776070590000245,5.379993915999989],[7.677584170999978,5.38230323800002],[7.676970004999987,5.386338233999993],[7.675232886999993,5.388054848000024],[7.671203135999974,5.3897538190000205],[7.668323993999991,5.390884875999973],[7.665441036000004,5.392592906999994],[7.662568092000015,5.393146992000027],[7.659700870999984,5.39312410399998],[7.657408237000027,5.3931059839999875],[7.655119895999974,5.392508984000017],[7.652270794000003,5.390755177000017],[7.648273945000028,5.388990879000005],[7.646565914000007,5.387823104999995],[7.643722056999991,5.385491848000015],[7.639742850999994,5.381997108000007],[7.636894225999981,5.38024187100001],[7.633471011999973,5.3784828189999985],[7.6311831470000016,5.377888202999998],[7.6283159260000275,5.377863884000021],[7.626017094000019,5.378423214000009],[7.624279976000025,5.380139827999983],[7.623682975999998,5.382443905000002],[7.624234199999989,5.38475704199999],[7.625362872999972,5.386497021000025],[7.626492976999998,5.388237952999987],[7.627623081000024,5.389978885999994],[7.628752232000011,5.391718863999984],[7.629869938000013,5.394614219999994],[7.630993842999999,5.396932124999978],[7.631544113000018,5.399244785000008],[7.632089138000026,5.402134895000017],[7.633201122000003,5.4056072239999935],[7.633746147000011,5.408496856999989],[7.634284019000006,5.411963940000021],[7.634262084999989,5.41427278499998],[7.634215831999995,5.418889998999987],[7.634766102000015,5.421203135999974],[7.636445998999989,5.425255774999982],[7.638136863999989,5.428154945000017],[7.639260768999975,5.43047285099999],[7.64096403100001,5.43221902800002],[7.64266681700002,5.433962822000012],[7.646656989999997,5.436304092],[7.648932934000015,5.438054084999976],[7.651240825999992,5.440418720000025],[7.648028850999992,5.44503641099999],[7.6427946090000205,5.452474594000023],[7.632876395999972,5.471208572000023],[7.628192902000023,5.480299950000017],[7.625438212999995,5.491595744999984],[7.6235375399999725,5.496211051999978],[7.619371414,5.500503540000011],[7.6067943570000125,5.507577895999987],[7.605257033999976,5.505528449999986],[7.594217776999983,5.506711483000004],[7.57764720900002,5.5119442939999885]]]},"properties":{"fid":5,"cty_nm":"Nigeria","iso3cd":"NGA","adm1nm":"Abia","adm2nm":"Ikwuano","adm1cd":"NGA001","adm2cd":"NGA001005"}},{"type":"Feature","id":6,"geometry":{"type":"Polygon","coordinates":[[[7.502546310000014,5.297855853999977],[7.49805545800001,5.301630020000005],[7.497192859999984,5.311550617000023],[7.499526978000006,5.324689388000024],[7.503942966000011,5.333520411999984],[7.506886482000027,5.346276760000023],[7.501980305000018,5.353636264999977],[7.496754168999985,5.354903220999972],[7.48578977599999,5.357561110999995],[7.464692592999995,5.3590331080000055],[7.440651893999984,5.358051777000014],[7.420045852999976,5.357561110999995],[7.411214352000002,5.353636264999977],[7.400911330999975,5.353145599000015],[7.38766431800002,5.353145599000015],[7.380795955999986,5.350692272000003],[7.372210026000005,5.349220752999997],[7.364850520999994,5.345295428999975],[7.347678660999975,5.3443145749999985],[7.322165966,5.344805241000017],[7.303522110000017,5.348239422000006],[7.301665306000018,5.345654964000005],[7.3010663989999784,5.343649863999985],[7.299880028000018,5.340500831999975],[7.298704623999981,5.338212489999989],[7.297532558,5.336211681000009],[7.296073913999976,5.334212303000015],[7.294328212999972,5.3322153089999915],[7.2931528089999915,5.329926967999995],[7.292263508000019,5.327637196000012],[7.29166126299998,5.3253450390000125],[7.291628838000008,5.322762011999998],[7.291588783000009,5.319604873999992],[7.29235124600001,5.311850070999981],[7.292039394000028,5.309843063000017],[7.291723728000022,5.3075489999999945],[7.291099547999977,5.303534984999999],[7.290210724000019,5.301244736000001],[7.289038657999981,5.299243450000006],[7.287859439999977,5.296668529999977],[7.286687373999996,5.294667243999982],[7.284923552999999,5.29123544700002],[7.283740996999995,5.288372992999996],[7.2822747230000004,5.285799979999979],[7.280786991000014,5.281504631000018],[7.279310226000007,5.2780709269999875],[7.278711795999982,5.276065825999979],[7.277812003999998,5.2729144099999985],[7.276797294999994,5.260026455000002],[7.276068210999995,5.255671500999995],[7.273684025000023,5.252830981999978],[7.271567822000009,5.249406814999986],[7.269765854000013,5.246843338000019],[7.267606735000015,5.242113589999974],[7.266949653999973,5.239419460000022],[7.278500556999973,5.234414101000027],[7.294691086,5.234414101000027],[7.301437855000017,5.238306522000016],[7.307447432999993,5.241773604999992],[7.3260908130000075,5.261398792000023],[7.33884716,5.274645329000009],[7.350622176999991,5.293779850000021],[7.365831851999985,5.308498858999997],[7.374662876000002,5.311442375000013],[7.383494376999977,5.307517528999995],[7.387909889000014,5.295742512000004],[7.388891220000005,5.281023501999982],[7.388400554999976,5.272192478000022],[7.388400554999976,5.261398792000023],[7.388891220000005,5.252567290999991],[7.386437892999993,5.23932027799998],[7.383494376999977,5.224601746000019],[7.383494376999977,5.208411216999991],[7.384800433999999,5.200843811000027],[7.405081748999976,5.197617530999992],[7.407712935999996,5.197814465000022],[7.424706936000007,5.199089049999998],[7.431085110000026,5.203995705000011],[7.441388130000007,5.2093925479999825],[7.44658756299998,5.215139389000001],[7.459946632000026,5.221225262000019],[7.486580849000006,5.252425194000011],[7.491952895999987,5.258603096000002],[7.495357037000019,5.275135993999982],[7.496337890999996,5.285439490999977],[7.502546310000014,5.297855853999977]]]},"properties":{"fid":6,"cty_nm":"Nigeria","iso3cd":"NGA","adm1nm":"Abia","adm2nm":"Isiala-Ngwa North","adm1cd":"NGA001","adm2cd":"NGA001006"}},{"type":"Feature","id":7,"geometry":{"type":"Polygon","coordinates":[[[7.5078678130000185,5.434589386000027],[7.4951114649999795,5.442930221999973],[7.477939606000007,5.45176124599999],[7.455370903000016,5.456667422999999],[7.433783531000017,5.458139420000009],[7.421517848999997,5.459611415999973],[7.414158343999986,5.461574078000012],[7.403364657999987,5.461574078000012],[7.391589641999985,5.46353626299998],[7.382758141000011,5.468933105000019],[7.373539924999989,5.475182533000009],[7.370636939999997,5.4723324779999984],[7.368601322000018,5.470050334999996],[7.366572856999994,5.4683418270000175],[7.364247321999983,5.465774536000026],[7.3636264799999935,5.462047577000021],[7.36244392399999,5.459185600000012],[7.361558436999985,5.457182407000005],[7.361246585999993,5.455175399999973],[7.3603572850000205,5.452885150999975],[7.358891486999994,5.450312138000015],[7.357436179999979,5.4486002919999805],[7.355974197000023,5.446313857999996],[7.353945732,5.444605826999975],[7.351347445999977,5.443188667000015],[7.349050522000027,5.442917346999991],[7.347033023999984,5.442070006999984],[7.343560218999983,5.439510821999988],[7.341238022000027,5.437230586999988],[7.33949613599998,5.435520649000011],[7.33804130599998,5.433808327000008],[7.3362994189999995,5.432098388999975],[7.335130692000007,5.4303841590000275],[7.333367348000024,5.426951884999994],[7.331327914999974,5.424382686999991],[7.329564570999992,5.420950413000014],[7.328675746999977,5.418660640999974],[7.327496528999973,5.416085242999998],[7.326324462999992,5.414084435000007],[7.323980330999973,5.410081863000016],[7.3228011130000255,5.407506942999987],[7.321908473999997,5.404929637999999],[7.321574687999998,5.401200770999992],[7.322122573999991,5.399188041999992],[7.3226490019999915,5.395452976000001],[7.322619915000018,5.393157004999978],[7.322576523000009,5.389712810999981],[7.322536945000024,5.386555671999986],[7.322224617000018,5.384548664000022],[7.321912766000025,5.382541656000001],[7.320152759999985,5.379396439000004],[7.31926727299998,5.3773937230000115],[7.318077564000021,5.373957157000007],[7.316600322999989,5.370523452999976],[7.315707684000017,5.367946147999987],[7.31453227999998,5.365658283000016],[7.313356876,5.36336994200002],[7.311897755000018,5.3613710399999945],[7.308726310999987,5.359957694999991],[7.305711745999986,5.3581433300000185],[7.304350376000002,5.353960036999979],[7.3034615519999875,5.351670264999996],[7.303522110000017,5.348239422000006],[7.322165966,5.344805241000017],[7.347678660999975,5.3443145749999985],[7.364850520999994,5.345295428999975],[7.372210026000005,5.349220752999997],[7.380795955999986,5.350692272000003],[7.38766431800002,5.353145599000015],[7.400911330999975,5.353145599000015],[7.411214352000002,5.353636264999977],[7.420045852999976,5.357561110999995],[7.440651893999984,5.358051777000014],[7.464692592999995,5.3590331080000055],[7.48578977599999,5.357561110999995],[7.496754168999985,5.354903220999972],[7.501980305000018,5.353636264999977],[7.506886482000027,5.346276760000023],[7.503942966000011,5.333520411999984],[7.499526978000006,5.324689388000024],[7.497192859999984,5.311550617000023],[7.49805545800001,5.301630020000005],[7.502546310000014,5.297855853999977],[7.509339808999982,5.299667358000022],[7.512662411000008,5.30125665700001],[7.520624161000001,5.305064200999993],[7.526776790999975,5.304973125000004],[7.535016059999975,5.303812981000021],[7.537847995999982,5.307299136999973],[7.540698050999993,5.309052943999973],[7.532069682999975,5.3141155239999875],[7.530436516000009,5.315367698999978],[7.5270276069999795,5.318238258000008],[7.521114825999973,5.323217392000004],[7.517680168000027,5.332048892999978],[7.519642830000009,5.337936400999979],[7.52700233500002,5.341370583000014],[7.53632402400001,5.343823910000026],[7.544332981000025,5.344552039999996],[7.547117710000009,5.344805241000017],[7.553005218999999,5.347748755999987],[7.553005218999999,5.3546175960000255],[7.547117710000009,5.358051777000014],[7.5392680169999835,5.36197709999999],[7.525039672999981,5.364920616000006],[7.512773991000017,5.37277078599999],[7.510321139999974,5.380129813999986],[7.510321139999974,5.390923977],[7.510811328999978,5.40318965900002],[7.5122833249999985,5.410058021999987],[7.511301994000007,5.415945529999988],[7.509830475000001,5.4277205469999785],[7.5078678130000185,5.434589386000027]]]},"properties":{"fid":7,"cty_nm":"Nigeria","iso3cd":"NGA","adm1nm":"Abia","adm2nm":"Isiala-Ngwa South","adm1cd":"NGA001","adm2cd":"NGA001007"}},{"type":"Feature","id":8,"geometry":{"type":"Polygon","coordinates":[[[7.53957176199998,5.9072322850000205],[7.518661499000018,5.908042908000027],[7.491677283999991,5.907552719000023],[7.479902267,5.9055900569999835],[7.46763658499998,5.904608726999982],[7.452917576000004,5.907552719000023],[7.440651893999984,5.910986900000012],[7.429367542000023,5.914911747000019],[7.418083190999994,5.916874409000002],[7.4023833269999955,5.914911747000019],[7.394222259999992,5.910171509000008],[7.395909786000004,5.907576560999985],[7.396443367000018,5.904415606999976],[7.396396159999995,5.900684834000003],[7.396083831999988,5.898677825999982],[7.394879340999978,5.894093512999973],[7.393707274999997,5.892092228000024],[7.392535685999974,5.890091418999987],[7.391345500999989,5.886655330999986],[7.3910298349999834,5.884361266999974],[7.3895602229999895,5.881501198000024],[7.389445781999996,5.879099845999974],[7.388624191000019,5.875480175000007],[7.388311863000013,5.873472691000018],[7.387415885999985,5.870608806999996],[7.387100219999979,5.868314742999985],[7.386788367999998,5.866307735000021],[7.386461735000012,5.863152980999985],[7.386432647999982,5.860856533000003],[7.386686801999986,5.858271598999977],[7.3872094149999725,5.854249954000011],[7.388312816999985,5.850798129999987],[7.3894233699999745,5.8479199409999865],[7.389964104000001,5.845333099000015],[7.391048908000016,5.840445994999982],[7.391310214999976,5.8384351729999935],[7.391854763000026,5.836134910999988],[7.39239931100002,5.833835125000007],[7.392649650999999,5.83096313499999],[7.391735553999979,5.826663971000016],[7.392265319999979,5.823215961000017],[7.392791747999979,5.819481372999974],[7.393042088000016,5.816609383000014],[7.39298772799998,5.812304019999999],[7.392374516000018,5.809151172999975],[7.392632008000021,5.806853294000007],[7.392875194999988,5.803407192000009],[7.393394469999976,5.799098015000027],[7.393641472000013,5.795938969000019],[7.393318652999994,5.7930712699999845],[7.393558025000004,5.789338111999996],[7.394352912999977,5.784166335999998],[7.394309521000025,5.7807221410000125],[7.393997191999972,5.778715133999981],[7.394251347000022,5.776130199000022],[7.393630981000001,5.772403240000017],[7.394447802999991,5.768953323000005],[7.3949704170000246,5.764931202000014],[7.394629478000013,5.760628223000026],[7.39428091000002,5.75575113299999],[7.394531727000015,5.752879142999973],[7.394785881000018,5.750294209000003],[7.395036220999998,5.747422217999997],[7.395293713000001,5.745124340000018],[7.396099567000022,5.740813254999978],[7.396331787000008,5.736506462000023],[7.3971486089999985,5.733056545000011],[7.397954464000009,5.728745461000017],[7.399050235999994,5.724719524000022],[7.400146007999979,5.720693588000017],[7.400393009000027,5.71753454200001],[7.400300979999997,5.71271181100002],[7.402873993000014,5.711792946000003],[7.411214352000002,5.708358765000014],[7.422499179999988,5.705414771999983],[7.439180373999989,5.701489924999976],[7.448502064000024,5.703452110000001],[7.466164589000016,5.6995272639999826],[7.48578977599999,5.703452110000001],[7.50835847899998,5.711302279999984],[7.528473854000026,5.714246273000015],[7.545646191000003,5.713264942000023],[7.560364723000021,5.712774276999994],[7.564289570000028,5.716208457999983],[7.564289570000028,5.725039959000014],[7.568705559000023,5.738777160999973],[7.569196223999995,5.748589992999996],[7.568214893000004,5.761345862999974],[7.564289570000028,5.775083542000004],[7.558402060999981,5.783915042999979],[7.551533699000004,5.789311886000007],[7.549080371999992,5.794218063000017],[7.548589705999973,5.801577568000027],[7.545646191000003,5.812371254000027],[7.546136379000018,5.821692944000006],[7.549080371999992,5.8305244449999805],[7.5519447330000276,5.843462944000009],[7.544806479999977,5.846794127999999],[7.53957176199998,5.851077079999982],[7.538619994999976,5.858215331999986],[7.538604736000025,5.869834900000001],[7.538143634999983,5.875823497999988],[7.540999413000009,5.890100001999997],[7.53957176199998,5.9072322850000205]]]},"properties":{"fid":8,"cty_nm":"Nigeria","iso3cd":"NGA","adm1nm":"Abia","adm2nm":"Isuikwato","adm1cd":"NGA001","adm2cd":"NGA001008"}},{"type":"Feature","id":9,"geometry":{"type":"Polygon","coordinates":[[[7.535016059999975,5.303812981000021],[7.526776790999975,5.304973125000004],[7.520624161000001,5.305064200999993],[7.512662411000008,5.30125665700001],[7.509339808999982,5.299667358000022],[7.502546310000014,5.297855853999977],[7.496337890999996,5.285439490999977],[7.495357037000019,5.275135993999982],[7.491952895999987,5.258603096000002],[7.486580849000006,5.252425194000011],[7.459946632000026,5.221225262000019],[7.44658756299998,5.215139389000001],[7.441388130000007,5.2093925479999825],[7.431085110000026,5.203995705000011],[7.424706936000007,5.199089049999998],[7.407712935999996,5.197814465000022],[7.405081748999976,5.197617530999992],[7.384800433999999,5.200843811000027],[7.385456562000002,5.193201541999997],[7.383985042999996,5.185842514000001],[7.3825130459999855,5.180445670999973],[7.376625537999985,5.177011013000026],[7.372210026000005,5.17406749700001],[7.365831851999985,5.1676893229999905],[7.366813182999977,5.157385825999995],[7.364359856000021,5.146101475000023],[7.366231917999983,5.1362724300000195],[7.365308285000026,5.134108543000025],[7.369635582000001,5.134541511999998],[7.382203102000005,5.133549212999981],[7.388486861999979,5.126935005000007],[7.3924555780000105,5.12131261799999],[7.397747040000013,5.1130447389999745],[7.401715754999998,5.104776382000011],[7.402377129000001,5.098162173999981],[7.402708054000016,5.088571071999979],[7.400393009000027,5.078979968999988],[7.398077965000027,5.070712089999972],[7.3924555780000105,5.0627746580000235],[7.385290623000003,5.0601477619999855],[7.385179520000008,5.057813644000021],[7.384849072000009,5.049545765000005],[7.386833190999994,5.040285587000028],[7.389479160000008,5.0366477970000005],[7.397416592000013,5.033340453999983],[7.406345843999986,5.029702663000023],[7.410645484999975,5.024410724999996],[7.416267394999977,5.016473770000005],[7.418582438999977,5.012505053999973],[7.4201855659999865,5.002353668000012],[7.434028624999996,5.010198592999984],[7.444331646000023,5.015104770999983],[7.456106663000014,5.01952028300002],[7.473769188000006,5.029332638000028],[7.488488196999981,5.037673472999984],[7.512528895999992,5.044542313000022],[7.522831917000019,5.048957825000002],[7.525102139000012,5.05047130600002],[7.518901825,5.053178786999979],[7.520287037000003,5.054944992000003],[7.524289130999989,5.056130886000005],[7.5259981159999825,5.057299136999973],[7.529426097999988,5.058481216000018],[7.532269955000004,5.060812950000013],[7.535682200999986,5.0637259480000125],[7.537951946000021,5.066052914000011],[7.5402159689999735,5.068956851999985],[7.5413351060000196,5.071852207000006],[7.541884899000024,5.074164866999979],[7.542996883000001,5.077637196000012],[7.544672011999978,5.082266807999986],[7.545794963999981,5.084585189999984],[7.546906948000014,5.088057041000013],[7.546310902000016,5.090361117999976],[7.544569016000025,5.092655181999987],[7.542825221999976,5.094950198999982],[7.541077137000002,5.097821236000016],[7.539913177000017,5.099544047999984],[7.538169860999972,5.101838111999996],[7.536415099999999,5.105287074999978],[7.534660815999985,5.108735084999978],[7.534063816000014,5.111039161999997],[7.53344488099998,5.115651130999993],[7.5339670179999985,5.120850086000019],[7.533933162999972,5.124311923999983],[7.533312797999997,5.128923892999978],[7.533285141000022,5.1318101879999745],[7.533233166000002,5.1370038989999784],[7.533771992000027,5.140470982000011],[7.532590866000021,5.143924235999975],[7.531414986000016,5.146800994999978],[7.530807018000019,5.150259017999986],[7.529047011999978,5.154284000000018],[7.5278840070000115,5.156005859000004],[7.528978825000024,5.1612100599999735],[7.53342199299999,5.175673962000019],[7.539041042000008,5.187263012000017],[7.539574146000007,5.191307068000015],[7.540123940000001,5.193620205000002],[7.5395231250000165,5.196500777999972],[7.540072918000021,5.198812961999977],[7.540032864000011,5.202853203000018],[7.540572166000004,5.206319808999979],[7.540543078999974,5.209206103999975],[7.5405092240000045,5.212667941999996],[7.541029929999979,5.217866898000011],[7.541552066999998,5.22306585299998],[7.541518210999982,5.226528168000016],[7.541489124000009,5.229413985999997],[7.5420279499999765,5.232881068999973],[7.541413783999985,5.236916065000003],[7.541390895999996,5.239223956999979],[7.541930198999978,5.242691993999983],[7.541902064999988,5.245576858999982],[7.541872978000015,5.248463153999978],[7.541839122999988,5.251924991999999],[7.542372226999987,5.25597000099998],[7.543496131999973,5.258286952999981],[7.545765877000008,5.26061391799999],[7.548030853,5.263517857000011],[7.549722195000015,5.266417980000028],[7.5519871710000075,5.26932096500002],[7.553099154999984,5.272792815999992],[7.553071021999983,5.275679110999988],[7.551895141999978,5.278554916000019],[7.55129909499999,5.2808589940000275],[7.549555779000002,5.283154011000022],[7.547227858999975,5.286598206000008],[7.5454912189999845,5.288314818999993],[7.543169021999972,5.291182041000013],[7.540278912000019,5.293467045],[7.538529873000016,5.296339035000017],[7.535634995000009,5.299201012000026],[7.534471035000024,5.300922871000012],[7.535016059999975,5.303812981000021]]]},"properties":{"fid":9,"cty_nm":"Nigeria","iso3cd":"NGA","adm1nm":"Abia","adm2nm":"Obioma Ngwa","adm1cd":"NGA001","adm2cd":"NGA001009"}},{"type":"Feature","id":10,"geometry":{"type":"Polygon","coordinates":[[[7.890100001999997,5.6847996710000075],[7.886259079000013,5.687846184000023],[7.870554447000018,5.693556785999988],[7.861988543999985,5.697363853000013],[7.840573311000014,5.710688591000007],[7.830579757999999,5.723062038000023],[7.820585728000026,5.727820872999985],[7.815351008999983,5.735910891999993],[7.803929805999985,5.744953156000008],[7.796791077000023,5.761609077000003],[7.793935776000012,5.777313708999998],[7.792984009000008,5.79159069100001],[7.786321639999983,5.804915428000015],[7.780373096000005,5.806818962000023],[7.764192580999975,5.813957214000027],[7.756578445000002,5.813005447000023],[7.728976726999974,5.815860747999977],[7.71307897600002,5.81800079300001],[7.714596271999994,5.810415745],[7.7149405480000155,5.80318403199999],[7.713735104000023,5.789064884000027],[7.713390827000012,5.779766559999985],[7.7096028330000195,5.768057822999992],[7.709258556000009,5.757382393],[7.705125808999981,5.748428821999994],[7.700649261000024,5.741541385999994],[7.692728519000013,5.734998226000016],[7.683430671999986,5.722256184000003],[7.674821377000001,5.7088260649999825],[7.664145469999994,5.692640304999998],[7.656913756999984,5.680243014999974],[7.656798363000007,5.678161621000015],[7.664317607999976,5.672666549999974],[7.676026343999979,5.669911861000003],[7.688423634000003,5.671289444000024],[7.7011656760000164,5.677143574000013],[7.709774971000002,5.682997704000002],[7.7201061249999725,5.682653426999991],[7.737324715,5.678865432999999],[7.749377728000013,5.672666549999974],[7.755232334000027,5.664746283999989],[7.759364604999973,5.655103682999993],[7.764185904999977,5.64408397699998],[7.76831817599998,5.634785652000005],[7.772795200000019,5.624798774999988],[7.779338359999997,5.608957766999993],[7.783814907000021,5.595182895999983],[7.788980483999978,5.583818436000001],[7.791047096,5.575209141000016],[7.795523643000024,5.55833482700001],[7.801033974000006,5.548003673999972],[7.803788661999988,5.5352621079999835],[7.803100109000013,5.522520064999981],[7.805510520999974,5.510467052000024],[7.808265686000027,5.507023334999985],[7.814119816000016,5.510467052000024],[7.824106692999976,5.519765376999999],[7.842014312999993,5.532506942999987],[7.856822013999988,5.539738655000008],[7.874385356999994,5.543871403000026],[7.886782645999972,5.545937537999976],[7.895391941000014,5.551447392],[7.899524212000017,5.562123299000007],[7.904579162999994,5.5686755180000205],[7.906092166999997,5.570636749000016],[7.907749175999982,5.578310013000021],[7.909989833999987,5.587515831000019],[7.909954071000016,5.595561981000003],[7.91106414799998,5.602462768999999],[7.912174225000001,5.609364986000003],[7.913289070000019,5.615117073000022],[7.9132728580000276,5.618565083000021],[7.914371967000022,5.6277661319999766],[7.9143619540000145,5.630064011000002],[7.914336204999984,5.635811805999992],[7.916586875999997,5.64271783800001],[7.917696953000018,5.649620056000003],[7.9153881070000125,5.655356884000014],[7.910796165000022,5.661083221000013],[7.906208992000018,5.665658951000012],[7.901621819000013,5.670236111000008],[7.897024154999997,5.677111148999984],[7.893288611999992,5.682270527000014],[7.890100001999997,5.6847996710000075]]]},"properties":{"fid":10,"cty_nm":"Nigeria","iso3cd":"NGA","adm1nm":"Abia","adm2nm":"Ohafia","adm1cd":"NGA001","adm2cd":"NGA001010"}},{"type":"Feature","id":11,"geometry":{"type":"Polygon","coordinates":[[[7.384800433999999,5.200843811000027],[7.383494376999977,5.208411216999991],[7.383494376999977,5.224601746000019],[7.386437892999993,5.23932027799998],[7.388891220000005,5.252567290999991],[7.388400554999976,5.261398792000023],[7.388400554999976,5.272192478000022],[7.388891220000005,5.281023501999982],[7.387909889000014,5.295742512000004],[7.383494376999977,5.307517528999995],[7.374662876000002,5.311442375000013],[7.365831851999985,5.308498858999997],[7.350622176999991,5.293779850000021],[7.33884716,5.274645329000009],[7.3260908130000075,5.261398792000023],[7.307447432999993,5.241773604999992],[7.301437855000017,5.238306522000016],[7.294691086,5.234414101000027],[7.278500556999973,5.234414101000027],[7.266949653999973,5.239419460000022],[7.266848563999986,5.236210346000007],[7.266766548000021,5.2336111070000015],[7.266388415999984,5.230728625999973],[7.266306400000019,5.228129387000024],[7.26624250399999,5.226107597000009],[7.265254974000015,5.222081661000004],[7.264590740000017,5.219205379000016],[7.263917445999994,5.215610503999983],[7.2749500269999885,5.2095918659999825],[7.281322002000024,5.201615810000021],[7.286756991999994,5.191782950999993],[7.290813922999973,5.182426928999973],[7.292564868999989,5.172623158000022],[7.291069031000006,5.16004800799999],[7.287724971999978,5.1470198630000255],[7.280218123999987,5.131694793999998],[7.278979300999993,5.119540690999997],[7.278698921,5.116788864],[7.271354197999983,5.103509902999974],[7.276047230000017,5.101945399999977],[7.284878730999992,5.098510741999974],[7.290766238999993,5.0896797180000135],[7.295181750999973,5.0769233699999745],[7.298615932000018,5.072998524000013],[7.306681156000025,5.077480315999992],[7.3089189529999885,5.080358027999978],[7.3113722800000005,5.085754871000006],[7.3138256070000125,5.0940952299999935],[7.317869185999996,5.099694729000021],[7.320203304000017,5.102926731000025],[7.332468987000027,5.114701748000016],[7.343263148999995,5.1210799219999785],[7.35111284300001,5.125495434000015],[7.357000351000011,5.130892276999987],[7.361540317999982,5.132310867000001],[7.365308285000026,5.134108543000025],[7.366231917999983,5.1362724300000195],[7.364359856000021,5.146101475000023],[7.366813182999977,5.157385825999995],[7.365831851999985,5.1676893229999905],[7.372210026000005,5.17406749700001],[7.376625537999985,5.177011013000026],[7.3825130459999855,5.180445670999973],[7.383985042999996,5.185842514000001],[7.385456562000002,5.193201541999997],[7.384800433999999,5.200843811000027]]]},"properties":{"fid":11,"cty_nm":"Nigeria","iso3cd":"NGA","adm1nm":"Abia","adm2nm":"Osisioma Ngwa","adm1cd":"NGA001","adm2cd":"NGA001011"}},{"type":"Feature","id":12,"geometry":{"type":"Polygon","coordinates":[[[7.385290623000003,5.0601477619999855],[7.38253402700002,5.059136867999996],[7.376250266999989,5.057483196000021],[7.367981911000015,5.055498600000021],[7.361036776999981,5.055498600000021],[7.349461555000005,5.052191734000019],[7.337224960000015,5.052191734000019],[7.325318813000024,5.053183556000022],[7.314074516000005,5.055168152000022],[7.3087825779999775,5.062444210000024],[7.307129383000017,5.069058417999997],[7.307129383000017,5.074680805000014],[7.306681156000025,5.077480315999992],[7.298615932000018,5.072998524000013],[7.296653747999983,5.066620349999994],[7.298615932000018,5.054845333000003],[7.300087928999972,5.046013832000028],[7.301559924999992,5.034729480999999],[7.300087928999972,5.026389122000012],[7.295181750999973,5.010688781999988],[7.292237758999988,5.0043110849999834],[7.290766238999993,4.9944982530000175],[7.291747093000026,4.985176562999982],[7.296653747999983,4.9773263929999985],[7.30106926000002,4.972420215999989],[7.307938099000012,4.970457554000006],[7.310042381000017,4.970205307000015],[7.320203304000017,4.968986034000011],[7.33443164800002,4.971929550000027],[7.344244002999972,4.97389221200001],[7.354056834999994,4.974873543000001],[7.368284701999983,4.9773263929999985],[7.3756442069999935,4.980761051000002],[7.393306731999985,4.982723236000027],[7.407044411000015,4.988610744000027],[7.4144034390000115,4.993516922000026],[7.4201855659999865,5.002353668000012],[7.418582438999977,5.012505053999973],[7.416267394999977,5.016473770000005],[7.410645484999975,5.024410724999996],[7.406345843999986,5.029702663000023],[7.397416592000013,5.033340453999983],[7.389479160000008,5.0366477970000005],[7.386833190999994,5.040285587000028],[7.384849072000009,5.049545765000005],[7.385179520000008,5.057813644000021],[7.385290623000003,5.0601477619999855]]]},"properties":{"fid":12,"cty_nm":"Nigeria","iso3cd":"NGA","adm1nm":"Abia","adm2nm":"Ugwunagbo","adm1cd":"NGA001","adm2cd":"NGA001012"}},{"type":"Feature","id":13,"geometry":{"type":"Polygon","coordinates":[[[7.491546153999991,4.946785927000008],[7.491506099999981,4.950826167999992],[7.492043971999976,4.95429277400001],[7.491418839000005,4.959482192999985],[7.489113808000013,4.9606180189999804],[7.4862480159999905,4.960595130999991],[7.483953953000025,4.960577010999998],[7.481081963000008,4.961130142000002],[7.477046013000006,4.963407039999993],[7.473587989999999,4.965109825000013],[7.469545841000013,4.967963219000012],[7.466083050000009,4.970242976999998],[7.463192939999999,4.9725289340000245],[7.461451054000008,4.974822997999979],[7.460275173000014,4.97769880300001],[7.471143245999997,4.995911121000006],[7.474635123999974,4.997253894999972],[7.477856158999998,4.997940540000002],[7.480381489000024,4.996567249000009],[7.483599663000007,4.996338367000021],[7.485214233000022,4.9981694219999895],[7.487752913999998,5.001602172999981],[7.489138603000015,5.003661632999979],[7.49052476899999,5.0061788560000196],[7.49190902700002,5.007781029],[7.504658221999989,5.012110232999987],[7.5063657759999955,5.013278007999986],[7.507490157999996,5.015594958999998],[7.508607863999998,5.018489837999994],[7.5097260480000045,5.021385193000015],[7.511973857999976,5.02602005],[7.511932849999994,5.030059814000026],[7.509670258000028,5.0345087050000075],[7.512274741999988,5.036597251999979],[7.515445709000005,5.038217545000009],[7.517972468999972,5.037302017000002],[7.52049970600001,5.036615372000028],[7.522722244000022,5.036539077999976],[7.525625229000013,5.037096976999976],[7.5279130939999845,5.037692069999991],[7.531323910000026,5.040605067999991],[7.533027172000004,5.042349815000023],[7.53415107699999,5.044668198000011],[7.5341157909999765,5.048130989000015],[7.525102139000012,5.05047130600002],[7.522831917000019,5.048957825000002],[7.512528895999992,5.044542313000022],[7.488488196999981,5.037673472999984],[7.473769188000006,5.029332638000028],[7.456106663000014,5.01952028300002],[7.444331646000023,5.015104770999983],[7.434028624999996,5.010198592999984],[7.4201855659999865,5.002353668000012],[7.4144034390000115,4.993516922000026],[7.407044411000015,4.988610744000027],[7.393306731999985,4.982723236000027],[7.3756442069999935,4.980761051000002],[7.368284701999983,4.9773263929999985],[7.354056834999994,4.974873543000001],[7.344244002999972,4.97389221200001],[7.33443164800002,4.971929550000027],[7.320203304000017,4.968986034000011],[7.310042381000017,4.970205307000015],[7.310390949000009,4.961135864000028],[7.314806460999989,4.946907520000025],[7.3216753010000275,4.933660984000028],[7.327072143999999,4.925320148000026],[7.329525471000011,4.919432640000025],[7.330016135999983,4.909129619999987],[7.328053474000001,4.898826599000017],[7.329034804999992,4.886560916999997],[7.328053474000001,4.880673408999996],[7.326064587000019,4.876126766000027],[7.330787181999995,4.8734860420000246],[7.334217072000001,4.873313427000028],[7.340910912000027,4.872939110000004],[7.352412223999977,4.8719148640000185],[7.360141277000025,4.866603850999979],[7.362020015999974,4.865313053000023],[7.373507023000002,4.86289119700001],[7.392834187000005,4.861804962000008],[7.406683922000013,4.865890980000017],[7.416359901000021,4.8667469019999885],[7.42921209299999,4.862449169000001],[7.4365010259999735,4.854000091999978],[7.446667671,4.845414639000012],[7.455207825000002,4.845066071000019],[7.460362911000004,4.845418929999994],[7.466188430999978,4.845414639000012],[7.4715914729999895,4.842277050000007],[7.474380015999998,4.836699963000001],[7.478563308999981,4.833039761000009],[7.486754894000001,4.827636718999997],[7.4872779849999915,4.824673652999991],[7.488712310999972,4.821804523000026],[7.491614819000006,4.824431896000021],[7.493318080999984,4.826177120000011],[7.494447230999981,4.827918053000019],[7.496728897000025,4.829091071999983],[7.497859000999995,4.830831051000018],[7.4995608329999754,4.8325757979999935],[7.500690937000002,4.834317207000026],[7.500668049000012,4.836625099000003],[7.500638961999982,4.839510917999974],[7.498889922999979,4.842381954000018],[7.497136115999979,4.845830917000001],[7.4976692199999775,4.849874972999999],[7.498798846999989,4.851615906000006],[7.499338150000028,4.855082988999982],[7.49872398399998,4.859117985000012],[7.495840073000011,4.8608260149999865],[7.493529797000008,4.8625388149999935],[7.49121904399999,4.8642520899999795],[7.490055084000005,4.865973949000022],[7.488884926000026,4.868272780999973],[7.487716197999987,4.870572089999996],[7.4865460400000075,4.872870922000004],[7.4853830339999945,4.87459278099999],[7.484212875000026,4.876893043999985],[7.481891155000028,4.879758835000018],[7.480714798000008,4.88263606999999],[7.480680942999982,4.886097908000011],[7.481207847999997,4.890719891000003],[7.481759070999999,4.893033027999991],[7.481163025000001,4.89533710500001],[7.48055982599999,4.898217201000023],[7.479963779000002,4.900520802000017],[7.4787950520000095,4.902820109999993],[7.478198050999993,4.905124187000013],[7.4770231250000165,4.907999991999986],[7.478095054999983,4.915512084999989],[7.4787211419999835,4.919539928000006],[7.480790137999975,4.932847976999994],[7.482491970000012,4.934593200999984],[7.484200954000016,4.935760974999994],[7.487044810999976,4.938093185000014],[7.488173962000019,4.939833163999992],[7.490445136999995,4.942160129999991],[7.4915690419999805,4.944478034999975],[7.491546153999991,4.946785927000008]]]},"properties":{"fid":13,"cty_nm":"Nigeria","iso3cd":"NGA","adm1nm":"Abia","adm2nm":"Ukwa East","adm1cd":"NGA001","adm2cd":"NGA001013"}},{"type":"Feature","id":14,"geometry":{"type":"Polygon","coordinates":[[[7.298615932000018,5.072998524000013],[7.295181750999973,5.0769233699999745],[7.290766238999993,5.0896797180000135],[7.284878730999992,5.098510741999974],[7.276047230000017,5.101945399999977],[7.271354197999983,5.103509902999974],[7.264222145000019,5.094525814000008],[7.256930828000009,5.079692363999982],[7.255775927999991,5.077342987000009],[7.2528939250000235,5.064311981000003],[7.2513761519999775,5.049406051999995],[7.2516860960000145,5.033086776999994],[7.248316765000027,5.0172619819999795],[7.245464802000015,5.007494925999993],[7.241197108999984,4.994009017999986],[7.23509216299999,4.9810042380000255],[7.228350163000016,4.970958232999976],[7.217877864999991,4.961559771999987],[7.209084034,4.956501006999986],[7.199394225999981,4.954246997999974],[7.181393146999994,4.949262142000009],[7.168517113000007,4.9447522159999835],[7.159626006999986,4.935448169999972],[7.150316238000016,4.924333095999998],[7.143767834000016,4.913196087000017],[7.140429019999999,4.900634765999996],[7.143746852999982,4.8956131940000205],[7.147241115999975,4.890325069000028],[7.155928135000011,4.88372898099999],[7.1646528239999725,4.881329059999985],[7.173842906999994,4.879391193000004],[7.18528795200001,4.872307777000003],[7.19119596500002,4.863869190000003],[7.2054200169999945,4.8586277960000075],[7.215075016000014,4.857152939000002],[7.2307357789999855,4.8579621320000115],[7.2408561710000185,4.856948853000006],[7.257046222999975,4.865211964000025],[7.271389961000011,4.8730239870000105],[7.2815279960000225,4.873876095000014],[7.294890881000015,4.875168799999983],[7.307785987999978,4.875533103999999],[7.319794177999995,4.879632949999973],[7.326064587000019,4.876126766000027],[7.328053474000001,4.880673408999996],[7.329034804999992,4.886560916999997],[7.328053474000001,4.898826599000017],[7.330016135999983,4.909129619999987],[7.329525471000011,4.919432640000025],[7.327072143999999,4.925320148000026],[7.3216753010000275,4.933660984000028],[7.314806460999989,4.946907520000025],[7.310390949000009,4.961135864000028],[7.310042381000017,4.970205307000015],[7.307938099000012,4.970457554000006],[7.30106926000002,4.972420215999989],[7.296653747999983,4.9773263929999985],[7.291747093000026,4.985176562999982],[7.290766238999993,4.9944982530000175],[7.292237758999988,5.0043110849999834],[7.295181750999973,5.010688781999988],[7.300087928999972,5.026389122000012],[7.301559924999992,5.034729480999999],[7.300087928999972,5.046013832000028],[7.298615932000018,5.054845333000003],[7.296653747999983,5.066620349999994],[7.298615932000018,5.072998524000013]]]},"properties":{"fid":14,"cty_nm":"Nigeria","iso3cd":"NGA","adm1nm":"Abia","adm2nm":"Ukwa West","adm1cd":"NGA001","adm2cd":"NGA001014"}},{"type":"Feature","id":15,"geometry":{"type":"Polygon","coordinates":[[[7.3847932819999755,6.037316798999996],[7.376340389000006,6.040006161000008],[7.361588000999973,6.040482043999987],[7.339062690999981,6.042149543999983],[7.338269233999995,6.036199092999993],[7.3330345150000085,6.031440257999975],[7.322564602,6.003838539000014],[7.318281651000007,5.998603344000003],[7.301625252000008,5.998127459999978],[7.283065796000017,5.998603344000003],[7.272595882000019,5.997651576999999],[7.264029979999975,5.9914650919999985],[7.259271145000014,5.9776644710000255],[7.2545123099999955,5.96529102300002],[7.256415844000003,5.950538634999987],[7.260983943999975,5.938930987999981],[7.262671470999976,5.936336040000015],[7.263219357000025,5.934323311000014],[7.264627457000017,5.932304381999984],[7.267447472000015,5.928553581000017],[7.269142150999983,5.9265327449999745],[7.2708401680000065,5.9247989649999795],[7.273681640999996,5.922770022999998],[7.2768206599999985,5.9216003419999765],[7.279959679000001,5.920430660000022],[7.281955241999981,5.919555663999972],[7.284521102999975,5.918389796999975],[7.287953854000023,5.91779231999999],[7.290239810999992,5.917202472999975],[7.293385983000007,5.916606903000002],[7.2959623340000235,5.916301727000018],[7.3002624509999805,5.916272162999974],[7.302838801999997,5.915967464000005],[7.305411816000003,5.915375709999978],[7.307701587999986,5.915072918000021],[7.30970096599998,5.914484978000019],[7.312277316999996,5.914180278999993],[7.315423489000011,5.91358470900002],[7.317999840000027,5.913280009999994],[7.320003032999978,5.912979125999982],[7.322865963000027,5.912672520000001],[7.324872970999991,5.91265869099999],[7.3280224800000155,5.912349700999982],[7.331168651999974,5.911754131000009],[7.335178852000013,5.911439418999976],[7.338603972999977,5.910267830000009],[7.340890408000007,5.909677982000005],[7.343448638999973,5.907938004000016],[7.345731258000001,5.907061100000021],[7.350031376000004,5.907031535999977],[7.353467941000019,5.906721114999982],[7.355757235999988,5.906418324000015],[7.358896254999991,5.905248642000004],[7.362891674000025,5.903785706000008],[7.367187977000015,5.903469085999973],[7.369202137000002,5.904029369],[7.371215819999975,5.904589653000016],[7.373803139000017,5.905145645000005],[7.376680851000003,5.905986786000028],[7.3784155850000275,5.907123088999981],[7.380436420000024,5.908257483999989],[7.382457733000024,5.909391402999972],[7.38505601899999,5.910808562999989],[7.387948036000012,5.912797927999975],[7.3919506070000125,5.911909103000028],[7.394222259999992,5.910171509000008],[7.4023833269999955,5.914911747000019],[7.418083190999994,5.916874409000002],[7.429367542000023,5.914911747000019],[7.440651893999984,5.910986900000012],[7.452917576000004,5.907552719000023],[7.46763658499998,5.904608726999982],[7.479902267,5.9055900569999835],[7.491677283999991,5.907552719000023],[7.518661499000018,5.908042908000027],[7.53957176199998,5.9072322850000205],[7.55004119900002,5.941496372000017],[7.552896499999974,5.953869820000023],[7.552896499999974,5.96529102300002],[7.55337238300001,5.981471538999983],[7.547191619999978,5.994943142000011],[7.533384800000022,6.010976791000019],[7.520060062000027,6.02001857800002],[7.510541916000022,6.021446228000002],[7.493885993999982,6.016687392999984],[7.475801945000001,6.0124044419999905],[7.461525440000003,6.0147838589999765],[7.451531409999973,6.013832091999973],[7.430592059999981,6.00621795699999],[7.415839672000004,6.00621795699999],[7.404417991999992,6.0124044419999905],[7.395852089000016,6.024777411999992],[7.386810303000004,6.036674975999972],[7.3847932819999755,6.037316798999996]]]},"properties":{"fid":15,"cty_nm":"Nigeria","iso3cd":"NGA","adm1nm":"Abia","adm2nm":"Umu-Nneochi","adm1cd":"NGA001","adm2cd":"NGA001017"}},{"type":"Feature","id":16,"geometry":{"type":"Polygon","coordinates":[[[7.466164589000016,5.6995272639999826],[7.448502064000024,5.703452110000001],[7.439180373999989,5.701489924999976],[7.422499179999988,5.705414771999983],[7.411214352000002,5.708358765000014],[7.402873993000014,5.711792946000003],[7.400300979999997,5.71271181100002],[7.399729251999986,5.710363388000019],[7.396841048999988,5.708661079000024],[7.393963337000002,5.7078199389999895],[7.3919563289999815,5.707833767000011],[7.389659404999975,5.707562446999987],[7.386509895000017,5.707871436999994],[7.383066176999989,5.7076082230000225],[7.381607533000022,5.705608844999972],[7.382155418000025,5.703596114999982],[7.382978916000013,5.700719832999994],[7.384001254999987,5.6988277440000275],[7.385791778999987,5.696395397000003],[7.387203216999978,5.69466352500001],[7.389743328000009,5.691488742999979],[7.39144182199999,5.689754486000027],[7.3931474689999845,5.688594818000013],[7.395698546999995,5.686281204000011],[7.398252963999994,5.684254168999985],[7.400804042999994,5.681940555999972],[7.402800082999988,5.68106555899999],[7.405075072999978,5.679615021000018],[7.408195971999987,5.677010058999997],[7.410162925999998,5.67383909199998],[7.4109940530000245,5.6715373989999875],[7.412395000000004,5.668944359000022],[7.4137954710000145,5.6663517950000255],[7.415196418999983,5.6637587550000035],[7.416314124999985,5.661454677999984],[7.416575432000002,5.659443855000006],[7.417678833000025,5.6559920309999825],[7.417932986999972,5.653407097000013],[7.417903899999999,5.651111125999989],[7.417584418999979,5.648530005999987],[7.418691635000016,5.645364760999996],[7.419798373999981,5.64219999300002],[7.420632839000007,5.640185356000018],[7.42146778099999,5.638170242000001],[7.422574520000012,5.635005474000025],[7.4256844519999845,5.631539821999979],[7.4265084269999875,5.628663539999991],[7.4276332860000025,5.62693357500001],[7.428460598000015,5.624344826000026],[7.4289832119999915,5.620322703999989],[7.429513454000016,5.616874694999979],[7.432285786000023,5.609393119999993],[7.430239201000006,5.606249809000019],[7.429063797000026,5.6039619449999805],[7.428457736999974,5.6013827319999905],[7.427851676999978,5.59880351999999],[7.427235126000028,5.595363616999975],[7.426621914000009,5.592210770000008],[7.426280974999997,5.587907314000006],[7.4259653089999915,5.585613250999984],[7.422786235999979,5.583626270000025],[7.422467231999974,5.581045151000012],[7.419865608000009,5.579340935000005],[7.417270659999986,5.5782108309999785],[7.415235042999996,5.575928687999976],[7.414919853000015,5.573634624000022],[7.4151735309999935,5.571049689999995],[7.416273117000003,5.567310333000023],[7.417093276999992,5.564147472000002],[7.417355061000023,5.562136650000014],[7.424952029999986,5.560189723999997],[7.439180373999989,5.561661720000018],[7.447030067000014,5.5626425739999945],[7.456352234000008,5.557736396999985],[7.458805084000005,5.549396037999998],[7.457333564999999,5.539092541000002],[7.458314418999976,5.521920680999983],[7.4681272509999985,5.517995833999976],[7.484317780000026,5.512598991000004],[7.500017642999978,5.509164333000001],[7.5152273179999725,5.505239486999983],[7.5323991779999915,5.505239486999983],[7.542587280000021,5.503124714000023],[7.552023888000008,5.509164333000001],[7.561346054000012,5.512108325999975],[7.575573921,5.512598991000004],[7.57764720900002,5.5119442939999885],[7.580971240999986,5.527317524000011],[7.579989909999995,5.539583205999975],[7.58195209500002,5.553320885000005],[7.579989909999995,5.566567898000017],[7.571649074999982,5.57883357999998],[7.550061702999983,5.588645934999988],[7.52700233500002,5.603364467999995],[7.5147366520000105,5.612686633999999],[7.50247096999999,5.634764671000028],[7.492658614999982,5.64752101900001],[7.479411602000027,5.6681270600000175],[7.475635051999973,5.681345463000014],[7.473524094000027,5.688733577999983],[7.466164589000016,5.6995272639999826]]]},"properties":{"fid":16,"cty_nm":"Nigeria","iso3cd":"NGA","adm1nm":"Abia","adm2nm":"Umuahia North","adm1cd":"NGA001","adm2cd":"NGA001015"}},{"type":"Feature","id":17,"geometry":{"type":"Polygon","coordinates":[[[7.542587280000021,5.503124714000023],[7.5323991779999915,5.505239486999983],[7.5152273179999725,5.505239486999983],[7.500017642999978,5.509164333000001],[7.484317780000026,5.512598991000004],[7.4681272509999985,5.517995833999976],[7.458314418999976,5.521920680999983],[7.457333564999999,5.539092541000002],[7.458805084000005,5.549396037999998],[7.456352234000008,5.557736396999985],[7.447030067000014,5.5626425739999945],[7.439180373999989,5.561661720000018],[7.424952029999986,5.560189723999997],[7.417355061000023,5.562136650000014],[7.415888785999982,5.559563636999997],[7.4141435619999925,5.557566166000015],[7.41153097199998,5.555001258999994],[7.409498692,5.553005695000024],[7.408312320999983,5.549856663000014],[7.407996654999977,5.547562599000003],[7.408533573,5.5446887019999735],[7.408795356999974,5.542677878999996],[7.407587051000007,5.537806510999985],[7.4072747230000004,5.535799503000021],[7.4066691400000195,5.533220767999978],[7.404317855999977,5.528644562000011],[7.4028515819999825,5.526071071999979],[7.4016795160000015,5.524070262999999],[7.400220870999988,5.522070885000005],[7.398192406000021,5.520362853999984],[7.396153449999986,5.517793654999991],[7.393820285999993,5.514652252000019],[7.392644404999999,5.51236438799998],[7.390909672000021,5.5112280850000275],[7.388032436000003,5.510386944000004],[7.387132645000008,5.507236003999992],[7.385655880000002,5.503801823000003],[7.384766578999972,5.501511574000006],[7.383598328000005,5.499797344000001],[7.382408141999974,5.496361256],[7.381228924000027,5.493786334999982],[7.379763126,5.491213322000021],[7.379142284000011,5.487485886000002],[7.378540038999972,5.485194206000017],[7.377647400000001,5.482616900999972],[7.376170634999994,5.479182719999983],[7.374995232000003,5.476894855000012],[7.373539924999989,5.475182533000009],[7.382758141000011,5.468933105000019],[7.391589641999985,5.46353626299998],[7.403364657999987,5.461574078000012],[7.414158343999986,5.461574078000012],[7.421517848999997,5.459611415999973],[7.433783531000017,5.458139420000009],[7.455370903000016,5.456667422999999],[7.477939606000007,5.45176124599999],[7.4951114649999795,5.442930221999973],[7.5078678130000185,5.434589386000027],[7.515809536000006,5.438166618000025],[7.525039672999981,5.447836398999982],[7.530927180999981,5.460592747000021],[7.534852027999989,5.482670783999993],[7.542587280000021,5.503124714000023]]]},"properties":{"fid":17,"cty_nm":"Nigeria","iso3cd":"NGA","adm1nm":"Abia","adm2nm":"Umuahia South","adm1cd":"NGA001","adm2cd":"NGA001016"}}]}