{"type":"FeatureCollection","features":[{"type":"Feature","id":176,"geometry":{"type":"Polygon","coordinates":[[[7.979247093000026,5.970290184000021],[7.973670959000003,5.971860408999987],[7.96595096599998,5.9773097039999925],[7.955506802000002,5.971860408999987],[7.9364352229999895,5.9650492669999835],[7.929623604000028,5.966865540000015],[7.9257640839999794,5.9736766820000184],[7.922812462000024,5.96777391400002],[7.920087813999999,5.9623246190000145],[7.90510273000001,5.9623246190000145],[7.8951125140000045,5.9623246190000145],[7.879219531999979,5.960508346999973],[7.873770236999974,5.955512999999996],[7.868016243,5.951814174999981],[7.866959095000027,5.94370698900002],[7.864234447000001,5.935986995999997],[7.862418175000016,5.926905154999986],[7.861963748999983,5.904654979999975],[7.863326072999996,5.89194011699999],[7.866959095000027,5.886491298999999],[7.868775368000001,5.8801336289999995],[7.868775368000001,5.874684811000009],[7.868321418999983,5.862424374],[7.871500014999981,5.847893237999983],[7.875132560999987,5.839719295999998],[7.878311156999985,5.829729557000007],[7.878765106000003,5.825188636999997],[7.883306026000014,5.808387279999977],[7.883306026000014,5.7993054390000225],[7.88376045199999,5.788406849000012],[7.886030673999983,5.780233382999995],[7.889663696000014,5.772513865999997],[7.892388343999983,5.767064570999992],[7.900561809999999,5.756620407000014],[7.905556678999972,5.749354838999977],[7.909643650000021,5.746630669000012],[7.915593146999981,5.74464750300001],[7.916110038999989,5.747313975999987],[7.917224884000007,5.753066063000006],[7.9206290249999824,5.7576789859999735],[7.921760081999992,5.759984015999976],[7.927452087000006,5.763457775000006],[7.932006836000028,5.765778065000006],[7.936557769999979,5.769247054999994],[7.942259788999991,5.770421982000016],[7.945673942999974,5.772737026000016],[7.949093818999984,5.773901938999984],[7.951372146999972,5.775062084000012],[7.954974173999972,5.774130821000028],[7.959377765999989,5.771650791000013],[7.965095996999992,5.769378184999994],[7.970076084000027,5.76832675899999],[7.964233397999976,5.775656222999999],[7.951041697999983,5.792906760999983],[7.942416668000021,5.805083275000015],[7.933635712000012,5.819872379000003],[7.933654784999987,5.822497844999987],[7.934822082999972,5.825934887000017],[7.9385404590000235,5.834443568999973],[7.9456286430000205,5.838733672999979],[7.952157496999973,5.841531754000016],[7.9575667380000255,5.843023776999985],[7.959058761999984,5.8411583899999755],[7.962603091999995,5.845448970999996],[7.9650278089999915,5.851977347999991],[7.968198776000008,5.857759953000027],[7.969131469999979,5.864101887000004],[7.969691276999981,5.866899966999995],[7.970064163000018,5.871003627999983],[7.974354743999982,5.876226425000027],[7.978458405000026,5.878464699000006],[7.9818158150000045,5.880702971999995],[7.9889039990000015,5.883873940000001],[7.990034103000028,5.886404036999977],[7.9941267969999785,5.897304534999989],[7.999349594000023,5.899542809000025],[8.004966735999972,5.900077819999979],[8.006133079999984,5.903514862000009],[8.002753257999984,5.90927886999998],[8.000496864000013,5.912737846000027],[7.993678093000028,5.916230202000008],[7.985733986000014,5.922025204000022],[7.982346058000019,5.926640986999985],[7.98237085300002,5.9300851820000275],[7.982413769000004,5.9358248710000225],[7.984721184000023,5.939252853000028],[7.989309788000014,5.942666053999972],[7.988212109000017,5.948413849000019],[7.984831810000003,5.954177856000001],[7.981451988000003,5.959941863999973],[7.979213238,5.965697765000016],[7.979247093000026,5.970290184000021]]]},"properties":{"fid":176,"cty_nm":"Nigeria","iso3cd":"NGA","adm1nm":"Ebonyi","adm2nm":"Afikpo North","adm1cd":"NGA011","adm2cd":"NGA011002"}},{"type":"Feature","id":175,"geometry":{"type":"Polygon","coordinates":[[[8.397912979000012,6.345054625999978],[8.39120864900002,6.344216824],[8.379857062999974,6.33695125600002],[8.375769615000024,6.331501961000015],[8.366687775000003,6.327869415000009],[8.35942268399998,6.328323364000028],[8.355336189000013,6.330594062999978],[8.345799446000001,6.329685687999984],[8.338534354999979,6.331501961000015],[8.330360412999994,6.3319559099999765],[8.323095321999972,6.330594062999978],[8.318099975999985,6.331048011999997],[8.308110236999994,6.329685687999984],[8.28858375499999,6.328323364000028],[8.282680511000024,6.326507091999986],[8.272236824000004,6.325598716999991],[8.26270103500002,6.321057795999991],[8.252256392999982,6.320603848000019],[8.237271308999993,6.317879199999993],[8.226373672000022,6.313792229000001],[8.215475082000012,6.310613632000013],[8.210479736000025,6.311522007000008],[8.200489998000023,6.310159682999995],[8.191862105999974,6.310613632000013],[8.183689116999972,6.314246654999977],[8.172790527000018,6.3319559099999765],[8.170973778000018,6.338767528999995],[8.170243262999975,6.352418423000017],[8.156442642000002,6.350574016999985],[8.146906853000019,6.347395419999998],[8.142820357999994,6.336496829999987],[8.13737106299999,6.328323364000028],[8.133738517999973,6.322420120000004],[8.126018524000017,6.320603848000019],[8.117845535000015,6.322874069000022],[8.111488341999973,6.322874069000022],[8.100589752000019,6.326507091999986],[8.094232558999977,6.329231739000022],[8.082426070999986,6.33695125600002],[8.07470607800002,6.33695125600002],[8.06517028799999,6.335588932000007],[8.057451248000007,6.327869415000009],[8.048796654,6.319576262999988],[8.054272652000009,6.311975956000026],[8.057905197000025,6.30380249000001],[8.058813095000005,6.296990870999991],[8.058813095000005,6.271561623000025],[8.058813095000005,6.264750481000021],[8.056088448000025,6.257484912999985],[8.053817749000018,6.2511277199999995],[8.051093101999982,6.244316100999981],[8.045190810999998,6.228877067999974],[8.04110336299999,6.2216114999999945],[8.037924766999993,6.215708256000028],[8.037924766999993,6.210864544000003],[8.037470817999974,6.197998524000013],[8.042466164000018,6.188916683000002],[8.05245590200002,6.185284137999986],[8.061537742999974,6.184375762999991],[8.072890282000003,6.183013915999993],[8.078339577000008,6.1798348429999805],[8.089691162000008,6.176202296999975],[8.105130196000005,6.170299053000008],[8.116482734999977,6.172569752000015],[8.126473427000008,6.174386024],[8.13600921599999,6.179380894000019],[8.143728255999974,6.183013915999993],[8.148723602000018,6.183921813999973],[8.151902199000006,6.184830189000024],[8.155988692999983,6.183467865000011],[8.167341232000012,6.178018570000006],[8.182780266000009,6.179380894000019],[8.200489998000023,6.183467865000011],[8.213658333000012,6.190279007000015],[8.228643417,6.198906898000018],[8.246353149000015,6.204810142999975],[8.260430336000013,6.207988738999973],[8.273598671000002,6.207534790000011],[8.284497261000013,6.214800357999991],[8.295395851000023,6.2238821980000125],[8.304477691999978,6.226606369000024],[8.315829276999978,6.227060795],[8.321278571999983,6.225244522000025],[8.324457169000027,6.218432903000007],[8.326727866999988,6.211167336000017],[8.328089713999987,6.204356194000013],[8.329452515000014,6.198906898000018],[8.329906463999976,6.190279007000015],[8.335355758999981,6.185738087000004],[8.343074799000021,6.182559490000017],[8.348524094000027,6.183013915999993],[8.355790137999975,6.180743216999986],[8.362339019999979,6.176262378999979],[8.363509178000015,6.178018570000006],[8.371229172000028,6.196636677000015],[8.379857062999974,6.202085495000006],[8.384944915999995,6.205538273000002],[8.392571449000002,6.210713386999998],[8.400745391999976,6.216616631000022],[8.403470039000013,6.227060795],[8.405285834999972,6.2370505330000015],[8.411189078999996,6.2461323740000125],[8.418000221,6.261117458000001],[8.416638374000001,6.273378372000025],[8.410900115999993,6.282116412999983],[8.405285834999972,6.286092757999995],[8.394387245000019,6.296990870999991],[8.391663551000022,6.3065271379999785],[8.395977019999975,6.331501961000015],[8.397912979000012,6.345054625999978]]]},"properties":{"fid":175,"cty_nm":"Nigeria","iso3cd":"NGA","adm1nm":"Ebonyi","adm2nm":"Abakaliki","adm1cd":"NGA011","adm2cd":"NGA011001"}},{"type":"Feature","id":177,"geometry":{"type":"Polygon","coordinates":[[[7.868016243,5.951814174999981],[7.862872123999978,5.95188045499998],[7.855606555999998,5.953242778999993],[7.850157260999993,5.955967425999972],[7.846070766000025,5.956875324000009],[7.835626601999991,5.9623246190000145],[7.826544762000026,5.967319488999976],[7.819733143000008,5.968681812],[7.816100597000002,5.9650492669999835],[7.8156466479999835,5.962778567999976],[7.819733143000008,5.958237648000022],[7.819733143000008,5.955967425999972],[7.817462921000015,5.956875324000009],[7.813829898999984,5.954605103000006],[7.811105727999973,5.952334403999998],[7.810651301999997,5.947339535000026],[7.806110381999986,5.9482479100000205],[7.802023410999993,5.949155807000011],[7.795666218000008,5.955512999999996],[7.789309025000023,5.955512999999996],[7.782951831999981,5.9527888299999745],[7.772507668000003,5.940982341999984],[7.76387977600001,5.938257694000015],[7.758884906999981,5.931446074999997],[7.747986793999985,5.927359581000019],[7.741629123999985,5.922818661000008],[7.737846850999972,5.919380187999991],[7.735725880000018,5.911466121999979],[7.733001709000007,5.906471252000017],[7.718016623999972,5.888761520000003],[7.715291976999993,5.881950377999999],[7.71029710800002,5.875592708999989],[7.706664085,5.862424374],[7.7016692160000275,5.846076965000009],[7.698944568999991,5.83926534699998],[7.694857597000009,5.834270477000018],[7.692132949999973,5.830183506000026],[7.683955192999974,5.822346209999978],[7.704230309000025,5.819192410000028],[7.71307897600002,5.81800079300001],[7.728976726999974,5.815860747999977],[7.756578445000002,5.813005447000023],[7.764192580999975,5.813957214000027],[7.780373096000005,5.806818962000023],[7.786321639999983,5.804915428000015],[7.792984009000008,5.79159069100001],[7.793935776000012,5.777313708999998],[7.796791077000023,5.761609077000003],[7.803929805999985,5.744953156000008],[7.815351008999983,5.735910891999993],[7.820585728000026,5.727820872999985],[7.830579757999999,5.723062038000023],[7.840573311000014,5.710688591000007],[7.861988543999985,5.697363853000013],[7.870554447000018,5.693556785999988],[7.886259079000013,5.687846184000023],[7.890100001999997,5.6847996710000075],[7.89010715500001,5.692021846999978],[7.88780307799999,5.696609019999983],[7.886644839999974,5.700051785000028],[7.894609928000023,5.705835819000015],[7.900290966,5.711608887000011],[7.904841900000008,5.715077876999999],[7.908245087000012,5.719692230000021],[7.911643981999987,5.725453854000023],[7.912758827000005,5.731205939999995],[7.913878918000023,5.735808849000023],[7.9149951929999816,5.741560935999985],[7.915593146999981,5.74464750300001],[7.909643650000021,5.746630669000012],[7.905556678999972,5.749354838999977],[7.900561809999999,5.756620407000014],[7.892388343999983,5.767064570999992],[7.889663696000014,5.772513865999997],[7.886030673999983,5.780233382999995],[7.88376045199999,5.788406849000012],[7.883306026000014,5.7993054390000225],[7.883306026000014,5.808387279999977],[7.878765106000003,5.825188636999997],[7.878311156999985,5.829729557000007],[7.875132560999987,5.839719295999998],[7.871500014999981,5.847893237999983],[7.868321418999983,5.862424374],[7.868775368000001,5.874684811000009],[7.868775368000001,5.8801336289999995],[7.866959095000027,5.886491298999999],[7.863326072999996,5.89194011699999],[7.861963748999983,5.904654979999975],[7.862418175000016,5.926905154999986],[7.864234447000001,5.935986995999997],[7.866959095000027,5.94370698900002],[7.868016243,5.951814174999981]]]},"properties":{"fid":177,"cty_nm":"Nigeria","iso3cd":"NGA","adm1nm":"Ebonyi","adm2nm":"Afikpo South","adm1cd":"NGA011","adm2cd":"NGA011003"}},{"type":"Feature","id":178,"geometry":{"type":"Polygon","coordinates":[[[8.170243262999975,6.352418423000017],[8.170134544000007,6.354446411000026],[8.170973778000018,6.357385158999989],[8.170973778000018,6.368737698000018],[8.16961193100002,6.375094891000003],[8.170519829,6.391896248000023],[8.169157982000002,6.4032487869999954],[8.166887282999994,6.409605979999981],[8.164616584999976,6.422320366000008],[8.16007614099999,6.427315711999995],[8.15871334100001,6.43367290499998],[8.156897544999993,6.44320869400002],[8.159167290000028,6.448657990000015],[8.161437987999989,6.4586482049999745],[8.161891937000007,6.467730044999996],[8.160984039000027,6.475903511000013],[8.159622191999972,6.48180675499998],[8.159622191999972,6.485893725999972],[8.16007614099999,6.4954295160000015],[8.163254737999978,6.500424384999974],[8.163254737999978,6.511322974999985],[8.162345886000026,6.519042491999983],[8.163708686999996,6.527215957999999],[8.164616584999976,6.530848979999973],[8.167341232000012,6.5372061730000155],[8.170065879999981,6.541293144000008],[8.171882628999981,6.549012661000006],[8.174606322999978,6.556277752000028],[8.174606322999978,6.56308937099999],[8.174152374000016,6.569446563999975],[8.172790527000018,6.581253052000022],[8.17324447599998,6.589880943000026],[8.176423073000024,6.594875812999987],[8.176423073000024,6.603957653000009],[8.176877021999985,6.610314845999994],[8.174606322999978,6.615310191999981],[8.174152374000016,6.622575760000018],[8.174152374000016,6.628024578000009],[8.174606322999978,6.632111549000001],[8.175061226000025,6.642555714000025],[8.175061226000025,6.6475505829999975],[8.175515174999987,6.652091503000008],[8.175061226000025,6.657994746999975],[8.174606322999978,6.664806365999993],[8.174152374000016,6.669347286000004],[8.174152374000016,6.672525882999992],[8.173698424999998,6.680699348000019],[8.17324447599998,6.69205188799998],[8.172790527000018,6.698863028999995],[8.171882628999981,6.706128596999974],[8.169157982000002,6.711123466000004],[8.164843559000019,6.71611881299998],[8.159394264000014,6.724292278000007],[8.15258312200001,6.742455958999983],[8.149063109999986,6.747088909000013],[8.147133827000005,6.7429099080000015],[8.145318030999988,6.734736442999974],[8.144409180000025,6.725200653000002],[8.136236191000023,6.71611881299998],[8.127608298999974,6.71157789199998],[8.112169266000024,6.709307194000019],[8.103995322999992,6.712031840999998],[8.098546027999987,6.707036972000026],[8.095367431999989,6.707944870000006],[8.089010239000004,6.71157789199998],[8.079566001999979,6.713151932000017],[8.080609321999987,6.70976114299998],[8.081063271000005,6.7029500009999765],[8.080609321999987,6.699317455000028],[8.081063271000005,6.696138382000015],[8.082880020000005,6.69205188799998],[8.083787917999985,6.683423995999988],[8.085604667999974,6.679337024999995],[8.085604667999974,6.6720714570000155],[8.086058616999992,6.666168212999992],[8.08923721299999,6.652545452000027],[8.094232558999977,6.640285015000018],[8.097865104999983,6.633019446999981],[8.096957207000003,6.6230297089999794],[8.097865104999983,6.610769272000027],[8.100135803,6.604411602000027],[8.101497649999999,6.590334891999987],[8.102406502000008,6.575803757000017],[8.104222298000025,6.561273098000015],[8.103314399999988,6.545834064000019],[8.101497649999999,6.536297798000021],[8.098319054000001,6.527669907000018],[8.090145111000027,6.519042491999983],[8.085150719000012,6.508598328000005],[8.076068878000001,6.4954295160000015],[8.075160026999981,6.48634767499999],[8.070165633999977,6.475449561999994],[8.06698703799998,6.466367721999973],[8.063354491999974,6.456377506000024],[8.061083794000012,6.448204040999997],[8.057905197000025,6.4400300980000225],[8.054272652000009,6.428678036000008],[8.048823357000003,6.420050144000015],[8.045644760000016,6.408243656000025],[8.044281959999978,6.393258571999979],[8.043828011000016,6.382814407000012],[8.039741515999992,6.377819537999983],[8.032929420000016,6.366013049999992],[8.027935028000002,6.355568886000015],[8.027026175999993,6.344216824],[8.025726318000011,6.33953618999999],[8.034292220999987,6.329685687999984],[8.048796654,6.319576262999988],[8.057451248000007,6.327869415000009],[8.06517028799999,6.335588932000007],[8.07470607800002,6.33695125600002],[8.082426070999986,6.33695125600002],[8.094232558999977,6.329231739000022],[8.100589752000019,6.326507091999986],[8.111488341999973,6.322874069000022],[8.117845535000015,6.322874069000022],[8.126018524000017,6.320603848000019],[8.133738517999973,6.322420120000004],[8.13737106299999,6.328323364000028],[8.142820357999994,6.336496829999987],[8.146906853000019,6.347395419999998],[8.156442642000002,6.350574016999985],[8.170243262999975,6.352418423000017]]]},"properties":{"fid":178,"cty_nm":"Nigeria","iso3cd":"NGA","adm1nm":"Ebonyi","adm2nm":"Ebonyi","adm1cd":"NGA011","adm2cd":"NGA011004"}},{"type":"Feature","id":179,"geometry":{"type":"Polygon","coordinates":[[[8.025726318000011,6.33953618999999],[8.019761086000017,6.343762398000024],[8.011587142999986,6.352390289000027],[8.00704669999999,6.359655857000007],[7.998872757000015,6.368737698000018],[7.984342098000013,6.3737325669999905],[7.968902587999992,6.375094891000003],[7.954825878000008,6.371916294000016],[7.947560309999972,6.366013049999992],[7.940749168000025,6.361926079],[7.9334497450000185,6.361926079],[7.931212902000027,6.353298664000022],[7.928034305999972,6.350120068000024],[7.9257640839999794,6.3446707730000185],[7.924401760000023,6.339675903],[7.924401760000023,6.3324103360000095],[7.924855708999985,6.324236392999978],[7.924855708999985,6.316971302000013],[7.924855708999985,6.311068057999989],[7.92394733399999,6.3047103879999895],[7.9207687379999925,6.299261569999999],[7.917590141000005,6.288363457000003],[7.913957595999989,6.284276485000021],[7.913049220999994,6.280189514000028],[7.912141323000014,6.267929077000019],[7.9107789990000015,6.260663508999983],[7.9085083009999835,6.252035617999979],[7.907145977000027,6.242499828000007],[7.905329703999996,6.2388672829999905],[7.897610187999987,6.233417987999985],[7.892615318000026,6.226152420000005],[7.882905005999987,6.2186489110000025],[7.887619971999982,6.207534790000011],[7.885803699000007,6.198906898000018],[7.886257648000026,6.195274353000002],[7.884441375999984,6.189371108999978],[7.882316113000002,6.184412479000002],[7.891252995000002,6.186646461000009],[7.898064137000006,6.188008785000022],[7.906692028000009,6.186646461000009],[7.916682243000025,6.1798348429999805],[7.9212231640000255,6.175748348000013],[7.92394733399999,6.170753002000026],[7.927126407999992,6.1662120820000155],[7.931667328000003,6.163941860000023],[7.93984079400002,6.16712045700001],[7.946197987000005,6.16712045700001],[7.947560309999972,6.16257953600001],[7.947560309999972,6.157130241000004],[7.948468685000023,6.150773048000019],[7.9502849579999975,6.147140503000003],[7.953917503000014,6.145323753000014],[7.9648160930000245,6.145323753000014],[7.972535610000023,6.149410724999996],[7.977530478999995,6.1530437470000265],[7.981163025000001,6.160308837999992],[7.982979774,6.175748348000013],[7.982071399999995,6.183013915999993],[7.982071399999995,6.188916683000002],[7.996602535000022,6.200723170999993],[8.012041092000004,6.208897114000024],[8.025210381000022,6.209805012000004],[8.031567574000007,6.210713386999998],[8.037924766999993,6.210864544000003],[8.037924766999993,6.215708256000028],[8.04110336299999,6.2216114999999945],[8.045190810999998,6.228877067999974],[8.051093101999982,6.244316100999981],[8.053817749000018,6.2511277199999995],[8.056088448000025,6.257484912999985],[8.058813095000005,6.264750481000021],[8.058813095000005,6.271561623000025],[8.058813095000005,6.296990870999991],[8.057905197000025,6.30380249000001],[8.054272652000009,6.311975956000026],[8.048796654,6.319576262999988],[8.034292220999987,6.329685687999984],[8.025726318000011,6.33953618999999]]]},"properties":{"fid":179,"cty_nm":"Nigeria","iso3cd":"NGA","adm1nm":"Ebonyi","adm2nm":"Ezza North","adm1cd":"NGA011","adm2cd":"NGA011005"}},{"type":"Feature","id":180,"geometry":{"type":"Polygon","coordinates":[[[8.155988692999983,6.183467865000011],[8.151902199000006,6.184830189000024],[8.148723602000018,6.183921813999973],[8.143728255999974,6.183013915999993],[8.13600921599999,6.179380894000019],[8.126473427000008,6.174386024],[8.116482734999977,6.172569752000015],[8.105130196000005,6.170299053000008],[8.089691162000008,6.176202296999975],[8.078339577000008,6.1798348429999805],[8.072890282000003,6.183013915999993],[8.061537742999974,6.184375762999991],[8.05245590200002,6.185284137999986],[8.042466164000018,6.188916683000002],[8.037470817999974,6.197998524000013],[8.037924766999993,6.210864544000003],[8.031567574000007,6.210713386999998],[8.025210381000022,6.209805012000004],[8.012041092000004,6.208897114000024],[7.996602535000022,6.200723170999993],[7.982071399999995,6.188916683000002],[7.982071399999995,6.183013915999993],[7.982979774,6.175748348000013],[7.981163025000001,6.160308837999992],[7.977530478999995,6.1530437470000265],[7.972535610000023,6.149410724999996],[7.9648160930000245,6.145323753000014],[7.953917503000014,6.145323753000014],[7.9502849579999975,6.147140503000003],[7.948468685000023,6.150773048000019],[7.947560309999972,6.157130241000004],[7.947560309999972,6.16257953600001],[7.946197987000005,6.16712045700001],[7.93984079400002,6.16712045700001],[7.931667328000003,6.163941860000023],[7.927126407999992,6.1662120820000155],[7.92394733399999,6.170753002000026],[7.9212231640000255,6.175748348000013],[7.916682243000025,6.1798348429999805],[7.906692028000009,6.186646461000009],[7.898064137000006,6.188008785000022],[7.891252995000002,6.186646461000009],[7.882316113000002,6.184412479000002],[7.878992557999993,6.174839973000019],[7.878992557999993,6.167574406000028],[7.884441375999984,6.161671162000005],[7.893069266999987,6.153497695999988],[7.903059482999993,6.139874935000023],[7.906692028000009,6.134425640000018],[7.906692028000009,6.122165203000009],[7.903967380999973,6.1021852490000015],[7.903967380999973,6.094919682000011],[7.903967380999973,6.0849294660000055],[7.903967380999973,6.070398807999993],[7.9057836530000145,6.060862541000006],[7.909870624999996,6.049056529999973],[7.921677112999987,6.0436072350000245],[7.932121277000022,6.045877457000017],[7.9502849579999975,6.055867671999977],[7.967540263999979,6.062224865000019],[7.983433723000019,6.065403461000017],[7.992515563999973,6.060862541000006],[8.002051353000013,6.050872803000004],[8.009771347000026,6.038612365999995],[8.011845589000018,6.036974429999987],[8.015220641999974,6.044061183999986],[8.020215033999989,6.049056529999973],[8.026118279000002,6.051780700999984],[8.035200119000024,6.054051399000002],[8.05063915300002,6.059046267999975],[8.061991691999992,6.065403461000017],[8.071073532000014,6.076756000999978],[8.074252129000001,6.080842972000028],[8.071073532000014,6.085837841],[8.061991691999992,6.091741085000024],[8.057451248000007,6.094465732999993],[8.053817749000018,6.100822925999978],[8.053817749000018,6.106272220999983],[8.060174942000003,6.108996391000005],[8.072436332999985,6.108088493000025],[8.083333969000023,6.10718011900002],[8.096503257999984,6.106272220999983],[8.106039047000024,6.106272220999983],[8.117390633000014,6.111721038999974],[8.130105972000024,6.120348929999977],[8.141457558000013,6.131700992999981],[8.144637107999984,6.139874935000023],[8.148723602000018,6.147594452000021],[8.151902199000006,6.154860020000001],[8.155988692999983,6.165304183999979],[8.155534744000022,6.171661377000021],[8.155988692999983,6.183467865000011]]]},"properties":{"fid":180,"cty_nm":"Nigeria","iso3cd":"NGA","adm1nm":"Ebonyi","adm2nm":"Ezza South","adm1cd":"NGA011","adm2cd":"NGA011006"}},{"type":"Feature","id":181,"geometry":{"type":"Polygon","coordinates":[[[8.362339019999979,6.176262378999979],[8.355790137999975,6.180743216999986],[8.348524094000027,6.183013915999993],[8.343074799000021,6.182559490000017],[8.335355758999981,6.185738087000004],[8.329906463999976,6.190279007000015],[8.329452515000014,6.198906898000018],[8.328089713999987,6.204356194000013],[8.326727866999988,6.211167336000017],[8.324457169000027,6.218432903000007],[8.321278571999983,6.225244522000025],[8.315829276999978,6.227060795],[8.304477691999978,6.226606369000024],[8.295395851000023,6.2238821980000125],[8.284497261000013,6.214800357999991],[8.273598671000002,6.207534790000011],[8.260430336000013,6.207988738999973],[8.246353149000015,6.204810142999975],[8.228643417,6.198906898000018],[8.213658333000012,6.190279007000015],[8.200489998000023,6.183467865000011],[8.182780266000009,6.179380894000019],[8.167341232000012,6.178018570000006],[8.155988692999983,6.183467865000011],[8.155534744000022,6.171661377000021],[8.155988692999983,6.165304183999979],[8.151902199000006,6.154860020000001],[8.148723602000018,6.147594452000021],[8.144637107999984,6.139874935000023],[8.141457558000013,6.131700992999981],[8.130105972000024,6.120348929999977],[8.117390633000014,6.111721038999974],[8.106039047000024,6.106272220999983],[8.096503257999984,6.106272220999983],[8.083333969000023,6.10718011900002],[8.072436332999985,6.108088493000025],[8.060174942000003,6.108996391000005],[8.053817749000018,6.106272220999983],[8.053817749000018,6.100822925999978],[8.057451248000007,6.094465732999993],[8.061991691999992,6.091741085000024],[8.071073532000014,6.085837841],[8.074252129000001,6.080842972000028],[8.071073532000014,6.076756000999978],[8.061991691999992,6.065403461000017],[8.05063915300002,6.059046267999975],[8.035200119000024,6.054051399000002],[8.026118279000002,6.051780700999984],[8.020215033999989,6.049056529999973],[8.015220641999974,6.044061183999986],[8.011845589000018,6.036974429999987],[8.018399239000018,6.031800746999977],[8.04019546500001,6.017724036999994],[8.054822922000028,6.007657051000024],[8.060527802000024,6.007617949999997],[8.068496703999983,6.005267143000026],[8.073042869999995,6.002939223999988],[8.079854011999998,5.998300076000021],[8.084383011,5.993676186000016],[8.088920593000012,5.990200995999999],[8.091168403999973,5.985592842000017],[8.094556807999993,5.980977058000008],[8.09568023700001,5.978672980999988],[8.097928046999982,5.9740648270000065],[8.101316451999992,5.9694499970000265],[8.103547096,5.962544917999992],[8.105802535999999,5.959084987999972],[8.106909751999979,5.954484939999986],[8.108016968000015,5.949884892],[8.109123230000023,5.9452848430000245],[8.111371039999995,5.940678119999973],[8.113847733,5.938149929000019],[8.122344016999989,5.943515300999991],[8.13643932299999,5.954967022000005],[8.148331642000016,5.963776587999973],[8.153177260999996,5.967300415000011],[8.167712212000026,5.969502449000004],[8.17295074499998,5.973770618000003],[8.179605483999978,5.97919273399998],[8.193699836999997,5.991966247999983],[8.204271317000007,6.004299640999989],[8.214842796000028,6.01222801199998],[8.222770690999994,6.014430045999973],[8.230258941999978,6.012668132999977],[8.238186836000011,6.014870643999984],[8.244793892000018,6.01795387300001],[8.249198913999976,6.015751362000003],[8.252722740000024,6.01222801199998],[8.254043578999983,6.005180359000008],[8.258448600999998,5.9981327059999785],[8.263733864000017,5.996811390000005],[8.274305344000027,5.999013901000012],[8.282233238000003,6.004739760999996],[8.286638260000018,6.01663255699998],[8.287519454999995,6.028965473000028],[8.28884029400001,6.045703410999977],[8.291483878999998,6.05539369600001],[8.298229218000017,6.067536830999984],[8.29835033400002,6.077161789000002],[8.298409461999995,6.085197925999978],[8.29845237699999,6.090939045000027],[8.300775527999974,6.096662997999999],[8.30195999099999,6.102396010999996],[8.302002906999974,6.108136177000006],[8.309472083999992,6.1126294140000255],[8.314921378999998,6.116261958999985],[8.317646027000023,6.123981475999983],[8.320824623000021,6.128976822000027],[8.331269264000014,6.135334015000012],[8.339442253000016,6.1530437470000265],[8.354924202000007,6.167472839000027],[8.358968735000019,6.171207428000002],[8.362339019999979,6.176262378999979]]]},"properties":{"fid":181,"cty_nm":"Nigeria","iso3cd":"NGA","adm1nm":"Ebonyi","adm2nm":"Ikwo","adm1cd":"NGA011","adm2cd":"NGA011007"}},{"type":"Feature","id":182,"geometry":{"type":"Polygon","coordinates":[[[7.929416656000001,6.532986164000022],[7.922131062000005,6.536297798000021],[7.909416675999978,6.542654991000006],[7.900334835000024,6.547650336999993],[7.88716602300002,6.552645206000022],[7.878084182999999,6.561727046999977],[7.8690023419999875,6.568992615000013],[7.855833529999984,6.580799103000004],[7.852654933999986,6.588064670999984],[7.846751690000019,6.604411602000027],[7.844027041999993,6.60849857300002],[7.836761951000028,6.614855766000005],[7.833582878000016,6.619396687000005],[7.833582878000016,6.626208304999977],[7.831766604999984,6.638468741999986],[7.821776866999983,6.638922691000005],[7.807140827000012,6.633817195999995],[7.802250861999994,6.632111549000001],[7.775913238999976,6.633473873000014],[7.7473053929999764,6.633473873000014],[7.724146843000028,6.634836197000027],[7.70575618700002,6.636198520999983],[7.698944568999991,6.630749225999978],[7.7016692160000275,6.610769272000027],[7.703923701999997,6.607056140999987],[7.717108250000024,6.585340023000015],[7.7307310099999995,6.559910774000002],[7.746851444000015,6.472724915000015],[7.749121666000008,6.447295666000002],[7.750030041000002,6.423228741000003],[7.751392365000015,6.385539054999981],[7.738677501999973,6.353752612999983],[7.720968245999984,6.331048011999997],[7.708026409000013,6.298353195000004],[7.708934784000007,6.277919291999979],[7.721649169999978,6.249311447000025],[7.725004673000001,6.242600917999994],[7.735498904999986,6.245224475999976],[7.748667716999989,6.247494698000025],[7.7595658299999855,6.250673294000023],[7.768193721999978,6.251581669000018],[7.7859034539999925,6.2511277199999995],[7.796801566999989,6.2511277199999995],[7.814056873000027,6.247494698000025],[7.820414543000027,6.242499828000007],[7.829041958000005,6.235688686000003],[7.832674979999979,6.229331016999993],[7.8381237980000265,6.227060795],[7.84175682099999,6.224336146999974],[7.855833529999984,6.2238821980000125],[7.870818615000019,6.2238821980000125],[7.882905005999987,6.2186489110000025],[7.892615318000026,6.226152420000005],[7.897610187999987,6.233417987999985],[7.905329703999996,6.2388672829999905],[7.907145977000027,6.242499828000007],[7.9085083009999835,6.252035617999979],[7.9107789990000015,6.260663508999983],[7.912141323000014,6.267929077000019],[7.913049220999994,6.280189514000028],[7.913957595999989,6.284276485000021],[7.917590141000005,6.288363457000003],[7.9207687379999925,6.299261569999999],[7.92394733399999,6.3047103879999895],[7.924855708999985,6.311068057999989],[7.924855708999985,6.316971302000013],[7.924855708999985,6.324236392999978],[7.924401760000023,6.3324103360000095],[7.924401760000023,6.339675903],[7.9257640839999794,6.3446707730000185],[7.928034305999972,6.350120068000024],[7.931212902000027,6.353298664000022],[7.9334497450000185,6.361926079],[7.934391499000014,6.365559100999974],[7.933483600999978,6.375548840000022],[7.933029652000016,6.383722782000007],[7.9352998730000195,6.401432514000021],[7.9380245209999885,6.417779445999997],[7.938478470000007,6.430948257000011],[7.936208248000014,6.445933341999989],[7.936208248000014,6.453198910000026],[7.933483600999978,6.464551448999998],[7.931667328000003,6.469546318000027],[7.9257640839999794,6.4804444310000235],[7.92394733399999,6.491342545000009],[7.92394733399999,6.502695083999981],[7.924855708999985,6.5126852989999975],[7.9257640839999794,6.520404815999996],[7.929416656000001,6.532986164000022]]]},"properties":{"fid":182,"cty_nm":"Nigeria","iso3cd":"NGA","adm1nm":"Ebonyi","adm2nm":"Ishielu","adm1cd":"NGA011","adm2cd":"NGA011008"}},{"type":"Feature","id":183,"geometry":{"type":"Polygon","coordinates":[[[7.691889285999991,5.924640178999994],[7.678964614999984,5.928721904999975],[7.664433479000024,5.930084228999988],[7.6353716849999955,5.943252562999987],[7.5890541080000276,5.961416245000009],[7.573160647999998,5.969135761000018],[7.559083939000004,5.985483170000009],[7.547191619999978,5.994943142000011],[7.55337238300001,5.981471538999983],[7.552896499999974,5.96529102300002],[7.552896499999974,5.953869820000023],[7.55004119900002,5.941496372000017],[7.53957176199998,5.9072322850000205],[7.540999413000009,5.890100001999997],[7.538143634999983,5.875823497999988],[7.538604736000025,5.869834900000001],[7.538619994999976,5.858215331999986],[7.53957176199998,5.851077079999982],[7.544806479999977,5.846794127999999],[7.5519447330000276,5.843462944000009],[7.566697598000019,5.8439388279999775],[7.570980549000012,5.841083050000009],[7.584781169999985,5.837275981999994],[7.597154617000001,5.8339447980000045],[7.6047687529999735,5.8306136130000255],[7.617618084000014,5.827282428999979],[7.631418704999987,5.825854778000007],[7.6571168899999975,5.823951244],[7.683955192999974,5.822346209999978],[7.692132949999973,5.830183506000026],[7.694857597000009,5.834270477000018],[7.698944568999991,5.83926534699998],[7.7016692160000275,5.846076965000009],[7.706664085,5.862424374],[7.71029710800002,5.875592708999989],[7.715291976999993,5.881950377999999],[7.718016623999972,5.888761520000003],[7.733001709000007,5.906471252000017],[7.735725880000018,5.911466121999979],[7.737846850999972,5.919380187999991],[7.736634254000023,5.924634932999993],[7.720286846000022,5.931900500999973],[7.717108250000024,5.92781352999998],[7.710751056999982,5.9219102860000135],[7.696219921000022,5.923272610000026],[7.691889285999991,5.924640178999994]]]},"properties":{"fid":183,"cty_nm":"Nigeria","iso3cd":"NGA","adm1nm":"Ebonyi","adm2nm":"Ivo","adm1cd":"NGA011","adm2cd":"NGA011009"}},{"type":"Feature","id":184,"geometry":{"type":"Polygon","coordinates":[[[8.29451465599999,6.678709029999993],[8.283816338000008,6.692505836000009],[8.278820992000021,6.697955132000004],[8.280183792000003,6.704766273000018],[8.285632132999979,6.710215569000013],[8.280183792000003,6.7152104379999855],[8.273825644999988,6.712940215999993],[8.273825644999988,6.716572761999998],[8.268831252999973,6.7279253010000275],[8.261111259000018,6.731103897000025],[8.251575469999977,6.735644816999979],[8.256116867000003,6.737461090000011],[8.262474059999988,6.737915038999972],[8.266106605999994,6.741548061000003],[8.261111259000018,6.755170822000025],[8.255661964000012,6.766068935000021],[8.249758719999988,6.768339157000014],[8.249758719999988,6.771063804999983],[8.249758719999988,6.775604724999994],[8.244310379000012,6.78559494000001],[8.240676880000024,6.792406082000014],[8.234319686999982,6.799217700999975],[8.229325293999977,6.800125599000012],[8.22614669799998,6.789681911000002],[8.220243454000013,6.778783320999992],[8.212977409000018,6.776058674000012],[8.199355125000011,6.778329371999973],[8.191635131999988,6.778329371999973],[8.183916092000004,6.775604724999994],[8.173017501999993,6.773334503000001],[8.16529750799998,6.766522883999983],[8.160303116000023,6.761074065999992],[8.15258312200001,6.754716395999992],[8.149063109999986,6.747088909000013],[8.15258312200001,6.742455958999983],[8.159394264000014,6.724292278000007],[8.164843559000019,6.71611881299998],[8.169157982000002,6.711123466000004],[8.171882628999981,6.706128596999974],[8.172790527000018,6.698863028999995],[8.17324447599998,6.69205188799998],[8.173698424999998,6.680699348000019],[8.174152374000016,6.672525882999992],[8.174152374000016,6.669347286000004],[8.174606322999978,6.664806365999993],[8.175061226000025,6.657994746999975],[8.175515174999987,6.652091503000008],[8.175061226000025,6.6475505829999975],[8.175061226000025,6.642555714000025],[8.174606322999978,6.632111549000001],[8.174152374000016,6.628024578000009],[8.174152374000016,6.622575760000018],[8.174606322999978,6.615310191999981],[8.176877021999985,6.610314845999994],[8.176423073000024,6.603957653000009],[8.176423073000024,6.594875812999987],[8.17324447599998,6.589880943000026],[8.172790527000018,6.581253052000022],[8.174152374000016,6.569446563999975],[8.174606322999978,6.56308937099999],[8.174606322999978,6.556277752000028],[8.171882628999981,6.549012661000006],[8.170065879999981,6.541293144000008],[8.167341232000012,6.5372061730000155],[8.164616584999976,6.530848979999973],[8.163708686999996,6.527215957999999],[8.162345886000026,6.519042491999983],[8.163254737999978,6.511322974999985],[8.163254737999978,6.500424384999974],[8.16007614099999,6.4954295160000015],[8.159622191999972,6.485893725999972],[8.159622191999972,6.48180675499998],[8.160984039000027,6.475903511000013],[8.161891937000007,6.467730044999996],[8.161437987999989,6.4586482049999745],[8.159167290000028,6.448657990000015],[8.156897544999993,6.44320869400002],[8.15871334100001,6.43367290499998],[8.16007614099999,6.427315711999995],[8.164616584999976,6.422320366000008],[8.166887282999994,6.409605979999981],[8.169157982000002,6.4032487869999954],[8.170519829,6.391896248000023],[8.16961193100002,6.375094891000003],[8.170973778000018,6.368737698000018],[8.170973778000018,6.357385158999989],[8.170134544000007,6.354446411000026],[8.170243262999975,6.352418423000017],[8.170973778000018,6.338767528999995],[8.172790527000018,6.3319559099999765],[8.183689116999972,6.314246654999977],[8.191862105999974,6.310613632000013],[8.200489998000023,6.310159682999995],[8.210479736000025,6.311522007000008],[8.215475082000012,6.310613632000013],[8.226373672000022,6.313792229000001],[8.237271308999993,6.317879199999993],[8.252256392999982,6.320603848000019],[8.26270103500002,6.321057795999991],[8.272236824000004,6.325598716999991],[8.282680511000024,6.326507091999986],[8.28858375499999,6.328323364000028],[8.308110236999994,6.329685687999984],[8.318099975999985,6.331048011999997],[8.323095321999972,6.330594062999978],[8.330360412999994,6.3319559099999765],[8.338534354999979,6.331501961000015],[8.345799446000001,6.329685687999984],[8.355336189000013,6.330594062999978],[8.35942268399998,6.328323364000028],[8.366687775000003,6.327869415000009],[8.375769615000024,6.331501961000015],[8.379857062999974,6.33695125600002],[8.39120864900002,6.344216824],[8.397912979000012,6.345054625999978],[8.39915561700002,6.353752612999983],[8.403697013999988,6.366013049999992],[8.407329559000004,6.374640941999985],[8.413232803000028,6.377819537999983],[8.430942534999986,6.380998135000027],[8.445018768000011,6.385539054999981],[8.44774341599998,6.391896248000023],[8.444110869999975,6.402340412000001],[8.44774341599998,6.405065060000027],[8.453646660000004,6.405973433999975],[8.455009459999985,6.410059928999999],[8.455009459999985,6.41460084900001],[8.456825256000002,6.417779445999997],[8.456825256000002,6.428223609999975],[8.452284813000006,6.430040358999975],[8.44592762000002,6.429131985000026],[8.442294120999975,6.432764529999986],[8.432304381999984,6.433218956000019],[8.431850433000022,6.439576149000004],[8.435482979000028,6.4436631199999965],[8.438661575000026,6.446841716999984],[8.430487632999984,6.45773982999998],[8.42367649099998,6.466367721999973],[8.422768593,6.477719783999987],[8.408691406000003,6.477719783999987],[8.405966759000023,6.484985352000024],[8.408691406000003,6.488618373999998],[8.41096210500001,6.494521141000007],[8.412323952000008,6.500424384999974],[8.420497893999993,6.505419731000018],[8.420043944999975,6.51041459999999],[8.419136046999995,6.514501571999972],[8.415503501999979,6.518588066000007],[8.410054206999973,6.517226219000008],[8.395977019999975,6.519496441000001],[8.390981673999988,6.5231289860000174],[8.390981673999988,6.526308060000019],[8.393706322000014,6.531302928999992],[8.39915561700002,6.532210826999972],[8.400063515,6.536297798000021],[8.396430968999994,6.539476395000008],[8.393252372999996,6.544471740999995],[8.391436576999979,6.550374985000019],[8.38689518000001,6.549920558999986],[8.379630088999988,6.548558234999973],[8.37508869200002,6.545834064000019],[8.371456146000014,6.548104286000012],[8.372364043999994,6.553099154999984],[8.372817993000012,6.559002399000008],[8.374180793999983,6.563543320000008],[8.370093345999976,6.56308937099999],[8.36373615299999,6.562180995999995],[8.358741759999987,6.563997745999984],[8.351929665,6.574441910000019],[8.346935271999996,6.575349807999999],[8.34012317700001,6.575349807999999],[8.333312035000006,6.584885596999982],[8.330133438000018,6.591697216],[8.324751853999999,6.589499473999979],[8.323322296000015,6.596238136000011],[8.321959495999977,6.603049754999972],[8.314240455999993,6.607136249999996],[8.314240455999993,6.612131595999983],[8.321051597999997,6.613947868000025],[8.321505547000015,6.6184887890000255],[8.324230193999995,6.621213436000005],[8.325138091999975,6.625754356000016],[8.322414397999978,6.634381770999994],[8.315602302999991,6.634381770999994],[8.309245110000006,6.639377116999981],[8.30470466600002,6.650729178999995],[8.30652046199998,6.660719395000001],[8.301980018999984,6.669801235000023],[8.29451465599999,6.678709029999993]]]},"properties":{"fid":184,"cty_nm":"Nigeria","iso3cd":"NGA","adm1nm":"Ebonyi","adm2nm":"Izzi","adm1cd":"NGA011","adm2cd":"NGA011010"}},{"type":"Feature","id":185,"geometry":{"type":"Polygon","coordinates":[[[7.9257640839999794,5.9736766820000184],[7.923493384999972,5.979125977000024],[7.919860840000013,5.988207816999989],[7.9107789990000015,6.000922679999974],[7.902151107999998,6.008187770999996],[7.8917069440000205,6.019994258999986],[7.884441375999984,6.02589750300001],[7.87763023399998,6.033617020000008],[7.862190723000026,6.0436072350000245],[7.849476336999999,6.047694206000017],[7.84175682099999,6.050418377000028],[7.831766604999984,6.05722999599999],[7.819052219000014,6.060862541000006],[7.801796436000018,6.067220211000006],[7.781816483,6.071306704999984],[7.761382103000017,6.0776643749999835],[7.744580745999997,6.079026221999982],[7.725054741000008,6.081296920999989],[7.713799477000009,6.083923340000013],[7.698036193999997,6.074031353000009],[7.686230183000021,6.071306704999984],[7.669428348999986,6.063587188999975],[7.6683154109999805,6.060618877000024],[7.663979530000006,6.049056529999973],[7.667158126999993,6.030438423000021],[7.675786017999997,6.010004519999995],[7.697128296000017,5.988661766000007],[7.711205006,5.970952511000007],[7.714838027999974,5.945977211000013],[7.704847813000015,5.929175853999993],[7.691889285999991,5.924640178999994],[7.696219921000022,5.923272610000026],[7.710751056999982,5.9219102860000135],[7.717108250000024,5.92781352999998],[7.720286846000022,5.931900500999973],[7.736634254000023,5.924634932999993],[7.737846850999972,5.919380187999991],[7.741629123999985,5.922818661000008],[7.747986793999985,5.927359581000019],[7.758884906999981,5.931446074999997],[7.76387977600001,5.938257694000015],[7.772507668000003,5.940982341999984],[7.782951831999981,5.9527888299999745],[7.789309025000023,5.955512999999996],[7.795666218000008,5.955512999999996],[7.802023410999993,5.949155807000011],[7.806110381999986,5.9482479100000205],[7.810651301999997,5.947339535000026],[7.811105727999973,5.952334403999998],[7.813829898999984,5.954605103000006],[7.817462921000015,5.956875324000009],[7.819733143000008,5.955967425999972],[7.819733143000008,5.958237648000022],[7.8156466479999835,5.962778567999976],[7.816100597000002,5.9650492669999835],[7.819733143000008,5.968681812],[7.826544762000026,5.967319488999976],[7.835626601999991,5.9623246190000145],[7.846070766000025,5.956875324000009],[7.850157260999993,5.955967425999972],[7.855606555999998,5.953242778999993],[7.862872123999978,5.95188045499998],[7.868016243,5.951814174999981],[7.873770236999974,5.955512999999996],[7.879219531999979,5.960508346999973],[7.8951125140000045,5.9623246190000145],[7.90510273000001,5.9623246190000145],[7.920087813999999,5.9623246190000145],[7.922812462000024,5.96777391400002],[7.9257640839999794,5.9736766820000184]]]},"properties":{"fid":185,"cty_nm":"Nigeria","iso3cd":"NGA","adm1nm":"Ebonyi","adm2nm":"Ohaozara","adm1cd":"NGA011","adm2cd":"NGA011011"}},{"type":"Feature","id":186,"geometry":{"type":"Polygon","coordinates":[[[8.079566001999979,6.713151932000017],[8.075387954999997,6.713848113999973],[8.065397263000023,6.71157789199998],[8.050866127000006,6.709307194000019],[8.035427094,6.7124857900000166],[8.025210381000022,6.714302062999991],[8.008408545999998,6.714302062999991],[8.000235557999986,6.712031840999998],[7.99478626299998,6.703858376000028],[7.9884285929999805,6.6879649159999985],[7.985703945000012,6.669347286000004],[7.9870662690000245,6.661173344000019],[7.987520695000001,6.64891290700001],[7.9870662690000245,6.633473873000014],[7.9884285929999805,6.618034840000007],[7.9870662690000245,6.611223220999989],[7.982979774,6.601233005999973],[7.97662210499999,6.583069324000007],[7.970719336999991,6.568538665999995],[7.966632365999999,6.557640075999984],[7.9625453950000065,6.544017315000019],[7.956642150999983,6.540384769000013],[7.949376583000003,6.532210826999972],[7.932121277000022,6.53175687800001],[7.929416656000001,6.532986164000022],[7.9257640839999794,6.520404815999996],[7.924855708999985,6.5126852989999975],[7.92394733399999,6.502695083999981],[7.92394733399999,6.491342545000009],[7.9257640839999794,6.4804444310000235],[7.931667328000003,6.469546318000027],[7.933483600999978,6.464551448999998],[7.936208248000014,6.453198910000026],[7.936208248000014,6.445933341999989],[7.938478470000007,6.430948257000011],[7.9380245209999885,6.417779445999997],[7.9352998730000195,6.401432514000021],[7.933029652000016,6.383722782000007],[7.933483600999978,6.375548840000022],[7.934391499000014,6.365559100999974],[7.9334497450000185,6.361926079],[7.940749168000025,6.361926079],[7.947560309999972,6.366013049999992],[7.954825878000008,6.371916294000016],[7.968902587999992,6.375094891000003],[7.984342098000013,6.3737325669999905],[7.998872757000015,6.368737698000018],[8.00704669999999,6.359655857000007],[8.011587142999986,6.352390289000027],[8.019761086000017,6.343762398000024],[8.025726318000011,6.33953618999999],[8.027026175999993,6.344216824],[8.027935028000002,6.355568886000015],[8.032929420000016,6.366013049999992],[8.039741515999992,6.377819537999983],[8.043828011000016,6.382814407000012],[8.044281959999978,6.393258571999979],[8.045644760000016,6.408243656000025],[8.048823357000003,6.420050144000015],[8.054272652000009,6.428678036000008],[8.057905197000025,6.4400300980000225],[8.061083794000012,6.448204040999997],[8.063354491999974,6.456377506000024],[8.06698703799998,6.466367721999973],[8.070165633999977,6.475449561999994],[8.075160026999981,6.48634767499999],[8.076068878000001,6.4954295160000015],[8.085150719000012,6.508598328000005],[8.090145111000027,6.519042491999983],[8.098319054000001,6.527669907000018],[8.101497649999999,6.536297798000021],[8.103314399999988,6.545834064000019],[8.104222298000025,6.561273098000015],[8.102406502000008,6.575803757000017],[8.101497649999999,6.590334891999987],[8.100135803,6.604411602000027],[8.097865104999983,6.610769272000027],[8.096957207000003,6.6230297089999794],[8.097865104999983,6.633019446999981],[8.094232558999977,6.640285015000018],[8.08923721299999,6.652545452000027],[8.086058616999992,6.666168212999992],[8.085604667999974,6.6720714570000155],[8.085604667999974,6.679337024999995],[8.083787917999985,6.683423995999988],[8.082880020000005,6.69205188799998],[8.081063271000005,6.696138382000015],[8.080609321999987,6.699317455000028],[8.081063271000005,6.7029500009999765],[8.080609321999987,6.70976114299998],[8.079566001999979,6.713151932000017]]]},"properties":{"fid":186,"cty_nm":"Nigeria","iso3cd":"NGA","adm1nm":"Ebonyi","adm2nm":"Ohaukwu","adm1cd":"NGA011","adm2cd":"NGA011012"}},{"type":"Feature","id":187,"geometry":{"type":"Polygon","coordinates":[[[7.882905005999987,6.2186489110000025],[7.870818615000019,6.2238821980000125],[7.855833529999984,6.2238821980000125],[7.84175682099999,6.224336146999974],[7.8381237980000265,6.227060795],[7.832674979999979,6.229331016999993],[7.829041958000005,6.235688686000003],[7.820414543000027,6.242499828000007],[7.814056873000027,6.247494698000025],[7.796801566999989,6.2511277199999995],[7.7859034539999925,6.2511277199999995],[7.768193721999978,6.251581669000018],[7.7595658299999855,6.250673294000023],[7.748667716999989,6.247494698000025],[7.735498904999986,6.245224475999976],[7.725004673000001,6.242600917999994],[7.733001709000007,6.226606369000024],[7.737088202999985,6.20299387],[7.738904952999974,6.172115325999982],[7.726190089999989,6.114899634999972],[7.713799477000009,6.083923340000013],[7.725054741000008,6.081296920999989],[7.744580745999997,6.079026221999982],[7.761382103000017,6.0776643749999835],[7.781816483,6.071306704999984],[7.801796436000018,6.067220211000006],[7.819052219000014,6.060862541000006],[7.831766604999984,6.05722999599999],[7.84175682099999,6.050418377000028],[7.849476336999999,6.047694206000017],[7.862190723000026,6.0436072350000245],[7.87763023399998,6.033617020000008],[7.884441375999984,6.02589750300001],[7.8917069440000205,6.019994258999986],[7.902151107999998,6.008187770999996],[7.9107789990000015,6.000922679999974],[7.919860840000013,5.988207816999989],[7.923493384999972,5.979125977000024],[7.9257640839999794,5.9736766820000184],[7.929623604000028,5.966865540000015],[7.9364352229999895,5.9650492669999835],[7.955506802000002,5.971860408999987],[7.96595096599998,5.9773097039999925],[7.973670959000003,5.971860408999987],[7.979247093000026,5.970290184000021],[7.980422019999992,5.974874020000016],[7.986176967999995,5.981722832000003],[7.993039130999989,5.983972073000018],[8.001050948999989,5.987360953999996],[8.009070396000027,5.991899014000012],[8.014790534999975,5.994154929999979],[8.023943900999996,5.997537136000005],[8.029664992999983,5.999794006000002],[8.036527633999981,6.00204181700002],[8.043389320000017,6.004292011000018],[8.050243378000005,6.0053930280000145],[8.054822922000028,6.007657051000024],[8.04019546500001,6.017724036999994],[8.018399239000018,6.031800746999977],[8.011845589000018,6.036974429999987],[8.009771347000026,6.038612365999995],[8.002051353000013,6.050872803000004],[7.992515563999973,6.060862541000006],[7.983433723000019,6.065403461000017],[7.967540263999979,6.062224865000019],[7.9502849579999975,6.055867671999977],[7.932121277000022,6.045877457000017],[7.921677112999987,6.0436072350000245],[7.909870624999996,6.049056529999973],[7.9057836530000145,6.060862541000006],[7.903967380999973,6.070398807999993],[7.903967380999973,6.0849294660000055],[7.903967380999973,6.094919682000011],[7.903967380999973,6.1021852490000015],[7.906692028000009,6.122165203000009],[7.906692028000009,6.134425640000018],[7.903059482999993,6.139874935000023],[7.893069266999987,6.153497695999988],[7.884441375999984,6.161671162000005],[7.878992557999993,6.167574406000028],[7.878992557999993,6.174839973000019],[7.882316113000002,6.184412479000002],[7.884441375999984,6.189371108999978],[7.886257648000026,6.195274353000002],[7.885803699000007,6.198906898000018],[7.887619971999982,6.207534790000011],[7.882905005999987,6.2186489110000025]]]},"properties":{"fid":187,"cty_nm":"Nigeria","iso3cd":"NGA","adm1nm":"Ebonyi","adm2nm":"Onicha","adm1cd":"NGA011","adm2cd":"NGA011013"}}]}