{"type":"FeatureCollection","features":[{"type":"Feature","id":104,"geometry":{"type":"Polygon","coordinates":[[[8.06368732499999,7.730945587000008],[8.056125640999994,7.729433060000019],[8.045891761999997,7.729433060000019],[8.03193569199999,7.731759070999999],[8.011933327000008,7.736876010999993],[7.999837875000026,7.739666939000017],[7.9849519730000225,7.743854046000024],[7.980300425999985,7.7457146639999905],[7.964483738000013,7.750831603999984],[7.953784466000002,7.7536225320000085],[7.940759182000022,7.758739948000027],[7.926338672999975,7.763856888000021],[7.917500018999988,7.766182899],[7.904009819000009,7.772230148000006],[7.884006499999998,7.781534195000006],[7.859351634999996,7.789907454999991],[7.840744018999999,7.792698383000015],[7.816089153000007,7.792698383000015],[7.805389880999996,7.790837764999992],[7.790969372000006,7.789907454999991],[7.782130718000019,7.788511753000023],[7.759336471999973,7.7768821720000005],[7.750497817999985,7.772230148000006],[7.744690418000005,7.768656731000021],[7.752635478999991,7.744198799000003],[7.752635478999991,7.708192348000011],[7.753994465000005,7.679658889999985],[7.754673958000012,7.661315918000014],[7.754673958000012,7.647728443000005],[7.752448082000001,7.647782802999984],[7.752448082000001,7.623362063999991],[7.750780582000004,7.594179153000027],[7.752864837999994,7.56416273100001],[7.754949570000008,7.544568539000011],[7.755783081000004,7.530394076999983],[7.7545323370000006,7.512884139999983],[7.755366325000011,7.504962921000015],[7.758701324000015,7.492455958999983],[7.759535313000015,7.478698253999994],[7.7607860570000184,7.4516000749999876],[7.764121056000022,7.433673381999995],[7.768290042999979,7.427002906999974],[7.776211262000004,7.419498920000024],[7.792887210999993,7.414913177000017],[7.799140453000007,7.41616392100002],[7.812064647999989,7.414913177000017],[7.834993838999992,7.418664932000013],[7.848751545000027,7.420332909000024],[7.86045074499998,7.413370609000026],[7.870050907000007,7.423340321000012],[7.8737726210000005,7.431713580999997],[7.884936809999999,7.455438136999987],[7.887262820999979,7.462415695000004],[7.89424085600001,7.481953621000002],[7.903544425999996,7.504747867999981],[7.907731055999989,7.5103301999999985],[7.917500018999988,7.521029472000009],[7.937968253999998,7.540102004999994],[7.967275142999995,7.5647568699999965],[7.990068913000016,7.579177856000001],[8.007746696000027,7.590807438000013],[8.026819229000012,7.607089042999974],[8.04775238000002,7.626626967999982],[8.068685532000018,7.637791156999981],[8.079909325000017,7.644670485999995],[8.079617499999983,7.648955822000005],[8.076361656000017,7.66802835499999],[8.076594353000019,7.673610687000007],[8.067755698999974,7.690357208000023],[8.065429687000005,7.701056479999977],[8.064033508000023,7.716407775999983],[8.06368732499999,7.730945587000008]]]},"properties":{"fid":104,"cty_nm":"Nigeria","iso3cd":"NGA","adm1nm":"Benue","adm2nm":"Apa","adm1cd":"NGA007","adm2cd":"NGA007003"}},{"type":"Feature","id":102,"geometry":{"type":"Polygon","coordinates":[[[8.049489974999972,7.029321670999991],[8.034727096999973,7.026535987999978],[8.025888442999985,7.027000903999976],[8.017049788999998,7.027000903999976],[7.998442650000015,7.029326916000002],[7.982161044999998,7.0274662969999895],[7.966344832999994,7.022348881000028],[7.951923846999989,7.015836239000009],[7.946341514999972,7.015371323000011],[7.934711933000017,7.008393287999979],[7.917965412000001,6.991181374000007],[7.907265662999976,6.980017185000008],[7.900753497999972,6.965596199000004],[7.896101475000023,6.954432010999994],[7.89563608200001,6.943267344999981],[7.897497176999991,6.937220097000022],[7.910057068000015,6.917216778000011],[7.915174007000019,6.907913208000025],[7.920290947000012,6.902796267999975],[7.927268981999987,6.890235900999983],[7.929129601,6.877676010000016],[7.927268981999987,6.872559071000012],[7.91470909100002,6.867907047000017],[7.905405045000009,6.867907047000017],[7.895171165000022,6.863255024000011],[7.882596970000009,6.858291625999982],[7.888034344000005,6.853941916999986],[7.890397548999999,6.843700886000022],[7.888822079000022,6.8216438289999815],[7.886458874000027,6.805100917999994],[7.886458874000027,6.794072627999981],[7.887640476000001,6.789345740999977],[7.890003680999996,6.785407066000005],[7.900244713000006,6.786194801000022],[7.903395653000018,6.781468390999976],[7.894730090999985,6.774378776999981],[7.888428211000019,6.766500950000022],[7.878187656000023,6.760199069999999],[7.867158889999985,6.751533508000023],[7.855342387999997,6.742868423000004],[7.845101833000001,6.721599102000027],[7.841163157999972,6.714509009999972],[7.830134391999991,6.689301014000023],[7.821469306999973,6.674333572000023],[7.815166949999991,6.6593666080000276],[7.810440540000002,6.6499133109999775],[7.804926394999995,6.640460490999999],[7.807140827000012,6.633817195999995],[7.821776866999983,6.638922691000005],[7.831766604999984,6.638468741999986],[7.833582878000016,6.626208304999977],[7.833582878000016,6.619396687000005],[7.836761951000028,6.614855766000005],[7.844027041999993,6.60849857300002],[7.846751690000019,6.604411602000027],[7.852654933999986,6.588064670999984],[7.855833529999984,6.580799103000004],[7.8690023419999875,6.568992615000013],[7.878084182999999,6.561727046999977],[7.88716602300002,6.552645206000022],[7.900334835000024,6.547650336999993],[7.909416675999978,6.542654991000006],[7.922131062000005,6.536297798000021],[7.929416656000001,6.532986164000022],[7.932121277000022,6.53175687800001],[7.949376583000003,6.532210826999972],[7.956642150999983,6.540384769000013],[7.9625453950000065,6.544017315000019],[7.966632365999999,6.557640075999984],[7.970719336999991,6.568538665999995],[7.97662210499999,6.583069324000007],[7.982979774,6.601233005999973],[7.9870662690000245,6.611223220999989],[7.9884285929999805,6.618034840000007],[7.9870662690000245,6.633473873000014],[7.987520695000001,6.64891290700001],[7.9870662690000245,6.661173344000019],[7.985703945000012,6.669347286000004],[7.9884285929999805,6.6879649159999985],[7.99478626299998,6.703858376000028],[8.000235557999986,6.712031840999998],[8.008408545999998,6.714302062999991],[8.025210381000022,6.714302062999991],[8.035427094,6.7124857900000166],[8.050866127000006,6.709307194000019],[8.065397263000023,6.71157789199998],[8.075387954999997,6.713848113999973],[8.079566001999979,6.713151932000017],[8.089010239000004,6.71157789199998],[8.095367431999989,6.707944870000006],[8.098546027999987,6.707036972000026],[8.103995322999992,6.712031840999998],[8.112169266000024,6.709307194000019],[8.127608298999974,6.71157789199998],[8.136236191000023,6.71611881299998],[8.144409180000025,6.725200653000002],[8.145318030999988,6.734736442999974],[8.147133827000005,6.7429099080000015],[8.149063109999986,6.747088909000013],[8.15258312200001,6.754716395999992],[8.160303116000023,6.761074065999992],[8.16529750799998,6.766522883999983],[8.173017501999993,6.773334503000001],[8.183916092000004,6.775604724999994],[8.191635131999988,6.778329371999973],[8.199355125000011,6.778329371999973],[8.212977409000018,6.776058674000012],[8.220243454000013,6.778783320999992],[8.22614669799998,6.789681911000002],[8.229325293999977,6.800125599000012],[8.225453377000008,6.806037425999989],[8.207777023000006,6.812084674999994],[8.186842918000025,6.819062233000011],[8.168701171999999,6.82138824499998],[8.16218852999998,6.824179648999973],[8.144976616000008,6.8465085029999955],[8.132881165000015,6.858603476999974],[8.123112678999973,6.8818626400000085],[8.119624138000006,6.8962836270000025],[8.119158744999993,6.912099838000017],[8.115436553999984,6.9195427889999905],[8.113575934999972,6.941871643000013],[8.112180710000018,6.954896926999993],[8.107994080000026,6.966991900999972],[8.105668068,6.978156566999985],[8.103342055999974,6.9860644340000135],[8.102179526999976,6.988855838999996],[8.10031795499998,7.002811431999987],[8.099853515999996,7.009788990000004],[8.100783347999993,7.01444101300001],[8.102643967000006,7.017231940999977],[8.093340873999978,7.01444101300001],[8.082176208000021,7.012579917999972],[8.068220139000005,7.016301632000022],[8.055194855000025,7.022814273999984],[8.049489974999972,7.029321670999991]]]},"properties":{"fid":102,"cty_nm":"Nigeria","iso3cd":"NGA","adm1nm":"Benue","adm2nm":"Ado","adm1cd":"NGA007","adm2cd":"NGA007001"}},{"type":"Feature","id":103,"geometry":{"type":"Polygon","coordinates":[[[8.068856239000013,7.879503726999985],[8.040774344999988,7.896435261000022],[7.9947209360000215,7.92295074499998],[7.9728569979999975,7.939232349000008],[7.931921004999992,7.957374572999981],[7.903079032999983,7.969004154000004],[7.877028941999981,7.9834251400000085],[7.867259978999982,7.986216067999976],[7.838418006999973,7.985285759000021],[7.810972214000003,7.991333008000026],[7.7825956340000175,7.998776436000014],[7.7607321739999975,8.00342845900002],[7.738402843000017,8.006218909999973],[7.697466850000012,8.013662338000017],[7.676837921000015,8.014471054000012],[7.6711111070000015,7.982657909000011],[7.664317607999976,7.9351019860000065],[7.663638115000026,7.905889033999983],[7.669752598000002,7.884828567999989],[7.692851066999992,7.838631152999994],[7.728178501000002,7.792434216000004],[7.744690418000005,7.768656731000021],[7.750497817999985,7.772230148000006],[7.759336471999973,7.7768821720000005],[7.782130718000019,7.788511753000023],[7.790969372000006,7.789907454999991],[7.805389880999996,7.790837764999992],[7.816089153000007,7.792698383000015],[7.840744018999999,7.792698383000015],[7.859351634999996,7.789907454999991],[7.884006499999998,7.781534195000006],[7.904009819000009,7.772230148000006],[7.917500018999988,7.766182899],[7.926338672999975,7.763856888000021],[7.940759182000022,7.758739948000027],[7.953784466000002,7.7536225320000085],[7.964483738000013,7.750831603999984],[7.980300425999985,7.7457146639999905],[7.9849519730000225,7.743854046000024],[7.999837875000026,7.739666939000017],[8.011933327000008,7.736876010999993],[8.03193569199999,7.731759070999999],[8.045891761999997,7.729433060000019],[8.056125640999994,7.729433060000019],[8.06368732499999,7.730945587000008],[8.068685532000018,7.735945701999981],[8.070081711,7.742458343999999],[8.077524185000016,7.7550182339999765],[8.084036826999977,7.763391495000008],[8.09380626699999,7.776416778999987],[8.102179526999976,7.789907454999991],[8.10822677599998,7.80107164399999],[8.117995262000022,7.812701702000027],[8.12683391600001,7.819214343999988],[8.13753318800002,7.828052521000018],[8.146837233999975,7.8303785319999974],[8.16358375499999,7.835960865000004],[8.172887801999991,7.842473507000022],[8.180357932999982,7.852580547000002],[8.175678253000001,7.855033397999989],[8.159862518000011,7.859685420999995],[8.139393805999987,7.8615460400000075],[8.113808631999973,7.863872050999987],[8.095201492000001,7.868988990999981],[8.072406768999997,7.877362251000022],[8.068856239000013,7.879503726999985]]]},"properties":{"fid":103,"cty_nm":"Nigeria","iso3cd":"NGA","adm1nm":"Benue","adm2nm":"Agatu","adm1cd":"NGA007","adm2cd":"NGA007002"}},{"type":"Feature","id":105,"geometry":{"type":"Polygon","coordinates":[[[9.043637276000027,7.6013045309999825],[9.040029526000012,7.5918354990000125],[9.033717154999977,7.58642482800002],[9.026052474999972,7.581464767],[9.017935753000017,7.578759670000011],[9.013877868999998,7.577857494],[9.005311011999993,7.582366943000011],[8.995390891999989,7.594992160999993],[8.985019684000008,7.623398780999992],[8.976452827000003,7.65180540099999],[8.967885970999987,7.671645163999983],[8.962023735000002,7.686524867999992],[8.95300579100001,7.695542811999985],[8.936773300000027,7.707717419000005],[8.925806045999991,7.713486670999998],[8.922942162000027,7.703464508000025],[8.915783882000028,7.688789368000016],[8.908625603000019,7.680199146000007],[8.902182578999998,7.657291412000006],[8.894308089999981,7.618277073000002],[8.89395046200002,7.604317664999996],[8.891086578,7.586779117999981],[8.888938903999986,7.573535918999994],[8.889297484999986,7.563871383999981],[8.888223648000007,7.552417755000022],[8.885002136000026,7.525573253999994],[8.885717392000004,7.507676601000014],[8.886433601000022,7.501233577999983],[8.892541885000014,7.5073218350000275],[8.901380539000002,7.506281853000019],[8.915418624999973,7.5073218350000275],[8.935174942000003,7.513040542999988],[8.94609260599998,7.514080524000008],[8.964810370999999,7.510961055999985],[8.977807998999992,7.506801605000021],[8.983527184000025,7.508881568999982],[8.995484352000005,7.506281853000019],[9.022000312999978,7.492244244000005],[9.049555779000002,7.478206634999992],[9.081270217999986,7.458449841000004],[9.098427773000026,7.44545221300001],[9.110905646999981,7.429854869999986],[9.119744301000026,7.408538341999986],[9.126502990999995,7.397099971999978],[9.13014221200001,7.381502628000021],[9.138980865000008,7.369544983000026],[9.153017997999996,7.364865302999988],[9.169655799999987,7.365905284999997],[9.175894737000021,7.369024754000009],[9.183173179999983,7.365385532000005],[9.181093216000022,7.357066631000009],[9.16341686200002,7.333670616000006],[9.146779059999972,7.318073272999982],[9.134820938000018,7.308195114],[9.125462531999972,7.287398338000003],[9.111945151999976,7.267642020999972],[9.09946727800002,7.251524447999998],[9.084909439,7.239046573999985],[9.07971096,7.228128432999995],[9.066712379000023,7.204212665999989],[9.06099414800002,7.196413994000011],[9.045916556999998,7.182896137],[9.042462349000004,7.180017948],[9.049295425000025,7.166778564000026],[9.066972733,7.14806175199999],[9.092967987000009,7.126225470999998],[9.103366852000022,7.118426800000009],[9.125203133000014,7.1137475969999855],[9.140800475999981,7.108548641000027],[9.163156508999975,7.10802841200001],[9.192272186000025,7.108548641000027],[9.213587760999985,7.112707614999977],[9.235424041999977,7.121026515999972],[9.251542090999976,7.127265453000007],[9.263500213999976,7.143382549000023],[9.277017592999982,7.154300690000014],[9.28845596299999,7.1641793250000205],[9.296773911000002,7.171977996999999],[9.301973342999986,7.174577236000005],[9.304720879000001,7.1778111460000105],[9.293036460999986,7.185519694999982],[9.279193878000001,7.197385311000005],[9.27326106999999,7.20595455199998],[9.270625113999984,7.213864802999979],[9.27326106999999,7.223752499],[9.28314876600001,7.228366852000022],[9.30292510999999,7.23627710300002],[9.307538985999997,7.246823787999972],[9.296332359000019,7.265940188999991],[9.285126686000012,7.288352488999976],[9.280512810000005,7.306150435999996],[9.279193878000001,7.327903271000025],[9.283808707999981,7.342405319000022],[9.296992301999978,7.364817619000007],[9.308856963999972,7.379319667999994],[9.311493874000007,7.407005309999988],[9.312812805000021,7.4307355880000046],[9.311440468,7.44124698600001],[9.305561065999996,7.451829433],[9.29831028000001,7.454466342999979],[9.280512810000005,7.470286846000022],[9.265351295000016,7.483470440000019],[9.233710288999987,7.494676589999983],[9.20800208999998,7.499290943000005],[9.181634902999974,7.4966540340000165],[9.165155411,7.501927376000026],[9.149993896000012,7.523021221000022],[9.140766143999997,7.5408191679999845],[9.132855414999995,7.553343772999995],[9.12296772000002,7.5645499230000155],[9.104510306999998,7.580370426000002],[9.091986656000017,7.59223556500001],[9.071551322999994,7.602123259999985],[9.051775931999998,7.599486350999996],[9.043637276000027,7.6013045309999825]]]},"properties":{"fid":105,"cty_nm":"Nigeria","iso3cd":"NGA","adm1nm":"Benue","adm2nm":"Buruku","adm1cd":"NGA007","adm2cd":"NGA007004"}},{"type":"Feature","id":106,"geometry":{"type":"Polygon","coordinates":[[[8.886433601000022,7.501233577999983],[8.876053809999974,7.5030236239999795],[8.856367110999997,7.503739356999972],[8.833817481999972,7.506602763999979],[8.825227736999977,7.504813194000008],[8.814489364999986,7.497296333000008],[8.807688713000005,7.499444008000012],[8.797666549999974,7.510181903999978],[8.788360596000018,7.519845963000023],[8.778338431999998,7.534521102999975],[8.773327827000003,7.5416798589999985],[8.769748687999993,7.551343917999986],[8.770822525000028,7.563155650999988],[8.769390106000003,7.570314407000012],[8.768674850000025,7.582483767999975],[8.768316269000024,7.594295502000023],[8.765810966000004,7.6021699909999825],[8.759010315000012,7.608970641999974],[8.75345897699998,7.611533165000026],[8.744872093000026,7.602528095000025],[8.725186348000022,7.584631442999978],[8.704784393000011,7.568166732999998],[8.673286437999991,7.543469429000027],[8.661474227999975,7.530226230999972],[8.649126052999975,7.506602763999979],[8.638746261999984,7.490138053999999],[8.626934052000024,7.469377995000002],[8.619059563000008,7.451481342000022],[8.61476421399999,7.440743445999999],[8.610111237000012,7.4296479230000045],[8.610827445999973,7.420341491999977],[8.612140656000008,7.413341999000011],[8.613539695999975,7.400758742999983],[8.610043526000027,7.395165920000011],[8.610742569000024,7.385378838000008],[8.609344481999983,7.374193667999975],[8.608995438000022,7.359512805999998],[8.610393524000017,7.3434338569999795],[8.620879172999992,7.311275959],[8.620879172999992,7.302886962999992],[8.627171515999976,7.274224758000003],[8.634860991999972,7.249057769999979],[8.641852379,7.235774993999996],[8.670514106999974,7.1994228359999966],[8.712459564000028,7.160274028999993],[8.723645209999972,7.150486946000001],[8.741821288999972,7.142097949999993],[8.750041962000012,7.139162064000004],[8.750346184000023,7.144942284000024],[8.752945899999986,7.146502017999978],[8.757624625999995,7.14806175199999],[8.762304305999976,7.1491017339999985],[8.769582748000005,7.152740955000013],[8.771662712000023,7.159500121999997],[8.777380943000026,7.167298793999976],[8.789858818000027,7.177176952000025],[8.795578003000003,7.184455872000001],[8.80181693999998,7.193814277999991],[8.817934990000026,7.205772400000001],[8.829892158999996,7.2120113369999785],[8.839771271000018,7.219289779999997],[8.872525214999996,7.251524447999998],[8.903200149999975,7.27492046399999],[8.920357704000025,7.280639647999976],[8.94271373700002,7.278560162000019],[8.948952674999987,7.279599667000014],[8.978067398000007,7.265562057000011],[8.980667114000028,7.258803367999974],[8.991065025000012,7.249444961999984],[8.998864174000005,7.241126537000014],[9.015501022000024,7.220849514000008],[9.040977478000002,7.182896137],[9.042462349000004,7.180017948],[9.045916556999998,7.182896137],[9.06099414800002,7.196413994000011],[9.066712379000023,7.204212665999989],[9.07971096,7.228128432999995],[9.084909439,7.239046573999985],[9.09946727800002,7.251524447999998],[9.111945151999976,7.267642020999972],[9.125462531999972,7.287398338000003],[9.134820938000018,7.308195114],[9.146779059999972,7.318073272999982],[9.16341686200002,7.333670616000006],[9.181093216000022,7.357066631000009],[9.183173179999983,7.365385532000005],[9.175894737000021,7.369024754000009],[9.169655799999987,7.365905284999997],[9.153017997999996,7.364865302999988],[9.138980865000008,7.369544983000026],[9.13014221200001,7.381502628000021],[9.126502990999995,7.397099971999978],[9.119744301000026,7.408538341999986],[9.110905646999981,7.429854869999986],[9.098427773000026,7.44545221300001],[9.081270217999986,7.458449841000004],[9.049555779000002,7.478206634999992],[9.022000312999978,7.492244244000005],[8.995484352000005,7.506281853000019],[8.983527184000025,7.508881568999982],[8.977807998999992,7.506801605000021],[8.964810370999999,7.510961055999985],[8.94609260599998,7.514080524000008],[8.935174942000003,7.513040542999988],[8.915418624999973,7.5073218350000275],[8.901380539000002,7.506281853000019],[8.892541885000014,7.5073218350000275],[8.886433601000022,7.501233577999983]]]},"properties":{"fid":106,"cty_nm":"Nigeria","iso3cd":"NGA","adm1nm":"Benue","adm2nm":"Gboko","adm1cd":"NGA007","adm2cd":"NGA007005"}},{"type":"Feature","id":107,"geometry":{"type":"Polygon","coordinates":[[[8.512680053999986,8.157776833000014],[8.503683089999981,8.158167838999987],[8.486098288999983,8.149149894999994],[8.466258048999975,8.139229774],[8.426578522,8.112175940999975],[8.390506743999993,8.077907562000007],[8.371117592000019,8.046343803000013],[8.363452911000024,8.016584395999985],[8.360296248999987,7.98727607699999],[8.360296248999987,7.960672854999984],[8.363452911000024,7.946243762999984],[8.378783225999996,7.915582657000016],[8.397721290999982,7.879961491000017],[8.405386925000016,7.861023425999974],[8.404662131999999,7.836760520999974],[8.412458420000007,7.84386920899999],[8.42827510799998,7.856429100000014],[8.448743820000004,7.868988990999981],[8.474328995000008,7.882014275000017],[8.494796753000003,7.885735989000011],[8.515265465000027,7.886666298000023],[8.538059234999992,7.88480567900001],[8.558062553000013,7.879223346999993],[8.585973739999986,7.867593764999981],[8.606906890999994,7.853172778999976],[8.631562233000011,7.829448222999986],[8.635373115999982,7.824739932999989],[8.647377968,7.809910296999988],[8.659937859000024,7.783859730000017],[8.665520668,7.764322280999977],[8.665986061000012,7.7392020230000185],[8.663194655999973,7.7126865390000034],[8.660539626999991,7.7031278609999845],[8.669169425999996,7.704180241000017],[8.683486937999987,7.707043648000024],[8.702457428000002,7.703822135999985],[8.717132568000011,7.702032566000014],[8.728943824999988,7.698095321999972],[8.736103058000026,7.693442344999994],[8.744454383999994,7.692774295999982],[8.745409011999982,7.694874287000005],[8.746482849000017,7.705612183000028],[8.750778197999978,7.713486670999998],[8.764379501000008,7.724224567000022],[8.779769896999994,7.7338886260000095],[8.790150642000015,7.7353200910000055],[8.799814223999988,7.734962462999988],[8.806973457000026,7.731740951999996],[8.827016829999991,7.729593276999992],[8.853146552999988,7.723150729999986],[8.881064415000026,7.719929218000004],[8.897171974000003,7.715991974000019],[8.913278579999997,7.714918136999984],[8.925806045999991,7.713486670999998],[8.936773300000027,7.707717419000005],[8.95300579100001,7.695542811999985],[8.962023735000002,7.686524867999992],[8.967885970999987,7.671645163999983],[8.976452827000003,7.65180540099999],[8.985019684000008,7.623398780999992],[8.995390891999989,7.594992160999993],[9.005311011999993,7.582366943000011],[9.013877868999998,7.577857494],[9.017935753000017,7.578759670000011],[9.026052474999972,7.581464767],[9.033717154999977,7.58642482800002],[9.040029526000012,7.5918354990000125],[9.043637276000027,7.6013045309999825],[9.044088364000004,7.613478660999988],[9.04138279,7.631063938000011],[9.04048061399999,7.677506923999999],[9.037324904999991,7.694190025000012],[9.030786513999999,7.716735362999998],[9.025826454000025,7.738829613000007],[9.020415306000018,7.748749255999996],[9.01951408399998,7.763177872000028],[9.019965172000013,7.781664847999991],[9.023120880000022,7.802857399000004],[9.031237601999976,7.814580917000001],[9.047470093000015,7.837576866000006],[9.058742522999978,7.856063843000015],[9.080836295999973,7.875001430999987],[9.092108726999982,7.877707004999991],[9.123221397000009,7.879059792000021],[9.134042739999984,7.88176488900001],[9.172170639,7.886631012000009],[9.174623488999998,7.8871760370000175],[9.178231239000013,7.888528823999991],[9.181838035999988,7.891685009000014],[9.183191298999986,7.8957428929999764],[9.180936813000017,7.903859137999973],[9.179125785999986,7.908083438999995],[9.17552566500001,7.916484356000012],[9.163802147000013,7.936775207999972],[9.14576625799998,7.970141888000001],[9.132690430000025,7.991333961000009],[9.114654540999993,8.008017540000026],[9.09842205000001,8.027856826999994],[9.093428612000025,8.034061431999987],[9.083541869999976,8.046343803000013],[9.067675591000011,8.067520141999978],[9.062466620999999,8.074473381000018],[9.057020186999978,8.077641486999994],[9.050175667000019,8.075201988000003],[9.025375365999992,8.062576293999996],[8.971267699999999,8.057616234000022],[8.910846709999987,8.056263924000007],[8.841858864000017,8.067085265999992],[8.819765091000022,8.070241927999973],[8.780536652000023,8.075201988000003],[8.696668624999973,8.096394539000016],[8.637149810999972,8.116233825999984],[8.58800125099998,8.12885856600002],[8.560496329999978,8.140131950000011],[8.524424553000017,8.157265662999976],[8.512680053999986,8.157776833000014]]]},"properties":{"fid":107,"cty_nm":"Nigeria","iso3cd":"NGA","adm1nm":"Benue","adm2nm":"Guma","adm1cd":"NGA007","adm2cd":"NGA007006"}},{"type":"Feature","id":108,"geometry":{"type":"Polygon","coordinates":[[[8.744454383999994,7.692774295999982],[8.736103058000026,7.693442344999994],[8.728943824999988,7.698095321999972],[8.717132568000011,7.702032566000014],[8.702457428000002,7.703822135999985],[8.683486937999987,7.707043648000024],[8.669169425999996,7.704180241000017],[8.660539626999991,7.7031278609999845],[8.656216620999999,7.687566279999999],[8.63667869599999,7.655468464000023],[8.619932174999974,7.633604526999989],[8.59713840500001,7.61406660099999],[8.57341384900002,7.597784995999973],[8.537593841999978,7.587551116999975],[8.500379561999978,7.589877129000001],[8.462233543000025,7.600111007999999],[8.437113762000024,7.612671374999991],[8.421297073000005,7.627557277999983],[8.404085158999976,7.646164417000023],[8.389199256999973,7.668958664000002],[8.387338638000017,7.676867007999988],[8.37710475900002,7.670819283000014],[8.34919357299998,7.648955822000005],[8.336633682000013,7.636395454000024],[8.33384227800002,7.6312785150000195],[8.333376884000018,7.626161575000026],[8.329655646999981,7.615927696000028],[8.327795029000015,7.609879970999998],[8.320351601000027,7.600111007999999],[8.313373565999996,7.590807438000013],[8.29802322400002,7.574525832999996],[8.28081130999999,7.557313919000023],[8.271041869999976,7.546614647000013],[8.256621360999986,7.5270767210000145],[8.253829956000004,7.52428579299999],[8.246851920999973,7.50381755799998],[8.239409447000014,7.4893965719999755],[8.230570793000027,7.473114967000015],[8.225220680000007,7.464276790999975],[8.202426909999986,7.44427347200002],[8.17963314100001,7.427991867000003],[8.167072296000015,7.419153214000005],[8.147999762999973,7.4047327040000255],[8.131253242000014,7.394498348000013],[8.126601219000008,7.39263772999999],[8.132881165000015,7.382403850999992],[8.134741782999981,7.374030113000003],[8.145442009000021,7.3558878900000195],[8.158466338999972,7.332628726999985],[8.166375159999973,7.314486504000001],[8.172887801999991,7.29308795899999],[8.181261063000022,7.280992985000012],[8.19009971600002,7.272154331000024],[8.200333595000018,7.259129046999988],[8.225918770000021,7.236334800999998],[8.236152649000019,7.226566315000014],[8.249177932999999,7.209819316999983],[8.255225182000004,7.198654652000016],[8.264994621000028,7.177256107000005],[8.269646645000023,7.163765907000027],[8.271041869999976,7.153996944000028],[8.274763107000012,7.146553992999998],[8.276159285999995,7.144227982000018],[8.283601761,7.134924411999975],[8.29430103300001,7.128876686000012],[8.298487663000003,7.123759747000008],[8.312909126000022,7.116316794999989],[8.334307670999976,7.109339236999972],[8.347797393999997,7.103756905000012],[8.364079474999983,7.093522548999999],[8.38501262699998,7.081427573999974],[8.399898528999984,7.072124003999988],[8.410386086000017,7.064200878000008],[8.430430412000021,7.050241470000003],[8.438525200000015,7.046871184999986],[8.443315505999976,7.05453681900002],[8.449758529999997,7.069211960000018],[8.456916809000006,7.081739426000013],[8.466581345000009,7.10249948500001],[8.469802856000001,7.125406741999996],[8.473739624000018,7.154757023000002],[8.473739624000018,7.173369407999985],[8.474813460999997,7.1866130829999975],[8.478034972999978,7.199856280999995],[8.480719566000005,7.216320992000021],[8.481435776000012,7.232786179000016],[8.482151031,7.253903865999973],[8.483224869000026,7.2632102970000005],[8.487520217999986,7.275021552999988],[8.504700661000015,7.300435065999977],[8.52510261499998,7.326563835000002],[8.53548336,7.338375568000004],[8.547294616999977,7.349113464000027],[8.567875861999994,7.372020721000013],[8.574676513999975,7.383116722000011],[8.600089072999992,7.409603596000011],[8.610827445999973,7.420341491999977],[8.610111237000012,7.4296479230000045],[8.61476421399999,7.440743445999999],[8.619059563000008,7.451481342000022],[8.626934052000024,7.469377995000002],[8.638746261999984,7.490138053999999],[8.649126052999975,7.506602763999979],[8.661474227999975,7.530226230999972],[8.673286437999991,7.543469429000027],[8.704784393000011,7.568166732999998],[8.725186348000022,7.584631442999978],[8.744872093000026,7.602528095000025],[8.75345897699998,7.611533165000026],[8.752388954000025,7.628656863999993],[8.74737739599999,7.65084886599999],[8.743977546999986,7.661228656999981],[8.743261336999979,7.676261902000022],[8.744692801999975,7.690220833000012],[8.744454383999994,7.692774295999982]]]},"properties":{"fid":108,"cty_nm":"Nigeria","iso3cd":"NGA","adm1nm":"Benue","adm2nm":"Gwer East","adm1cd":"NGA007","adm2cd":"NGA007007"}},{"type":"Feature","id":109,"geometry":{"type":"Polygon","coordinates":[[[8.372159004000025,7.770002364999982],[8.362218857000016,7.774556159999975],[8.345472336,7.784325122999974],[8.328724861000012,7.791768074000004],[8.301744460999998,7.8024673460000145],[8.274763107000012,7.814562320999983],[8.251503943999978,7.822470188000011],[8.21521949800001,7.834565162999979],[8.191029549000007,7.848986148999984],[8.185447693000015,7.8522424700000215],[8.183121680999989,7.853172778999976],[8.180357932999982,7.852580547000002],[8.172887801999991,7.842473507000022],[8.16358375499999,7.835960865000004],[8.146837233999975,7.8303785319999974],[8.13753318800002,7.828052521000018],[8.12683391600001,7.819214343999988],[8.117995262000022,7.812701702000027],[8.10822677599998,7.80107164399999],[8.102179526999976,7.789907454999991],[8.09380626699999,7.776416778999987],[8.084036826999977,7.763391495000008],[8.077524185000016,7.7550182339999765],[8.070081711,7.742458343999999],[8.068685532000018,7.735945701999981],[8.06368732499999,7.730945587000008],[8.064033508000023,7.716407775999983],[8.065429687000005,7.701056479999977],[8.067755698999974,7.690357208000023],[8.076594353000019,7.673610687000007],[8.076361656000017,7.66802835499999],[8.079617499999983,7.648955822000005],[8.079909325000017,7.644670485999995],[8.081012725999983,7.628487586999995],[8.081478118999996,7.6061587329999725],[8.080082892999997,7.590807438000013],[8.08054828600001,7.580108166000002],[8.082874297999979,7.561035633000017],[8.087060928000028,7.54242801700002],[8.092177391000007,7.52195978200001],[8.09357356999999,7.5103301999999985],[8.095434189000002,7.504282475000025],[8.104272842,7.473114967000015],[8.111715317000005,7.457764149000013],[8.112180710000018,7.450786113999982],[8.116832733000024,7.434504509000021],[8.11869335199998,7.419153214000005],[8.122879981999972,7.39868545500002],[8.126601219000008,7.39263772999999],[8.131253242000014,7.394498348000013],[8.147999762999973,7.4047327040000255],[8.167072296000015,7.419153214000005],[8.17963314100001,7.427991867000003],[8.202426909999986,7.44427347200002],[8.225220680000007,7.464276790999975],[8.230570793000027,7.473114967000015],[8.239409447000014,7.4893965719999755],[8.246851920999973,7.50381755799998],[8.253829956000004,7.52428579299999],[8.256621360999986,7.5270767210000145],[8.271041869999976,7.546614647000013],[8.28081130999999,7.557313919000023],[8.29802322400002,7.574525832999996],[8.313373565999996,7.590807438000013],[8.320351601000027,7.600111007999999],[8.327795029000015,7.609879970999998],[8.329655646999981,7.615927696000028],[8.333376884000018,7.626161575000026],[8.33384227800002,7.6312785150000195],[8.336633682000013,7.636395454000024],[8.34919357299998,7.648955822000005],[8.37710475900002,7.670819283000014],[8.387338638000017,7.676867007999988],[8.385478019999994,7.681519031999983],[8.378965377999975,7.7005915639999785],[8.372918129000027,7.716407775999983],[8.371521949999988,7.731759070999999],[8.369661330999975,7.744318962000023],[8.369661330999975,7.7536225320000085],[8.369661330999975,7.762926579000009],[8.372159004000025,7.770002364999982]]]},"properties":{"fid":109,"cty_nm":"Nigeria","iso3cd":"NGA","adm1nm":"Benue","adm2nm":"Gwer West","adm1cd":"NGA007","adm2cd":"NGA007008"}},{"type":"Feature","id":110,"geometry":{"type":"Polygon","coordinates":[[[9.839988708000021,7.5792741779999915],[9.821372032,7.594872474999988],[9.81636619599999,7.597847462000004],[9.79665279400001,7.590917110000021],[9.756442069999991,7.542797088999976],[9.73534870100002,7.517747879000012],[9.720187187000022,7.4880847929999845],[9.705025673000023,7.466331481999987],[9.68261432600002,7.4419417380000255],[9.621969223000008,7.393162250999978],[9.601534843000024,7.3780012130000046],[9.594942092999986,7.374046325999984],[9.585714339999981,7.376023769000028],[9.575826645000006,7.383274555000014],[9.563961028999984,7.399095058],[9.542207717999986,7.4439196590000165],[9.529024123999989,7.465672493],[9.507930756000007,7.493358134999994],[9.497383118000016,7.508519173000025],[9.481563568000013,7.536204815000019],[9.468379020999976,7.550047873999972],[9.452832221999984,7.557467937000013],[9.447285652000005,7.551366329000018],[9.432124138000006,7.537523270000008],[9.41696357699999,7.525658131],[9.381367683000008,7.487425326999983],[9.364228249000007,7.4683094019999885],[9.348408699000004,7.459739684999988],[9.313471794000009,7.442601204000027],[9.311440468,7.44124698600001],[9.312812805000021,7.4307355880000046],[9.311493874000007,7.407005309999988],[9.308856963999972,7.379319667999994],[9.296992301999978,7.364817619000007],[9.283808707999981,7.342405319000022],[9.279193878000001,7.327903271000025],[9.280512810000005,7.306150435999996],[9.285126686000012,7.288352488999976],[9.296332359000019,7.265940188999991],[9.307538985999997,7.246823787999972],[9.30292510999999,7.23627710300002],[9.28314876600001,7.228366852000022],[9.27326106999999,7.223752499],[9.270625113999984,7.213864802999979],[9.27326106999999,7.20595455199998],[9.279193878000001,7.197385311000005],[9.293036460999986,7.185519694999982],[9.304720879000001,7.1778111460000105],[9.319650650000028,7.163139343000012],[9.330048561000012,7.154820918999974],[9.339406967000002,7.144942284000024],[9.363842964000014,7.125185966000004],[9.369042396999987,7.121026515999972],[9.379700661000015,7.117907047000017],[9.396857262000026,7.1137475969999855],[9.409335135999982,7.106988907000016],[9.422602654000002,7.10114431400001],[9.430806159999975,7.10114431400001],[9.447285652000005,7.092575072999978],[9.462447166000004,7.074777126000015],[9.480903624999996,7.055660724999996],[9.489473342999986,7.039181231999976],[9.494087218999994,7.035226345000012],[9.499361038000018,7.03061199199999],[9.515840529999991,7.03456687900001],[9.528365135000001,7.051705836999986],[9.558028220999972,7.093234062000022],[9.584395409000024,7.114327908000007],[9.610103606999985,7.137399673000004],[9.65295028700001,7.157834052999988],[9.696456909000005,7.171017646999985],[9.769625663999989,7.208591461000026],[9.82495880099998,7.254598140999974],[9.828292847,7.257370949000006],[9.84081745100002,7.279782771999976],[9.85597896600001,7.32526636099999],[9.865207671999997,7.36284017600002],[9.882676124999989,7.414256095999974],[9.888607979000028,7.461717605999979],[9.884653091000018,7.507860183999981],[9.870810509000023,7.540160178999997],[9.845761299000003,7.57443761799999],[9.839988708000021,7.5792741779999915]]]},"properties":{"fid":110,"cty_nm":"Nigeria","iso3cd":"NGA","adm1nm":"Benue","adm2nm":"Katsina-Ala","adm1cd":"NGA007","adm2cd":"NGA007009"}},{"type":"Feature","id":111,"geometry":{"type":"Polygon","coordinates":[[[8.750041962000012,7.139162064000004],[8.741821288999972,7.142097949999993],[8.723645209999972,7.150486946000001],[8.712459564000028,7.160274028999993],[8.670514106999974,7.1994228359999966],[8.641852379,7.235774993999996],[8.634860991999972,7.249057769999979],[8.627171515999976,7.274224758000003],[8.620879172999992,7.302886962999992],[8.620879172999992,7.311275959],[8.610393524000017,7.3434338569999795],[8.608995438000022,7.359512805999998],[8.609344481999983,7.374193667999975],[8.610742569000024,7.385378838000008],[8.610043526000027,7.395165920000011],[8.613539695999975,7.400758742999983],[8.612140656000008,7.413341999000011],[8.610827445999973,7.420341491999977],[8.600089072999992,7.409603596000011],[8.574676513999975,7.383116722000011],[8.567875861999994,7.372020721000013],[8.547294616999977,7.349113464000027],[8.53548336,7.338375568000004],[8.52510261499998,7.326563835000002],[8.504700661000015,7.300435065999977],[8.487520217999986,7.275021552999988],[8.483224869000026,7.2632102970000005],[8.482151031,7.253903865999973],[8.481435776000012,7.232786179000016],[8.480719566000005,7.216320992000021],[8.478034972999978,7.199856280999995],[8.474813460999997,7.1866130829999975],[8.473739624000018,7.173369407999985],[8.473739624000018,7.154757023000002],[8.469802856000001,7.125406741999996],[8.466581345000009,7.10249948500001],[8.456916809000006,7.081739426000013],[8.449758529999997,7.069211960000018],[8.443315505999976,7.05453681900002],[8.438525200000015,7.046871184999986],[8.448205948000009,7.0379347800000005],[8.461488723999992,7.025351523999973],[8.478965759000005,7.009971618999998],[8.49154949199999,7.000184536000006],[8.513220787000023,6.9785127640000155],[8.521610259999989,6.9631328579999945],[8.539087295999991,6.942859650000003],[8.561457634000021,6.923984528000005],[8.571944237000025,6.915595531000008],[8.592916489000004,6.914196967999999],[8.599207878000016,6.9134979250000015],[8.601305007999997,6.909303664999982],[8.599906921000013,6.906507014999988],[8.601305007999997,6.902312756000015],[8.597110747999977,6.901613712000028],[8.594314574999999,6.896719932999986],[8.595013617999996,6.889029979999975],[8.599207878000016,6.879941939999981],[8.600605965,6.875747681000007],[8.599906921000013,6.872951508000028],[8.598508835000018,6.867358684999999],[8.606143950999979,6.866375446000006],[8.608955383000023,6.859628676999989],[8.619055747999994,6.8614048960000105],[8.62362766299998,6.862522124999998],[8.629331589000003,6.862483025000017],[8.636176109000019,6.862434864000022],[8.64531135599998,6.863520144999995],[8.651024817999996,6.864628792000019],[8.654446602000007,6.86460495],[8.65673732800002,6.865737915000011],[8.661309242000016,6.866854191000016],[8.66474056200002,6.867979049999974],[8.669320106999976,6.870244026000023],[8.675058364999984,6.8747959140000034],[8.677357674000007,6.877077102999976],[8.680796622999992,6.879350185000021],[8.68653488199999,6.883903026999974],[8.689974785000004,6.886175155999979],[8.693423270999972,6.889595985000028],[8.696853637999993,6.890719891000003],[8.701442719,6.894133091000015],[8.703742026999976,6.896412849000001],[8.707163810999987,6.896389008000028],[8.715149879000023,6.896334170999978],[8.72085380599998,6.896295070999997],[8.727690697000014,6.895100117000027],[8.733386040000028,6.893911838999998],[8.741363524999997,6.892710208999972],[8.748208999999974,6.892663002000006],[8.753904342999988,6.891475200999992],[8.759608269000012,6.891436100000021],[8.765304565000008,6.890247821999992],[8.769859313999973,6.889069080000013],[8.776695250999978,6.887874125999986],[8.781242371000019,6.885546207000004],[8.785788535999984,6.883218764999981],[8.790351868000016,6.883186817000023],[8.798320769999975,6.880836009999996],[8.80287647199998,6.879656791999992],[8.807430266999972,6.8784780500000124],[8.811985015999994,6.877297877999979],[8.817680359000008,6.8761110309999935],[8.822226523999973,6.873783112000012],[8.830196381000007,6.871431828000027],[8.833609581000019,6.870259761999989],[8.839305878000005,6.869072914000014],[8.843852043000027,6.866744994999976],[8.848406791999992,6.865565776999972],[8.851812363000022,6.8632459639999865],[8.856358527999987,6.860918998999978],[8.859772682000028,6.859746932999997],[8.864310264999972,6.856272220999983],[8.867715836000002,6.853951930999983],[8.869997978000015,6.853937148999989],[8.874535561000016,6.850461005999989],[8.879090308999992,6.849280834000012],[8.887033463000023,6.843485831999999],[8.891579627999988,6.84115886699999],[8.89725875900001,6.837675095000009],[8.902946471999996,6.835340023000015],[8.908633232,6.833003997999981],[8.913179398000011,6.830677031999983],[8.918857574000015,6.827192782999987],[8.923403740000026,6.824865817999978],[8.926809311,6.822546004999992],[8.929426192999983,6.820408821000001],[8.932479858000022,6.817914963000021],[8.934744835000004,6.815602779000017],[8.939709662999974,6.8132224080000015],[8.941059112999994,6.824015616999986],[8.93966102600001,6.8442888260000245],[8.942457198999989,6.868057727999997],[8.948050498999976,6.889729022999973],[8.952244758999996,6.904409885000007],[8.946652411999992,6.922585964000007],[8.933369636999998,6.949850559000026],[8.926379204,6.968026638000026],[8.91729068799998,6.982007979999992],[8.904007911999997,6.997387886000013],[8.895619392000015,7.007174969000005],[8.883035660000019,7.0260505680000165],[8.881218909999973,7.028775692000011],[8.877443314000004,7.034439564000024],[8.852275847999977,7.047022819999995],[8.834099770000023,7.058907508999994],[8.820117949999997,7.068694591999986],[8.804039000999978,7.079879760999972],[8.796349524999982,7.0854725840000015],[8.780969620000008,7.100152969000021],[8.771182060000001,7.115532874999985],[8.759298324999975,7.129514694000022],[8.750041962000012,7.139162064000004]]]},"properties":{"fid":111,"cty_nm":"Nigeria","iso3cd":"NGA","adm1nm":"Benue","adm2nm":"Konshisha","adm1cd":"NGA007","adm2cd":"NGA007010"}},{"type":"Feature","id":112,"geometry":{"type":"Polygon","coordinates":[[[9.378071784999975,7.843384265999987],[9.314789771999983,7.834815025000012],[9.272602081000002,7.822949408999989],[9.225141525000026,7.8183350560000235],[9.190204619999975,7.810424805000025],[9.156585693000011,7.797900676999973],[9.130218506000006,7.7880129810000085],[9.120330810999974,7.793286324000007],[9.115716933999977,7.808447360999992],[9.124285697999994,7.826904774000013],[9.14010620099998,7.848657607999996],[9.149993896000012,7.859863758000017],[9.162518501000022,7.869092464000005],[9.170429230000025,7.882276058000002],[9.172170639,7.886631012000009],[9.134042739999984,7.88176488900001],[9.123221397000009,7.879059792000021],[9.092108726999982,7.877707004999991],[9.080836295999973,7.875001430999987],[9.058742522999978,7.856063843000015],[9.047470093000015,7.837576866000006],[9.031237601999976,7.814580917000001],[9.023120880000022,7.802857399000004],[9.019965172000013,7.781664847999991],[9.01951408399998,7.763177872000028],[9.020415306000018,7.748749255999996],[9.025826454000025,7.738829613000007],[9.030786513999999,7.716735362999998],[9.037324904999991,7.694190025000012],[9.04048061399999,7.677506923999999],[9.04138279,7.631063938000011],[9.044088364000004,7.613478660999988],[9.043637276000027,7.6013045309999825],[9.051775931999998,7.599486350999996],[9.071551322999994,7.602123259999985],[9.091986656000017,7.59223556500001],[9.104510306999998,7.580370426000002],[9.12296772000002,7.5645499230000155],[9.132855414999995,7.553343772999995],[9.140766143999997,7.5408191679999845],[9.149993896000012,7.523021221000022],[9.165155411,7.501927376000026],[9.181634902999974,7.4966540340000165],[9.20800208999998,7.499290943000005],[9.233710288999987,7.494676589999983],[9.265351295000016,7.483470440000019],[9.280512810000005,7.470286846000022],[9.29831028000001,7.454466342999979],[9.305561065999996,7.451829433],[9.311440468,7.44124698600001],[9.313471794000009,7.442601204000027],[9.348408699000004,7.459739684999988],[9.364228249000007,7.4683094019999885],[9.381367683000008,7.487425326999983],[9.41696357699999,7.525658131],[9.432124138000006,7.537523270000008],[9.447285652000005,7.551366329000018],[9.452832221999984,7.557467937000013],[9.418281555000021,7.585643768000011],[9.40443897199998,7.609374522999985],[9.389936447000025,7.631127357000025],[9.377411842000015,7.656835555999976],[9.370161057000018,7.680565833999992],[9.369502067999974,7.710888386000022],[9.371479987999976,7.759008884000025],[9.373456954999995,7.798559666000017],[9.378730774000019,7.833496571000012],[9.378071784999975,7.843384265999987]]]},"properties":{"fid":112,"cty_nm":"Nigeria","iso3cd":"NGA","adm1nm":"Benue","adm2nm":"Logo","adm1cd":"NGA007","adm2cd":"NGA007012"}},{"type":"Feature","id":113,"geometry":{"type":"Polygon","coordinates":[[[8.660539626999991,7.7031278609999845],[8.663194655999973,7.7126865390000034],[8.665986061000012,7.7392020230000185],[8.665520668,7.764322280999977],[8.659937859000024,7.783859730000017],[8.647377968,7.809910296999988],[8.635373115999982,7.824739932999989],[8.631562233000011,7.829448222999986],[8.606906890999994,7.853172778999976],[8.585973739999986,7.867593764999981],[8.558062553000013,7.879223346999993],[8.538059234999992,7.88480567900001],[8.515265465000027,7.886666298000023],[8.494796753000003,7.885735989000011],[8.474328995000008,7.882014275000017],[8.448743820000004,7.868988990999981],[8.42827510799998,7.856429100000014],[8.412458420000007,7.84386920899999],[8.404662131999999,7.836760520999974],[8.396642685000018,7.829448222999986],[8.392920494000009,7.820144653],[8.393851279999978,7.809910296999988],[8.401294708000023,7.795954703999996],[8.406876564000015,7.787116050999998],[8.411993979999977,7.776416778999987],[8.411993979999977,7.768508911000026],[8.403155326999979,7.766182899],[8.385478019999994,7.768043518000013],[8.372159004000025,7.770002364999982],[8.369661330999975,7.762926579000009],[8.369661330999975,7.7536225320000085],[8.369661330999975,7.744318962000023],[8.371521949999988,7.731759070999999],[8.372918129000027,7.716407775999983],[8.378965377999975,7.7005915639999785],[8.385478019999994,7.681519031999983],[8.387338638000017,7.676867007999988],[8.389199256999973,7.668958664000002],[8.404085158999976,7.646164417000023],[8.421297073000005,7.627557277999983],[8.437113762000024,7.612671374999991],[8.462233543000025,7.600111007999999],[8.500379561999978,7.589877129000001],[8.537593841999978,7.587551116999975],[8.57341384900002,7.597784995999973],[8.59713840500001,7.61406660099999],[8.619932174999974,7.633604526999989],[8.63667869599999,7.655468464000023],[8.656216620999999,7.687566279999999],[8.660539626999991,7.7031278609999845]]]},"properties":{"fid":113,"cty_nm":"Nigeria","iso3cd":"NGA","adm1nm":"Benue","adm2nm":"Makurdi","adm1cd":"NGA007","adm2cd":"NGA007013"}},{"type":"Feature","id":114,"geometry":{"type":"Polygon","coordinates":[[[8.410386086000017,7.064200878000008],[8.399898528999984,7.072124003999988],[8.38501262699998,7.081427573999974],[8.364079474999983,7.093522548999999],[8.347797393999997,7.103756905000012],[8.334307670999976,7.109339236999972],[8.312909126000022,7.116316794999989],[8.298487663000003,7.123759747000008],[8.29430103300001,7.128876686000012],[8.283601761,7.134924411999975],[8.276159285999995,7.144227982000018],[8.274763107000012,7.146553992999998],[8.26918125200001,7.143763064999973],[8.251038551000022,7.12469005600002],[8.24545669600002,7.118642807000015],[8.237083434999988,7.103756905000012],[8.233826636999993,7.093057632000011],[8.224058151000008,7.0749154090000275],[8.222197532999985,7.067471980999983],[8.215684891000024,7.056772708999972],[8.208706855999992,7.048864841000011],[8.19242572799999,7.039095879000001],[8.164514542000006,7.028396606000001],[8.15288448299998,7.0260705950000215],[8.143580437000026,7.021883964999972],[8.135207175999994,7.019557953000003],[8.110087394999994,7.0186276439999915],[8.102643967000006,7.017231940999977],[8.100783347999993,7.01444101300001],[8.099853515999996,7.009788990000004],[8.10031795499998,7.002811431999987],[8.102179526999976,6.988855838999996],[8.104989052000008,6.988600254000005],[8.112413405999973,6.987925053000026],[8.123578071999987,6.987925053000026],[8.12915992699999,6.986529827000027],[8.149628639000014,6.980482101000007],[8.159862518000011,6.979086875999997],[8.168701171999999,6.975365162000003],[8.188239097999997,6.969782828999996],[8.205451012000026,6.967922210999973],[8.21521949800001,6.9674568180000165],[8.237083434999988,6.961874962000024],[8.254760741999974,6.958153247999974],[8.265460013999984,6.952105999000025],[8.285927773000026,6.943732737999994],[8.314769744999978,6.939080714999989],[8.332911491000004,6.939545630999987],[8.343610764000005,6.9409413340000015],[8.356171608000011,6.945127963999994],[8.366405487000009,6.951640606000012],[8.378965377999975,6.968387603999986],[8.38361740099998,6.979551791999995],[8.387338638000017,6.986994743000025],[8.393851279999978,6.9953680039999995],[8.401759147999996,7.00699806199998],[8.405481339000005,7.014905929999998],[8.405481339000005,7.0260705950000215],[8.407807349999985,7.051655768999979],[8.410386086000017,7.064200878000008]]]},"properties":{"fid":114,"cty_nm":"Nigeria","iso3cd":"NGA","adm1nm":"Benue","adm2nm":"Obi","adm1cd":"NGA007","adm2cd":"NGA007014"}},{"type":"Feature","id":115,"geometry":{"type":"Polygon","coordinates":[[[7.776034354999979,6.875824927999986],[7.775618076000001,6.885118960999989],[7.776082992999989,6.888375282000027],[7.774687766999989,6.897678852000013],[7.772826672000008,6.912099838000017],[7.774687766999989,6.920938492000005],[7.777478695000013,6.92931175199999],[7.785851954999998,6.941871643000013],[7.79003858599998,6.954432010999994],[7.786782742000014,6.962339878000023],[7.7798047069999825,6.970713138999997],[7.772826672000008,6.973969459999978],[7.771431446000008,6.9762954710000145],[7.765849113000002,6.981412411000008],[7.758871078000027,6.9860644340000135],[7.746776581000006,6.993972778],[7.74445056899998,7.000950336000017],[7.749567508999974,7.009324074000006],[7.757940769000015,7.01444101300001],[7.770501136999997,7.0260705950000215],[7.778409004000025,7.041421889999981],[7.779339314000026,7.059564114000011],[7.778874396999981,7.0730543139999895],[7.775618076000001,7.085614680999981],[7.769105433999982,7.100500583999974],[7.7607321739999975,7.118642807000015],[7.747706890000018,7.128411770000014],[7.723516941000014,7.1484146120000105],[7.7037467960000185,7.164890289000027],[7.695749760000012,7.164357184999972],[7.676989554999977,7.1551852229999895],[7.656978130000027,7.146430491999979],[7.646138667999992,7.137675762000015],[7.637383938000028,7.13267278699999],[7.629879951000021,7.124751568000022],[7.621958732999985,7.112661838999998],[7.618623733999982,7.108075618999976],[7.611119270000017,7.100154877000023],[7.601947784000004,7.0905661580000015],[7.599446296999986,7.079309939999973],[7.600697040999989,7.073056221000002],[7.602364539999996,7.062216759000023],[7.603615284,7.053045273000009],[7.606950283000003,7.041371821999974],[7.609868526000014,7.032200336000017],[7.611119270000017,7.027197360999992],[7.610285759000021,7.023445128999981],[7.607784271000014,7.017608643000017],[7.601113795999993,7.016357899000013],[7.593192577000025,7.018025874999978],[7.5806856159999825,7.027197360999992],[7.543581963000008,7.040121078000027],[7.530513762999988,7.0322780609999995],[7.538271426999984,7.020157814000015],[7.542210102000013,7.008341788999985],[7.5453610420000246,7.001251697999976],[7.549300194000011,6.99101114299998],[7.552451134000023,6.984708785999999],[7.557177544000012,6.977619171000015],[7.558879375000004,6.971568107999985],[7.564267158999996,6.952411175000009],[7.5713572500000055,6.939806938000004],[7.577659129999972,6.93271732300002],[7.599716187000013,6.924839496999994],[7.620197772999973,6.919325351999987],[7.635952949999989,6.903570175000027],[7.64619398100001,6.885451794000005],[7.658010005999984,6.868121147000011],[7.674552917000028,6.85551738700002],[7.692279815999996,6.851824283999974],[7.7202424999999835,6.862607002000004],[7.734422207000023,6.8633947370000215],[7.750177382999993,6.878362179000021],[7.762781619999998,6.879937648999999],[7.776034354999979,6.875824927999986]]]},"properties":{"fid":115,"cty_nm":"Nigeria","iso3cd":"NGA","adm1nm":"Benue","adm2nm":"Ogbadibo","adm1cd":"NGA007","adm2cd":"NGA007015"}},{"type":"Feature","id":116,"geometry":{"type":"Polygon","coordinates":[[[7.983906746000002,7.115039349000028],[7.986813068000004,7.119107723000013],[7.993325233000007,7.12469005600002],[8.00448989900002,7.132133006999993],[8.014259337999988,7.136785029999999],[8.020771027000023,7.141901969999992],[8.036122321999983,7.149344921000022],[8.045426368999983,7.15074062299999],[8.057520866000004,7.158648968000023],[8.082176208000021,7.169813155999975],[8.087293624999973,7.175395488999982],[8.09380626699999,7.1837687490000235],[8.099853515999996,7.187955379000016],[8.105900764000012,7.1995854379999855],[8.111948013000017,7.212145329000009],[8.110552788000007,7.217262268000013],[8.10962200199998,7.232613564000019],[8.110552788000007,7.246103763999997],[8.106830596999998,7.265641689000006],[8.101248741000006,7.276340961000017],[8.089618683000026,7.280062675000011],[8.078454970999985,7.277271271000018],[8.051008223999986,7.282853602999978],[8.046821593999994,7.282853602999978],[8.038448334000009,7.287970542999972],[8.017515182000011,7.303787231000001],[8.004955291999977,7.323325156999999],[8.004024506000007,7.328907012999991],[7.995186328999978,7.34704971299999],[7.98634767499999,7.361005305999981],[7.97564840299998,7.367982863999998],[7.961227416999975,7.37216949499998],[7.951923846999989,7.373099803999992],[7.936107634999985,7.3693785670000125],[7.921221732999982,7.367517470999985],[7.916569709999976,7.371704577999992],[7.899357796000004,7.380542755000022],[7.889588833000005,7.382868766999991],[7.87749385799998,7.384264469000016],[7.867259978999982,7.385194778000027],[7.861772536999979,7.384463310000001],[7.854796410000006,7.372806072000003],[7.8485431670000025,7.360299110000028],[7.838537692999978,7.335285187000011],[7.826447486999996,7.309020996000015],[7.818734645999996,7.2869253160000085],[7.806644917000028,7.254406929000027],[7.797056198000007,7.233145236999974],[7.793865203999985,7.225825310000005],[7.817950248999978,7.2116799350000065],[7.832370758000025,7.202841759000023],[7.84400033999998,7.196329117000005],[7.908196449000002,7.165161609999984],[7.934711933000017,7.149344921000022],[7.943550587000004,7.1409716609999805],[7.976113318999978,7.120968818999984],[7.983906746000002,7.115039349000028]]]},"properties":{"fid":116,"cty_nm":"Nigeria","iso3cd":"NGA","adm1nm":"Benue","adm2nm":"Ohimini","adm1cd":"NGA007","adm2cd":"NGA007016"}},{"type":"Feature","id":117,"geometry":{"type":"Polygon","coordinates":[[[8.438525200000015,7.046871184999986],[8.430430412000021,7.050241470000003],[8.410386086000017,7.064200878000008],[8.407807349999985,7.051655768999979],[8.405481339000005,7.0260705950000215],[8.405481339000005,7.014905929999998],[8.401759147999996,7.00699806199998],[8.393851279999978,6.9953680039999995],[8.387338638000017,6.986994743000025],[8.38361740099998,6.979551791999995],[8.378965377999975,6.968387603999986],[8.366405487000009,6.951640606000012],[8.356171608000011,6.945127963999994],[8.343610764000005,6.9409413340000015],[8.332911491000004,6.939545630999987],[8.314769744999978,6.939080714999989],[8.285927773000026,6.943732737999994],[8.265460013999984,6.952105999000025],[8.254760741999974,6.958153247999974],[8.237083434999988,6.961874962000024],[8.21521949800001,6.9674568180000165],[8.205451012000026,6.967922210999973],[8.188239097999997,6.969782828999996],[8.168701171999999,6.975365162000003],[8.159862518000011,6.979086875999997],[8.149628639000014,6.980482101000007],[8.12915992699999,6.986529827000027],[8.123578071999987,6.987925053000026],[8.112413405999973,6.987925053000026],[8.104989052000008,6.988600254000005],[8.102179526999976,6.988855838999996],[8.103342055999974,6.9860644340000135],[8.105668068,6.978156566999985],[8.107994080000026,6.966991900999972],[8.112180710000018,6.954896926999993],[8.113575934999972,6.941871643000013],[8.115436553999984,6.9195427889999905],[8.119158744999993,6.912099838000017],[8.119624138000006,6.8962836270000025],[8.123112678999973,6.8818626400000085],[8.132881165000015,6.858603476999974],[8.144976616000008,6.8465085029999955],[8.16218852999998,6.824179648999973],[8.168701171999999,6.82138824499998],[8.186842918000025,6.819062233000011],[8.207777023000006,6.812084674999994],[8.225453377000008,6.806037425999989],[8.229325293999977,6.800125599000012],[8.234319686999982,6.799217700999975],[8.240676880000024,6.792406082000014],[8.244310379000012,6.78559494000001],[8.249758719999988,6.775604724999994],[8.249758719999988,6.771063804999983],[8.249758719999988,6.768339157000014],[8.255661964000012,6.766068935000021],[8.261111259000018,6.755170822000025],[8.266106605999994,6.741548061000003],[8.262474059999988,6.737915038999972],[8.256116867000003,6.737461090000011],[8.251575469999977,6.735644816999979],[8.261111259000018,6.731103897000025],[8.268831252999973,6.7279253010000275],[8.273825644999988,6.716572761999998],[8.273825644999988,6.712940215999993],[8.280183792000003,6.7152104379999855],[8.285632132999979,6.710215569000013],[8.280183792000003,6.704766273000018],[8.278820992000021,6.697955132000004],[8.283816338000008,6.692505836000009],[8.29451465599999,6.678709029999993],[8.299398422000024,6.679910183000004],[8.30395317099999,6.678730011000027],[8.307367324999973,6.67755794499999],[8.313071250999997,6.677518845000009],[8.317643165999982,6.678636073999996],[8.321065902999976,6.678613186000007],[8.325637816999972,6.679728984999997],[8.330209732000014,6.680846213999985],[8.335930824000002,6.6831030850000275],[8.340502738999987,6.684218884000018],[8.345083236999983,6.68648386000001],[8.348514556999987,6.687607764999996],[8.354235648999975,6.689865112000007],[8.35767555199999,6.692138194999984],[8.36110591900001,6.693262100000027],[8.366844177000019,6.69781494099999],[8.370292663999976,6.701234817999989],[8.37259960199998,6.704664229999992],[8.374897956999973,6.706943989000024],[8.377214432000017,6.711521149000021],[8.379529952999974,6.7160968779999735],[8.381828308000024,6.718378067000003],[8.38300323499999,6.722961902999998],[8.386468886999978,6.728679179999972],[8.38763523099999,6.732114792000004],[8.391099929999996,6.737832068999978],[8.393416404999982,6.742407798999977],[8.398004532000016,6.745820998999989],[8.402593613000022,6.7492327690000025],[8.40832328800002,6.752637863000018],[8.410614013999975,6.753770827999972],[8.415184974999988,6.754887103999977],[8.419765471999995,6.757152081000015],[8.424328804000027,6.757121085999984],[8.427760123999974,6.758244991000026],[8.432323456000006,6.758213996999984],[8.435746193,6.7581901550000225],[8.440300940999975,6.757009982999989],[8.443707465999978,6.754691123999976],[8.448244095000007,6.7512149809999755],[8.450499535000006,6.747755051000013],[8.453923224999983,6.747732161999977],[8.458477974000004,6.74655199099999],[8.460759162999977,6.746537208999996],[8.464181900000028,6.7465128900000195],[8.468745232000003,6.746480942000005],[8.472176552000008,6.74760580100002],[8.476748466000004,6.748723030000008],[8.480187415999978,6.750996112999985],[8.488190651000025,6.753235817000018],[8.496185303000004,6.754329204999976],[8.503055572999983,6.757727145999979],[8.508768082000017,6.758834838999974],[8.515622139000016,6.759935856000027],[8.523608207999985,6.759881020000023],[8.530452728,6.759833813],[8.535016059999975,6.759802818000026],[8.544134139999983,6.7585921290000215],[8.550988196999981,6.759693146000018],[8.557849884000007,6.7619409559999895],[8.563562392999984,6.7630500789999815],[8.570416451000028,6.764151095999978],[8.578411102000018,6.765244006999978],[8.587562561000027,6.768624783000007],[8.594425200999979,6.770874977000005],[8.601295471000014,6.774271010999996],[8.607007979999992,6.775380134999978],[8.612730026000008,6.777637004999974],[8.616160392999973,6.778760910000017],[8.620740891000025,6.781025886999998],[8.623040199000002,6.783307076000028],[8.625338553999995,6.785586834000014],[8.62878608699998,6.7890071869999815],[8.631085396000003,6.791287898999997],[8.632243156000015,6.793575764000025],[8.636840819999975,6.798137187999998],[8.64031410199999,6.805000781999979],[8.640348433999975,6.809594154000024],[8.640374183999995,6.813037871999995],[8.641556739999999,6.818769932000009],[8.6393013,6.822229861999972],[8.637044907000018,6.825689792999981],[8.633630752999977,6.8268609049999895],[8.630233765000014,6.830328941000005],[8.625679015999992,6.831509112999981],[8.622273445000019,6.833827971999995],[8.620000839,6.83499193199998],[8.615462303000015,6.83846807499998],[8.610924721000004,6.841942786999994],[8.607527732999984,6.845410823999998],[8.60412216200001,6.847731113000009],[8.601857184999972,6.850042819999999],[8.60074234000001,6.853494167000008],[8.600760460000004,6.855791092000004],[8.606489182000018,6.8591952319999905],[8.608955383000023,6.859628676999989],[8.606143950999979,6.866375446000006],[8.598508835000018,6.867358684999999],[8.599906921000013,6.872951508000028],[8.600605965,6.875747681000007],[8.599207878000016,6.879941939999981],[8.595013617999996,6.889029979999975],[8.594314574999999,6.896719932999986],[8.597110747999977,6.901613712000028],[8.601305007999997,6.902312756000015],[8.599906921000013,6.906507014999988],[8.601305007999997,6.909303664999982],[8.599207878000016,6.9134979250000015],[8.592916489000004,6.914196967999999],[8.571944237000025,6.915595531000008],[8.561457634000021,6.923984528000005],[8.539087295999991,6.942859650000003],[8.521610259999989,6.9631328579999945],[8.513220787000023,6.9785127640000155],[8.49154949199999,7.000184536000006],[8.478965759000005,7.009971618999998],[8.461488723999992,7.025351523999973],[8.448205948000009,7.0379347800000005],[8.438525200000015,7.046871184999986]]]},"properties":{"fid":117,"cty_nm":"Nigeria","iso3cd":"NGA","adm1nm":"Benue","adm2nm":"Oju","adm1cd":"NGA007","adm2cd":"NGA007017"}},{"type":"Feature","id":118,"geometry":{"type":"Polygon","coordinates":[[[7.983906746000002,7.115039349000028],[7.976113318999978,7.120968818999984],[7.943550587000004,7.1409716609999805],[7.934711933000017,7.149344921000022],[7.908196449000002,7.165161609999984],[7.84400033999998,7.196329117000005],[7.832370758000025,7.202841759000023],[7.817950248999978,7.2116799350000065],[7.793865203999985,7.225825310000005],[7.789968966999993,7.216886043999978],[7.782881737000025,7.205213070000013],[7.777878761000011,7.198125838999999],[7.772042274,7.193956851999985],[7.739941120000026,7.178948402000003],[7.729935646000001,7.172277926999982],[7.72326517099998,7.167275428999972],[7.708256720999998,7.165190697000014],[7.7037467960000185,7.164890289000027],[7.723516941000014,7.1484146120000105],[7.747706890000018,7.128411770000014],[7.7607321739999975,7.118642807000015],[7.769105433999982,7.100500583999974],[7.775618076000001,7.085614680999981],[7.778874396999981,7.0730543139999895],[7.779339314000026,7.059564114000011],[7.778409004000025,7.041421889999981],[7.770501136999997,7.0260705950000215],[7.757940769000015,7.01444101300001],[7.749567508999974,7.009324074000006],[7.74445056899998,7.000950336000017],[7.746776581000006,6.993972778],[7.758871078000027,6.9860644340000135],[7.765849113000002,6.981412411000008],[7.771431446000008,6.9762954710000145],[7.772826672000008,6.973969459999978],[7.7798047069999825,6.970713138999997],[7.786782742000014,6.962339878000023],[7.79003858599998,6.954432010999994],[7.785851954999998,6.941871643000013],[7.777478695000013,6.92931175199999],[7.774687766999989,6.920938492000005],[7.772826672000008,6.912099838000017],[7.774687766999989,6.897678852000013],[7.776082992999989,6.888375282000027],[7.775618076000001,6.885118960999989],[7.776034354999979,6.875824927999986],[7.78562641100001,6.872848034000015],[7.800593853000009,6.872848034000015],[7.817924022999989,6.878362179000021],[7.834466933999977,6.880725384000016],[7.854948520999983,6.880725384000016],[7.863614082000026,6.879937648999999],[7.8746423719999825,6.868908882000028],[7.876217842000017,6.8633947370000215],[7.882596970000009,6.858291625999982],[7.895171165000022,6.863255024000011],[7.905405045000009,6.867907047000017],[7.91470909100002,6.867907047000017],[7.927268981999987,6.872559071000012],[7.929129601,6.877676010000016],[7.927268981999987,6.890235900999983],[7.920290947000012,6.902796267999975],[7.915174007000019,6.907913208000025],[7.910057068000015,6.917216778000011],[7.897497176999991,6.937220097000022],[7.89563608200001,6.943267344999981],[7.896101475000023,6.954432010999994],[7.900753497999972,6.965596199000004],[7.907265662999976,6.980017185000008],[7.917965412000001,6.991181374000007],[7.934711933000017,7.008393287999979],[7.946341514999972,7.015371323000011],[7.951923846999989,7.015836239000009],[7.966344832999994,7.022348881000028],[7.982161044999998,7.0274662969999895],[7.998442650000015,7.029326916000002],[8.017049788999998,7.027000903999976],[8.025888442999985,7.027000903999976],[8.034727096999973,7.026535987999978],[8.049489974999972,7.029321670999991],[8.046821593999994,7.033513545999995],[8.039844512999991,7.049329757999999],[8.03193569199999,7.059098720999998],[8.023562431000016,7.068402767000009],[8.011933327000008,7.087009906999981],[7.997512341000004,7.104687214000023],[7.983906746000002,7.115039349000028]]]},"properties":{"fid":118,"cty_nm":"Nigeria","iso3cd":"NGA","adm1nm":"Benue","adm2nm":"Okpokwu","adm1cd":"NGA007","adm2cd":"NGA007018"}},{"type":"Feature","id":119,"geometry":{"type":"Polygon","coordinates":[[[8.126601219000008,7.39263772999999],[8.122879981999972,7.39868545500002],[8.11869335199998,7.419153214000005],[8.116832733000024,7.434504509000021],[8.112180710000018,7.450786113999982],[8.111715317000005,7.457764149000013],[8.104272842,7.473114967000015],[8.095434189000002,7.504282475000025],[8.09357356999999,7.5103301999999985],[8.092177391000007,7.52195978200001],[8.087060928000028,7.54242801700002],[8.082874297999979,7.561035633000017],[8.08054828600001,7.580108166000002],[8.080082892999997,7.590807438000013],[8.081478118999996,7.6061587329999725],[8.081012725999983,7.628487586999995],[8.079909325000017,7.644670485999995],[8.068685532000018,7.637791156999981],[8.04775238000002,7.626626967999982],[8.026819229000012,7.607089042999974],[8.007746696000027,7.590807438000013],[7.990068913000016,7.579177856000001],[7.967275142999995,7.5647568699999965],[7.937968253999998,7.540102004999994],[7.917500018999988,7.521029472000009],[7.907731055999989,7.5103301999999985],[7.903544425999996,7.504747867999981],[7.89424085600001,7.481953621000002],[7.887262820999979,7.462415695000004],[7.884936809999999,7.455438136999987],[7.8737726210000005,7.431713580999997],[7.870050907000007,7.423340321000012],[7.86045074499998,7.413370609000026],[7.866261005000013,7.404073714999981],[7.865427494000016,7.39281749700001],[7.861772536999979,7.384463310000001],[7.867259978999982,7.385194778000027],[7.87749385799998,7.384264469000016],[7.889588833000005,7.382868766999991],[7.899357796000004,7.380542755000022],[7.916569709999976,7.371704577999992],[7.921221732999982,7.367517470999985],[7.936107634999985,7.3693785670000125],[7.951923846999989,7.373099803999992],[7.961227416999975,7.37216949499998],[7.97564840299998,7.367982863999998],[7.98634767499999,7.361005305999981],[7.995186328999978,7.34704971299999],[8.004024506000007,7.328907012999991],[8.004955291999977,7.323325156999999],[8.017515182000011,7.303787231000001],[8.038448334000009,7.287970542999972],[8.046821593999994,7.282853602999978],[8.051008223999986,7.282853602999978],[8.078454970999985,7.277271271000018],[8.089618683000026,7.280062675000011],[8.101248741000006,7.276340961000017],[8.106830596999998,7.265641689000006],[8.110552788000007,7.246103763999997],[8.10962200199998,7.232613564000019],[8.110552788000007,7.217262268000013],[8.111948013000017,7.212145329000009],[8.105900764000012,7.1995854379999855],[8.099853515999996,7.187955379000016],[8.09380626699999,7.1837687490000235],[8.087293624999973,7.175395488999982],[8.082176208000021,7.169813155999975],[8.057520866000004,7.158648968000023],[8.045426368999983,7.15074062299999],[8.036122321999983,7.149344921000022],[8.020771027000023,7.141901969999992],[8.014259337999988,7.136785029999999],[8.00448989900002,7.132133006999993],[7.993325233000007,7.12469005600002],[7.986813068000004,7.119107723000013],[7.983906746000002,7.115039349000028],[7.997512341000004,7.104687214000023],[8.011933327000008,7.087009906999981],[8.023562431000016,7.068402767000009],[8.03193569199999,7.059098720999998],[8.039844512999991,7.049329757999999],[8.046821593999994,7.033513545999995],[8.049489974999972,7.029321670999991],[8.055194855000025,7.022814273999984],[8.068220139000005,7.016301632000022],[8.082176208000021,7.012579917999972],[8.093340873999978,7.01444101300001],[8.102643967000006,7.017231940999977],[8.110087394999994,7.0186276439999915],[8.135207175999994,7.019557953000003],[8.143580437000026,7.021883964999972],[8.15288448299998,7.0260705950000215],[8.164514542000006,7.028396606000001],[8.19242572799999,7.039095879000001],[8.208706855999992,7.048864841000011],[8.215684891000024,7.056772708999972],[8.222197532999985,7.067471980999983],[8.224058151000008,7.0749154090000275],[8.233826636999993,7.093057632000011],[8.237083434999988,7.103756905000012],[8.24545669600002,7.118642807000015],[8.251038551000022,7.12469005600002],[8.26918125200001,7.143763064999973],[8.274763107000012,7.146553992999998],[8.271041869999976,7.153996944000028],[8.269646645000023,7.163765907000027],[8.264994621000028,7.177256107000005],[8.255225182000004,7.198654652000016],[8.249177932999999,7.209819316999983],[8.236152649000019,7.226566315000014],[8.225918770000021,7.236334800999998],[8.200333595000018,7.259129046999988],[8.19009971600002,7.272154331000024],[8.181261063000022,7.280992985000012],[8.172887801999991,7.29308795899999],[8.166375159999973,7.314486504000001],[8.158466338999972,7.332628726999985],[8.145442009000021,7.3558878900000195],[8.134741782999981,7.374030113000003],[8.132881165000015,7.382403850999992],[8.126601219000008,7.39263772999999]]]},"properties":{"fid":119,"cty_nm":"Nigeria","iso3cd":"NGA","adm1nm":"Benue","adm2nm":"Oturkpo","adm1cd":"NGA007","adm2cd":"NGA007019"}},{"type":"Feature","id":120,"geometry":{"type":"Polygon","coordinates":[[[8.925806045999991,7.713486670999998],[8.913278579999997,7.714918136999984],[8.897171974000003,7.715991974000019],[8.881064415000026,7.719929218000004],[8.853146552999988,7.723150729999986],[8.827016829999991,7.729593276999992],[8.806973457000026,7.731740951999996],[8.799814223999988,7.734962462999988],[8.790150642000015,7.7353200910000055],[8.779769896999994,7.7338886260000095],[8.764379501000008,7.724224567000022],[8.750778197999978,7.713486670999998],[8.746482849000017,7.705612183000028],[8.745409011999982,7.694874287000005],[8.744454383999994,7.692774295999982],[8.744692801999975,7.690220833000012],[8.743261336999979,7.676261902000022],[8.743977546999986,7.661228656999981],[8.74737739599999,7.65084886599999],[8.752388954000025,7.628656863999993],[8.75345897699998,7.611533165000026],[8.759010315000012,7.608970641999974],[8.765810966000004,7.6021699909999825],[8.768316269000024,7.594295502000023],[8.768674850000025,7.582483767999975],[8.769390106000003,7.570314407000012],[8.770822525000028,7.563155650999988],[8.769748687999993,7.551343917999986],[8.773327827000003,7.5416798589999985],[8.778338431999998,7.534521102999975],[8.788360596000018,7.519845963000023],[8.797666549999974,7.510181903999978],[8.807688713000005,7.499444008000012],[8.814489364999986,7.497296333000008],[8.825227736999977,7.504813194000008],[8.833817481999972,7.506602763999979],[8.856367110999997,7.503739356999972],[8.876053809999974,7.5030236239999795],[8.886433601000022,7.501233577999983],[8.885717392000004,7.507676601000014],[8.885002136000026,7.525573253999994],[8.888223648000007,7.552417755000022],[8.889297484999986,7.563871383999981],[8.888938903999986,7.573535918999994],[8.891086578,7.586779117999981],[8.89395046200002,7.604317664999996],[8.894308089999981,7.618277073000002],[8.902182578999998,7.657291412000006],[8.908625603000019,7.680199146000007],[8.915783882000028,7.688789368000016],[8.922942162000027,7.703464508000025],[8.925806045999991,7.713486670999998]]]},"properties":{"fid":120,"cty_nm":"Nigeria","iso3cd":"NGA","adm1nm":"Benue","adm2nm":"Tarka","adm1cd":"NGA007","adm2cd":"NGA007020"}},{"type":"Feature","id":121,"geometry":{"type":"Polygon","coordinates":[[[9.797699927999986,7.614686011999993],[9.747213364000004,7.654858111999999],[9.701729774,7.710229396999978],[9.669429778999984,7.762963771999978],[9.643062591999978,7.799878120000017],[9.601534843000024,7.829541205999988],[9.561324119999995,7.8387699130000215],[9.499361038000018,7.842724799999985],[9.386640548999992,7.844702720999976],[9.378071784999975,7.843384265999987],[9.378730774000019,7.833496571000012],[9.373456954999995,7.798559666000017],[9.371479987999976,7.759008884000025],[9.369502067999974,7.710888386000022],[9.370161057000018,7.680565833999992],[9.377411842000015,7.656835555999976],[9.389936447000025,7.631127357000025],[9.40443897199998,7.609374522999985],[9.418281555000021,7.585643768000011],[9.452832221999984,7.557467937000013],[9.468379020999976,7.550047873999972],[9.481563568000013,7.536204815000019],[9.497383118000016,7.508519173000025],[9.507930756000007,7.493358134999994],[9.529024123999989,7.465672493],[9.542207717999986,7.4439196590000165],[9.563961028999984,7.399095058],[9.575826645000006,7.383274555000014],[9.585714339999981,7.376023769000028],[9.594942092999986,7.374046325999984],[9.601534843000024,7.3780012130000046],[9.621969223000008,7.393162250999978],[9.68261432600002,7.4419417380000255],[9.705025673000023,7.466331481999987],[9.720187187000022,7.4880847929999845],[9.73534870100002,7.517747879000012],[9.756442069999991,7.542797088999976],[9.79665279400001,7.590917110000021],[9.81636619599999,7.597847462000004],[9.808517456000004,7.606078625000009],[9.797699927999986,7.614686011999993]]]},"properties":{"fid":121,"cty_nm":"Nigeria","iso3cd":"NGA","adm1nm":"Benue","adm2nm":"Ukum","adm1cd":"NGA007","adm2cd":"NGA007021"}},{"type":"Feature","id":122,"geometry":{"type":"Polygon","coordinates":[[[9.042462349000004,7.180017948],[9.040977478000002,7.182896137],[9.015501022000024,7.220849514000008],[8.998864174000005,7.241126537000014],[8.991065025000012,7.249444961999984],[8.980667114000028,7.258803367999974],[8.978067398000007,7.265562057000011],[8.948952674999987,7.279599667000014],[8.94271373700002,7.278560162000019],[8.920357704000025,7.280639647999976],[8.903200149999975,7.27492046399999],[8.872525214999996,7.251524447999998],[8.839771271000018,7.219289779999997],[8.829892158999996,7.2120113369999785],[8.817934990000026,7.205772400000001],[8.80181693999998,7.193814277999991],[8.795578003000003,7.184455872000001],[8.789858818000027,7.177176952000025],[8.777380943000026,7.167298793999976],[8.771662712000023,7.159500121999997],[8.769582748000005,7.152740955000013],[8.762304305999976,7.1491017339999985],[8.757624625999995,7.14806175199999],[8.752945899999986,7.146502017999978],[8.750346184000023,7.144942284000024],[8.750041962000012,7.139162064000004],[8.759298324999975,7.129514694000022],[8.771182060000001,7.115532874999985],[8.780969620000008,7.100152969000021],[8.796349524999982,7.0854725840000015],[8.804039000999978,7.079879760999972],[8.820117949999997,7.068694591999986],[8.834099770000023,7.058907508999994],[8.852275847999977,7.047022819999995],[8.877443314000004,7.034439564000024],[8.881218909999973,7.028775692000011],[8.91619777699998,7.03368091599998],[8.928675651999981,7.036280632],[8.936474799999985,7.0352406499999915],[8.962989806999985,7.032641410999986],[8.979627608999976,7.034720897999989],[9.003023148000011,7.036800384999992],[9.05917453799998,7.036280632],[9.086729049999974,7.036280632],[9.122603416000004,7.030561447000025],[9.14547920199999,7.022243022999987],[9.163156508999975,7.006645678999973],[9.177714347999995,6.976490497999976],[9.177714347999995,6.951014996000026],[9.178618431000018,6.930218696999987],[9.209168433999992,6.930218696999987],[9.231525421000015,6.933338165000009],[9.25180149099998,6.936977386000024],[9.266879082000003,6.945295810999994],[9.289235114999997,6.961933136000027],[9.296514510999998,6.970771790000015],[9.312631607000014,6.984809399000028],[9.32770919799998,7.0014467240000045],[9.339147567999987,7.014444351000009],[9.356304168999998,7.029001713000014],[9.389578819000008,7.060716629000012],[9.403615951999996,7.0789136889999895],[9.415574074000006,7.097630501000026],[9.422602654000002,7.10114431400001],[9.409335135999982,7.106988907000016],[9.396857262000026,7.1137475969999855],[9.379700661000015,7.117907047000017],[9.369042396999987,7.121026515999972],[9.363842964000014,7.125185966000004],[9.339406967000002,7.144942284000024],[9.330048561000012,7.154820918999974],[9.319650650000028,7.163139343000012],[9.304720879000001,7.1778111460000105],[9.301973342999986,7.174577236000005],[9.296773911000002,7.171977996999999],[9.28845596299999,7.1641793250000205],[9.277017592999982,7.154300690000014],[9.263500213999976,7.143382549000023],[9.251542090999976,7.127265453000007],[9.235424041999977,7.121026515999972],[9.213587760999985,7.112707614999977],[9.192272186000025,7.108548641000027],[9.163156508999975,7.10802841200001],[9.140800475999981,7.108548641000027],[9.125203133000014,7.1137475969999855],[9.103366852000022,7.118426800000009],[9.092967987000009,7.126225470999998],[9.066972733,7.14806175199999],[9.049295425000025,7.166778564000026],[9.042462349000004,7.180017948]]]},"properties":{"fid":122,"cty_nm":"Nigeria","iso3cd":"NGA","adm1nm":"Benue","adm2nm":"Ushongo","adm1cd":"NGA007","adm2cd":"NGA007022"}},{"type":"Feature","id":123,"geometry":{"type":"Polygon","coordinates":[[[9.178618431000018,6.930218696999987],[9.177714347999995,6.951014996000026],[9.177714347999995,6.976490497999976],[9.163156508999975,7.006645678999973],[9.14547920199999,7.022243022999987],[9.122603416000004,7.030561447000025],[9.086729049999974,7.036280632],[9.05917453799998,7.036280632],[9.003023148000011,7.036800384999992],[8.979627608999976,7.034720897999989],[8.962989806999985,7.032641410999986],[8.936474799999985,7.0352406499999915],[8.928675651999981,7.036280632],[8.91619777699998,7.03368091599998],[8.881218909999973,7.028775692000011],[8.883035660000019,7.0260505680000165],[8.895619392000015,7.007174969000005],[8.904007911999997,6.997387886000013],[8.91729068799998,6.982007979999992],[8.926379204,6.968026638000026],[8.933369636999998,6.949850559000026],[8.946652411999992,6.922585964000007],[8.952244758999996,6.904409885000007],[8.948050498999976,6.889729022999973],[8.942457198999989,6.868057727999997],[8.93966102600001,6.8442888260000245],[8.941059112999994,6.824015616999986],[8.939709662999974,6.8132224080000015],[8.943828583000027,6.809800148000022],[8.947234154,6.807479858000022],[8.951771736000012,6.804005146000009],[8.957450866999977,6.800520897000013],[8.960847854999997,6.79705381399998],[8.964253426000028,6.794734000999995],[8.968799590999993,6.792407035999986],[8.972205162000023,6.7900872230000004],[8.974477767999986,6.78892278699999],[8.976742743999978,6.78661108],[8.979006766999987,6.784298896999985],[8.981263161000015,6.780838965999976],[8.984660148999978,6.777371883000001],[8.988048552999999,6.772756099999981],[8.991445541000019,6.7692890170000055],[8.99256992300002,6.766983986000014],[8.993684769000026,6.763533114999973],[8.994800568000016,6.760079861000008],[8.994774817999996,6.75663709600002],[8.994757651999976,6.754340172000013],[8.99359130900001,6.750904083000023],[8.991275787000006,6.7463269230000265],[8.990109443999984,6.742890835000026],[8.987792968999997,6.7383151050000265],[8.986626624999985,6.734879017000026],[8.984311104000028,6.730301856999972],[8.981987000000004,6.724576950000028],[8.980829239000002,6.722289085],[8.977364539999996,6.716573238000024],[8.977347373999976,6.714275837000002],[8.97504806500001,6.711996078000027],[8.973890304999998,6.709708213999988],[8.972732543999996,6.70741891900002],[8.970425605999992,6.703990936000025],[8.96925926199998,6.700554848000024],[8.968091964999985,6.697119235999992],[8.969207763999975,6.69366693500001],[8.970331192000003,6.6913619040000185],[8.972613335000005,6.691347122000025],[8.976036072,6.691322802999991],[8.978325843999983,6.6924557689999915],[8.980607985999995,6.692440033000025],[8.98517990099998,6.693556785999988],[8.987453460999973,6.6923928260000025],[8.989734650000003,6.6923770899999795],[8.992015838999976,6.692360877999988],[8.997652054000014,6.683137894000026],[9.004446029999997,6.676201820000017],[9.01124000499999,6.669267177999984],[9.018033980999974,6.662332058000004],[9.022545815,6.6554121969999755],[9.027075767999975,6.650787830000013],[9.03503608699998,6.647288799000023],[9.047559738000018,6.643758773999991],[9.058959006999999,6.642531872000006],[9.070367813000018,6.642453193999984],[9.077238082999997,6.645850182000004],[9.082967757999995,6.649254799000005],[9.085267067000018,6.651535987999978],[9.093277930999989,6.654924870000002],[9.098999977000005,6.657182217000013],[9.105870246999984,6.660579204999976],[9.109309196000027,6.6628508570000236],[9.11732959699998,6.667387962000021],[9.123076438999988,6.6730899809999755],[9.12905788400002,6.675518036000028],[9.130922317999989,6.716534137999986],[9.138200760000018,6.74408960300002],[9.140280723999979,6.761246680999989],[9.142880439999999,6.7747645379999994],[9.145999908000022,6.799720287000014],[9.14807891800001,6.823636532000023],[9.154317855999977,6.842873096000005],[9.16003704100001,6.866789341000015],[9.165756225999985,6.882906436999974],[9.175634383999977,6.911501407999992],[9.17875385299999,6.927098751000017],[9.178618431000018,6.930218696999987]]]},"properties":{"fid":123,"cty_nm":"Nigeria","iso3cd":"NGA","adm1nm":"Benue","adm2nm":"Vandeikya","adm1cd":"NGA007","adm2cd":"NGA007023"}},{"type":"Feature","id":743,"geometry":{"type":"Polygon","coordinates":[[[9.737985611,7.078073024999981],[9.761715889000016,7.10114431400001],[9.824008941999978,7.172336101999974],[9.834555625999997,7.1993627549999815],[9.835214614999984,7.217160702000001],[9.828622817999985,7.23627710300002],[9.82495880099998,7.254598140999974],[9.769625663999989,7.208591461000026],[9.696456909000005,7.171017646999985],[9.65295028700001,7.157834052999988],[9.610103606999985,7.137399673000004],[9.584395409000024,7.114327908000007],[9.558028220999972,7.093234062000022],[9.528365135000001,7.051705836999986],[9.515840529999991,7.03456687900001],[9.499361038000018,7.03061199199999],[9.494087218999994,7.035226345000012],[9.489473342999986,7.039181231999976],[9.480903624999996,7.055660724999996],[9.462447166000004,7.074777126000015],[9.447285652000005,7.092575072999978],[9.430806159999975,7.10114431400001],[9.422602654000002,7.10114431400001],[9.415574074000006,7.097630501000026],[9.403615951999996,7.0789136889999895],[9.389578819000008,7.060716629000012],[9.356304168999998,7.029001713000014],[9.339147567999987,7.014444351000009],[9.32770919799998,7.0014467240000045],[9.312631607000014,6.984809399000028],[9.296514510999998,6.970771790000015],[9.289235114999997,6.961933136000027],[9.266879082000003,6.945295810999994],[9.25180149099998,6.936977386000024],[9.231525421000015,6.933338165000009],[9.209168433999992,6.930218696999987],[9.178618431000018,6.930218696999987],[9.17875385299999,6.927098751000017],[9.175634383999977,6.911501407999992],[9.165756225999985,6.882906436999974],[9.16003704100001,6.866789341000015],[9.154317855999977,6.842873096000005],[9.14807891800001,6.823636532000023],[9.145999908000022,6.799720287000014],[9.142880439999999,6.7747645379999994],[9.140280723999979,6.761246680999989],[9.138200760000018,6.74408960300002],[9.130922317999989,6.716534137999986],[9.12905788400002,6.675518036000028],[9.135676384000021,6.679891108999982],[9.139107704000025,6.681015015000014],[9.145969390999994,6.683263779000015],[9.149400710999998,6.684389113999998],[9.153964042999974,6.684358120000013],[9.158527374000016,6.684326171999999],[9.165390015000014,6.6865749359999995],[9.167671203999987,6.6865591999999765],[9.171102523999991,6.6876840589999915],[9.175674437999987,6.688799857999982],[9.184833527000023,6.693329811000012],[9.192829131999986,6.694423199000028],[9.199700355999994,6.697820186999991],[9.208860397000024,6.702349185999992],[9.215731620999975,6.705746174000012],[9.228305816999978,6.709104061000005],[9.238598824000007,6.712477207000006],[9.247742652999989,6.714711189000013],[9.255754470999989,6.718100070999981],[9.266030311999998,6.719176769000001],[9.270593642999984,6.719144820999986],[9.279720306000002,6.719082832000026],[9.285432816000025,6.720191001999979],[9.291146277999985,6.721301079],[9.295701027000007,6.720119952999994],[9.300264358999982,6.720088959000009],[9.303669930000012,6.717770099999996],[9.307058333999976,6.713153838999972],[9.309297561999983,6.7073979379999855],[9.313809395000021,6.700478077000014],[9.318322181999974,6.6935591700000145],[9.325098991000004,6.684327126000028],[9.334148406999986,6.673932076000028],[9.343207359000019,6.664684771999987],[9.347702980000008,6.655468940999981],[9.35221481299999,6.648549080000009],[9.35787677799999,6.642769814000019],[9.36124801599999,6.635858058999986],[9.368041991999974,6.628921986000023],[9.372579574999975,6.625446796000006],[9.377117156999986,6.621972083999992],[9.381655693000027,6.618495940999992],[9.386176109000019,6.612723827000025],[9.391854286000012,6.609241009000016],[9.396392821999996,6.6057648660000154],[9.402062415999978,6.601133822999998],[9.405442237999978,6.595369816000016],[9.40997123699998,6.590745926000011],[9.413369178999972,6.587277889000006],[9.416757583999981,6.582663059000026],[9.420137404999991,6.5768990519999875],[9.42239379900002,6.5734391209999785],[9.424649239000018,6.569979191000016],[9.428029059999972,6.5642151829999875],[9.432541846999982,6.557295798999974],[9.438195228999973,6.550367832000006],[9.441592216000004,6.546901225999989],[9.446121215999995,6.542276859000026],[9.449518204000015,6.538808823000011],[9.45406436899998,6.536480903999973],[9.45860195199998,6.533006191000027],[9.462008475999994,6.530685902000016],[9.465413093999985,6.528367043000003],[9.468827248000025,6.527194977000022],[9.471092224000017,6.5248842240000045],[9.472207068999978,6.521430968999994],[9.473321914999985,6.517979145000027],[9.473297118999994,6.514534949999984],[9.474411964000012,6.511083126000017],[9.47436141999998,6.504195213000003],[9.474327087000006,6.499602794999987],[9.473152160999973,6.49501800500002],[9.471977234000008,6.4904341700000145],[9.470819473000006,6.488145827999972],[9.467286109999975,6.473245143999975],[9.467234612000027,6.466357231000018],[9.466034889000014,6.458327769999983],[9.465628623999976,6.455608368000014],[9.465654470000004,6.455151305000015],[9.466416417999994,6.455956818000004],[9.467182227000023,6.456099719999997],[9.475671062999993,6.454108917999974],[9.515731894999988,6.4451035970000135],[9.52931179799998,6.445756721999999],[9.567099986000017,6.464696066999977],[9.585328586000003,6.475221652000016],[9.584663733000014,6.477029895999976],[9.584506711000017,6.478404952999995],[9.584777142000007,6.483692627999972],[9.585042703,6.4847499190000235],[9.583679668999991,6.490475773000014],[9.583569502999978,6.490938560000018],[9.583486490999974,6.495216090999975],[9.584518462999995,6.50168114600001],[9.585485566999978,6.506111727000018],[9.585690516,6.507050659000015],[9.585974620000002,6.508322378000003],[9.586293602000012,6.509205373999976],[9.586647464999999,6.5096996490000265],[9.587185214999977,6.510186546],[9.58855723900001,6.511428824999996],[9.589299931000028,6.512099316999979],[9.590679125000008,6.513263747999986],[9.592484141,6.516017733000012],[9.592626536000012,6.516936266000016],[9.592664064000019,6.518808954999997],[9.592633121999995,6.52080649200002],[9.592631224000002,6.520929070000022],[9.592667715000005,6.52191839599999],[9.592880482999988,6.522589503000006],[9.594369454000002,6.5269339029999855],[9.59475904300001,6.527746138999987],[9.595219251999993,6.5285229560000175],[9.596032763999972,6.529299354999978],[9.596704495999973,6.529687239999987],[9.597552588999974,6.529827572999977],[9.599142321999977,6.529719681000017],[9.60034337899998,6.529576913000028],[9.601155803999973,6.529434605999995],[9.60147930300002,6.529333774000008],[9.602179997000007,6.529115371999978],[9.602373539999974,6.529031391999979],[9.60221171400002,6.530534371999977],[9.602522850000014,6.538202286000001],[9.606478691000007,6.5718207360000065],[9.62229824100001,6.664106369000024],[9.636141776999978,6.712885857000003],[9.64602947200001,6.738594055000021],[9.648666381999988,6.799238682000009],[9.64339256300002,6.843403815999977],[9.641414641999972,6.866475582000021],[9.645699501000024,6.894820213000003],[9.664156913999989,6.9356894489999945],[9.68920612300002,6.986446856999976],[9.699752808000028,7.011495589999981],[9.737985611,7.078073024999981]]]},"properties":{"fid":743,"cty_nm":"Nigeria","iso3cd":"NGA","adm1nm":"Benue","adm2nm":"Kwande","adm1cd":"NGA007","adm2cd":"NGA007011"}}]}